{
  "type": "FeatureCollection",
  "features": [
    {
      "type": "Feature",
      "id": 1,
      "geometry": {
        "type": "Polygon",
        "coordinates": [
          [
            [
              80.32282476497285,
              7.051334163216255
            ],
            [
              80.32293280639433,
              7.05139657156905
            ],
            [
              80.32288947762453,
              7.051471435743547
            ],
            [
              80.32287819654458,
              7.051464919419839
            ],
            [
              80.32279699720361,
              7.05141801657073
            ],
            [
              80.32277781756405,
              7.051406937186075
            ],
            [
              80.32277026819887,
              7.051402576344061
            ],
            [
              80.32277004022494,
              7.051402444856312
            ],
            [
              80.32273802440429,
              7.051383951402071
            ],
            [
              80.32278082218677,
              7.051310004573911
            ],
            [
              80.3227813531876,
              7.051309087242889
            ],
            [
              80.32278157392473,
              7.051309214197465
            ],
            [
              80.32278223975257,
              7.0513095986845435
            ],
            [
              80.32282476497285,
              7.051334163216255
            ]
          ]
        ]
      },
      "properties": {
        "OBJECTID": 1,
        "Entity": "LWPolyline",
        "Handle": "1EE0C",
        "Layer": "C-TINN-BNDY",
        "LyrFrzn": 0,
        "LyrOn": 1,
        "Color": 7,
        "Linetype": "Continuous",
        "Elevation": -63.99,
        "LineWt": 25,
        "RefName": "",
        "DocUpdate": 1783359710000,
        "DocId": 1.1061215596273316e+19,
        "t0": null,
        "t00": null,
        "Shape_Length": 57.76559071645906,
        "Shape_Area": 184.7311898241631
      }
    },
    {
      "type": "Feature",
      "id": 2,
      "geometry": {
        "type": "Polygon",
        "coordinates": [
          [
            [
              80.32639814280154,
              7.055316243111073
            ],
            [
              80.32627111298498,
              7.055387395845682
            ],
            [
              80.32618812912332,
              7.05523953506381
            ],
            [
              80.32631812476284,
              7.055166721382166
            ],
            [
              80.32635551302515,
              7.055233339928659
            ],
            [
              80.32640110865715,
              7.055314582144072
            ],
            [
              80.32639814280154,
              7.055316243111073
            ]
          ]
        ]
      },
      "properties": {
        "OBJECTID": 2,
        "Entity": "LWPolyline",
        "Handle": "1EE0D",
        "Layer": "C-TINN-BNDY",
        "LyrFrzn": 0,
        "LyrOn": 1,
        "Color": 7,
        "Linetype": "Continuous",
        "Elevation": -63.99,
        "LineWt": 25,
        "RefName": "",
        "DocUpdate": 1783359710000,
        "DocId": 1.1061215596273316e+19,
        "t0": null,
        "t00": null,
        "Shape_Length": 70.40171023657263,
        "Shape_Area": 308.47454460050506
      }
    },
    {
      "type": "Feature",
      "id": 3,
      "geometry": {
        "type": "Polygon",
        "coordinates": [
          [
            [
              80.32799453228581,
              7.0551958109147686
            ],
            [
              80.32801028812246,
              7.0552563387459095
            ],
            [
              80.32797254312045,
              7.055266144741696
            ],
            [
              80.3279567872886,
              7.055205616909738
            ],
            [
              80.32799453228581,
              7.0551958109147686
            ]
          ]
        ]
      },
      "properties": {
        "OBJECTID": 3,
        "Entity": "LWPolyline",
        "Handle": "1EE0E",
        "Layer": "C-TINN-BNDY",
        "LyrFrzn": 0,
        "LyrOn": 1,
        "Color": 7,
        "Linetype": "Continuous",
        "Elevation": -63.99,
        "LineWt": 25,
        "RefName": "",
        "DocUpdate": 1783359710000,
        "DocId": 1.1061215596273316e+19,
        "t0": null,
        "t00": null,
        "Shape_Length": 22.4431977830355,
        "Shape_Area": 29.782274496417507
      }
    },
    {
      "type": "Feature",
      "id": 4,
      "geometry": {
        "type": "Polygon",
        "coordinates": [
          [
            [
              80.32800956195402,
              7.05528900040797
            ],
            [
              80.32804631879766,
              7.055275035750893
            ],
            [
              80.32805061286314,
              7.055273404724856
            ],
            [
              80.32808014317209,
              7.055262185778737
            ],
            [
              80.32809090412724,
              7.05529045617986
            ],
            [
              80.32809162032028,
              7.055292338640352
            ],
            [
              80.32809456447757,
              7.05530007121205
            ],
            [
              80.32809751945437,
              7.055307835457994
            ],
            [
              80.32810752453223,
              7.055334117510844
            ],
            [
              80.32813158380242,
              7.055397322044117
            ],
            [
              80.32806542799162,
              7.055422455188445
            ],
            [
              80.32806431280132,
              7.055422879618857
            ],
            [
              80.32806145643153,
              7.055423964566588
            ],
            [
              80.32806100256536,
              7.055424136679317
            ],
            [
              80.32806059485968,
              7.055423064220291
            ],
            [
              80.32800956195402,
              7.05528900040797
            ]
          ]
        ]
      },
      "properties": {
        "OBJECTID": 4,
        "Entity": "LWPolyline",
        "Handle": "1EE0F",
        "Layer": "C-TINN-BNDY",
        "LyrFrzn": 0,
        "LyrOn": 1,
        "Color": 7,
        "Linetype": "Continuous",
        "Elevation": -63.99,
        "LineWt": 25,
        "RefName": "",
        "DocUpdate": 1783359710000,
        "DocId": 1.1061215596273316e+19,
        "t0": null,
        "t00": null,
        "Shape_Length": 48.64745581007028,
        "Shape_Area": 133.30380413267832
      }
    },
    {
      "type": "Feature",
      "id": 5,
      "geometry": {
        "type": "Polygon",
        "coordinates": [
          [
            [
              80.3281599294755,
              7.055347407250877
            ],
            [
              80.3281493140933,
              7.055327436156081
            ],
            [
              80.32818073735564,
              7.05531076739902
            ],
            [
              80.32820138959441,
              7.055299811553586
            ],
            [
              80.32823223203249,
              7.055283450402956
            ],
            [
              80.32828523582283,
              7.055383170081915
            ],
            [
              80.32820231786913,
              7.055427155843063
            ],
            [
              80.3281599294755,
              7.055347407250877
            ]
          ]
        ]
      },
      "properties": {
        "OBJECTID": 5,
        "Entity": "LWPolyline",
        "Handle": "1EE10",
        "Layer": "C-TINN-BNDY",
        "LyrFrzn": 0,
        "LyrOn": 1,
        "Color": 7,
        "Linetype": "Continuous",
        "Elevation": -63.99,
        "LineWt": 25,
        "RefName": "",
        "DocUpdate": 1783359710000,
        "DocId": 1.1061215596273316e+19,
        "t0": null,
        "t00": null,
        "Shape_Length": 45.702438555477976,
        "Shape_Area": 129.4276700349636
      }
    },
    {
      "type": "Feature",
      "id": 6,
      "geometry": {
        "type": "Polygon",
        "coordinates": [
          [
            [
              80.32792725796605,
              7.055557039962921
            ],
            [
              80.3278837754189,
              7.055512121551905
            ],
            [
              80.32792092608028,
              7.055476228867009
            ],
            [
              80.32796440862832,
              7.055521147274656
            ],
            [
              80.32792725796605,
              7.055557039962921
            ]
          ]
        ]
      },
      "properties": {
        "OBJECTID": 6,
        "Entity": "LWPolyline",
        "Handle": "1EE11",
        "Layer": "C-TINN-BNDY",
        "LyrFrzn": 0,
        "LyrOn": 1,
        "Color": 7,
        "Linetype": "Continuous",
        "Elevation": -63.99,
        "LineWt": 25,
        "RefName": "",
        "DocUpdate": 1783359710000,
        "DocId": 1.1061215596273316e+19,
        "t0": null,
        "t00": null,
        "Shape_Length": 25.232519484593006,
        "Shape_Area": 39.4323569912731
      }
    },
    {
      "type": "Feature",
      "id": 7,
      "geometry": {
        "type": "Polygon",
        "coordinates": [
          [
            [
              80.32807029876355,
              7.055650044653327
            ],
            [
              80.3280958761347,
              7.055590388578627
            ],
            [
              80.32814618132038,
              7.055611913792811
            ],
            [
              80.32812060395398,
              7.055671569870712
            ],
            [
              80.32807029876355,
              7.055650044653327
            ]
          ]
        ]
      },
      "properties": {
        "OBJECTID": 7,
        "Entity": "LWPolyline",
        "Handle": "1EE12",
        "Layer": "C-TINN-BNDY",
        "LyrFrzn": 0,
        "LyrOn": 1,
        "Color": 7,
        "Linetype": "Continuous",
        "Elevation": -63.99,
        "LineWt": 25,
        "RefName": "",
        "DocUpdate": 1783359710000,
        "DocId": 1.1061215596273316e+19,
        "t0": null,
        "t00": null,
        "Shape_Length": 26.437851057059397,
        "Shape_Area": 43.36543260600375
      }
    },
    {
      "type": "Feature",
      "id": 8,
      "geometry": {
        "type": "Polygon",
        "coordinates": [
          [
            [
              80.32822762734678,
              7.055702780127727
            ],
            [
              80.32814125435347,
              7.055685764583204
            ],
            [
              80.32815505332957,
              7.055615858566966
            ],
            [
              80.32825031415953,
              7.055634625409061
            ],
            [
              80.32824085125715,
              7.05568256564259
            ],
            [
              80.32823651519664,
              7.055704531429357
            ],
            [
              80.32822762734678,
              7.055702780127727
            ]
          ]
        ]
      },
      "properties": {
        "OBJECTID": 8,
        "Entity": "LWPolyline",
        "Handle": "1EE13",
        "Layer": "C-TINN-BNDY",
        "LyrFrzn": 0,
        "LyrOn": 1,
        "Color": 7,
        "Linetype": "Continuous",
        "Elevation": -63.99,
        "LineWt": 25,
        "RefName": "",
        "DocUpdate": 1783359710000,
        "DocId": 1.1061215596273316e+19,
        "t0": null,
        "t00": null,
        "Shape_Length": 37.20197996500211,
        "Shape_Area": 84.47344183022757
      }
    },
    {
      "type": "Feature",
      "id": 9,
      "geometry": {
        "type": "Polygon",
        "coordinates": [
          [
            [
              80.3282887154828,
              7.055587229729818
            ],
            [
              80.32836079102793,
              7.055548871743903
            ],
            [
              80.32839409392218,
              7.055611384932769
            ],
            [
              80.32827770272084,
              7.055673328198504
            ],
            [
              80.32827767834091,
              7.055673282032226
            ],
            [
              80.32827360679318,
              7.055665640101716
            ],
            [
              80.32826841193796,
              7.055655888087204
            ],
            [
              80.32825386941067,
              7.055628590953404
            ],
            [
              80.32824830252838,
              7.055618140103539
            ],
            [
              80.32824439983936,
              7.055610815002557
            ],
            [
              80.32824722421852,
              7.055609311208703
            ],
            [
              80.328247234186,
              7.055609305795851
            ],
            [
              80.32827345006864,
              7.055595353997136
            ],
            [
              80.32828642299695,
              7.055588450265619
            ],
            [
              80.3282887154828,
              7.055587229729818
            ]
          ]
        ]
      },
      "properties": {
        "OBJECTID": 9,
        "Entity": "LWPolyline",
        "Handle": "1EE14",
        "Layer": "C-TINN-BNDY",
        "LyrFrzn": 0,
        "LyrOn": 1,
        "Color": 7,
        "Linetype": "Continuous",
        "Elevation": -63.99,
        "LineWt": 25,
        "RefName": "",
        "DocUpdate": 1783359710000,
        "DocId": 1.1061215596273316e+19,
        "t0": null,
        "t00": null,
        "Shape_Length": 44.78820439342044,
        "Shape_Area": 114.03022121503017
      }
    },
    {
      "type": "Feature",
      "id": 10,
      "geometry": {
        "type": "Polygon",
        "coordinates": [
          [
            [
              80.32930292058333,
              7.056874844308295
            ],
            [
              80.32935330528912,
              7.05687900699823
            ],
            [
              80.32941889575933,
              7.056884426214987
            ],
            [
              80.32942125774056,
              7.05688462136918
            ],
            [
              80.32941660534206,
              7.0569408206047335
            ],
            [
              80.32934348169121,
              7.056934779099305
            ],
            [
              80.3292862382716,
              7.056930049360369
            ],
            [
              80.32928065425416,
              7.056929588165741
            ],
            [
              80.32928259390545,
              7.0569061626243785
            ],
            [
              80.32928453726018,
              7.056882680102658
            ],
            [
              80.3292848533089,
              7.056878868851592
            ],
            [
              80.32928506340399,
              7.0568763283181735
            ],
            [
              80.3292853066687,
              7.056873388933054
            ],
            [
              80.32930109817383,
              7.056874693346381
            ],
            [
              80.32930291786705,
              7.056874844304392
            ],
            [
              80.32930292058333,
              7.056874844308295
            ]
          ]
        ]
      },
      "properties": {
        "OBJECTID": 10,
        "Entity": "LWPolyline",
        "Handle": "1EE15",
        "Layer": "C-TINN-BNDY",
        "LyrFrzn": 0,
        "LyrOn": 1,
        "Color": 7,
        "Linetype": "Continuous",
        "Elevation": -63.99,
        "LineWt": 25,
        "RefName": "",
        "DocUpdate": 1783359710000,
        "DocId": 1.1061215596273316e+19,
        "t0": null,
        "t00": null,
        "Shape_Length": 42.601343354158885,
        "Shape_Area": 93.92803688578547
      }
    },
    {
      "type": "Feature",
      "id": 11,
      "geometry": {
        "type": "Polygon",
        "coordinates": [
          [
            [
              80.32917564540621,
              7.056674911435348
            ],
            [
              80.3291794133247,
              7.056674610212892
            ],
            [
              80.32918919521859,
              7.056796847579983
            ],
            [
              80.32909231686737,
              7.056804584131307
            ],
            [
              80.3290612815647,
              7.0568070631752615
            ],
            [
              80.329051770976,
              7.056688217295452
            ],
            [
              80.32905149970466,
              7.056684825808707
            ],
            [
              80.32906459279022,
              7.056683779990612
            ],
            [
              80.32912134971609,
              7.056679247533892
            ],
            [
              80.32917564540621,
              7.056674911435348
            ]
          ]
        ]
      },
      "properties": {
        "OBJECTID": 11,
        "Entity": "LWPolyline",
        "Handle": "1EE16",
        "Layer": "C-TINN-BNDY",
        "LyrFrzn": 0,
        "LyrOn": 1,
        "Color": 7,
        "Linetype": "Continuous",
        "Elevation": -63.99,
        "LineWt": 25,
        "RefName": "",
        "DocUpdate": 1783359710000,
        "DocId": 1.1061215596273316e+19,
        "t0": null,
        "t00": null,
        "Shape_Length": 55.45898743870435,
        "Shape_Area": 192.13606425895648
      }
    },
    {
      "type": "Feature",
      "id": 12,
      "geometry": {
        "type": "Polygon",
        "coordinates": [
          [
            [
              80.32923148062744,
              7.057199870879644
            ],
            [
              80.32912024111496,
              7.057179363531527
            ],
            [
              80.32914534425109,
              7.057043461761823
            ],
            [
              80.32925658373335,
              7.057063969101116
            ],
            [
              80.32923945806961,
              7.05715668181265
            ],
            [
              80.32923148062744,
              7.057199870879644
            ]
          ]
        ]
      },
      "properties": {
        "OBJECTID": 12,
        "Entity": "LWPolyline",
        "Handle": "1EE17",
        "Layer": "C-TINN-BNDY",
        "LyrFrzn": 0,
        "LyrOn": 1,
        "Color": 7,
        "Linetype": "Continuous",
        "Elevation": -63.99,
        "LineWt": 25,
        "RefName": "",
        "DocUpdate": 1783359710000,
        "DocId": 1.1061215596273316e+19,
        "t0": null,
        "t00": null,
        "Shape_Length": 55.54296606778966,
        "Shape_Area": 190.87469704793725
      }
    },
    {
      "type": "Feature",
      "id": 13,
      "geometry": {
        "type": "Polygon",
        "coordinates": [
          [
            [
              80.32951314316676,
              7.056889753617591
            ],
            [
              80.3295455606728,
              7.05688691742915
            ],
            [
              80.3296417057128,
              7.056878504949379
            ],
            [
              80.32964455454848,
              7.05687825577096
            ],
            [
              80.32964502757287,
              7.056883647471695
            ],
            [
              80.32965327645164,
              7.056977739878105
            ],
            [
              80.32955410687975,
              7.056986416660898
            ],
            [
              80.32954926041604,
              7.056986841162763
            ],
            [
              80.32952292271519,
              7.056989145172169
            ],
            [
              80.32952186504163,
              7.056989237724517
            ],
            [
              80.32952181248191,
              7.056988639752204
            ],
            [
              80.32952078894877,
              7.056976963464627
            ],
            [
              80.32951314316676,
              7.056889753617591
            ]
          ]
        ]
      },
      "properties": {
        "OBJECTID": 13,
        "Entity": "LWPolyline",
        "Handle": "1EE18",
        "Layer": "C-TINN-BNDY",
        "LyrFrzn": 0,
        "LyrOn": 1,
        "Color": 7,
        "Linetype": "Continuous",
        "Elevation": -63.99,
        "LineWt": 25,
        "RefName": "",
        "DocUpdate": 1783359710000,
        "DocId": 1.1061215596273316e+19,
        "t0": null,
        "t00": null,
        "Shape_Length": 51.21960072208291,
        "Shape_Area": 160.85250662413426
      }
    },
    {
      "type": "Feature",
      "id": 14,
      "geometry": {
        "type": "Polygon",
        "coordinates": [
          [
            [
              80.33085790348214,
              7.060018967344634
            ],
            [
              80.33071903460608,
              7.059985976110998
            ],
            [
              80.3307396208097,
              7.059899492399655
            ],
            [
              80.33089515845282,
              7.059936443154755
            ],
            [
              80.33087469616524,
              7.060022404232468
            ],
            [
              80.33087457683352,
              7.060022905173117
            ],
            [
              80.33087457227516,
              7.060022926875392
            ],
            [
              80.330874551458,
              7.060022921418344
            ],
            [
              80.33087333134807,
              7.060022632026894
            ],
            [
              80.33085790348214,
              7.060018967344634
            ]
          ]
        ]
      },
      "properties": {
        "OBJECTID": 14,
        "Entity": "LWPolyline",
        "Handle": "1EE19",
        "Layer": "C-TINN-BNDY",
        "LyrFrzn": 0,
        "LyrOn": 1,
        "Color": 7,
        "Linetype": "Continuous",
        "Elevation": -63.99,
        "LineWt": 25,
        "RefName": "",
        "DocUpdate": 1783359710000,
        "DocId": 1.1061215596273316e+19,
        "t0": null,
        "t00": null,
        "Shape_Length": 54.97011864559859,
        "Shape_Area": 173.5318326092269
      }
    },
    {
      "type": "Feature",
      "id": 15,
      "geometry": {
        "type": "Polygon",
        "coordinates": [
          [
            [
              80.33103104584829,
              7.060380293793387
            ],
            [
              80.33108422841539,
              7.060404864820218
            ],
            [
              80.33106609603846,
              7.060444032279277
            ],
            [
              80.33105323019167,
              7.060438088231632
            ],
            [
              80.33101291346821,
              7.060419461250089
            ],
            [
              80.33103104584829,
              7.060380293793387
            ]
          ]
        ]
      },
      "properties": {
        "OBJECTID": 15,
        "Entity": "LWPolyline",
        "Handle": "1EE1A",
        "Layer": "C-TINN-BNDY",
        "LyrFrzn": 0,
        "LyrOn": 1,
        "Color": 7,
        "Linetype": "Continuous",
        "Elevation": -63.99,
        "LineWt": 25,
        "RefName": "",
        "DocUpdate": 1783359710000,
        "DocId": 1.1061215596273316e+19,
        "t0": null,
        "t00": null,
        "Shape_Length": 22.484459676518455,
        "Shape_Area": 30.873936721540776
      }
    },
    {
      "type": "Feature",
      "id": 16,
      "geometry": {
        "type": "Polygon",
        "coordinates": [
          [
            [
              80.33098802588312,
              7.060348166383884
            ],
            [
              80.3309686976789,
              7.060384003439292
            ],
            [
              80.33091161881882,
              7.0603532805048905
            ],
            [
              80.3309324803899,
              7.060314600891766
            ],
            [
              80.33098697803541,
              7.060343935280862
            ],
            [
              80.3309870938425,
              7.060343996955215
            ],
            [
              80.33098711917384,
              7.060344011464088
            ],
            [
              80.33098955924707,
              7.060345323823348
            ],
            [
              80.33098802588312,
              7.060348166383884
            ]
          ]
        ]
      },
      "properties": {
        "OBJECTID": 16,
        "Entity": "LWPolyline",
        "Handle": "1EE1B",
        "Layer": "C-TINN-BNDY",
        "LyrFrzn": 0,
        "LyrOn": 1,
        "Color": 7,
        "Linetype": "Continuous",
        "Elevation": -63.99,
        "LineWt": 25,
        "RefName": "",
        "DocUpdate": 1783359710000,
        "DocId": 1.1061215596273316e+19,
        "t0": null,
        "t00": null,
        "Shape_Length": 24.036472549134565,
        "Shape_Area": 34.782730865188604
      }
    },
    {
      "type": "Feature",
      "id": 17,
      "geometry": {
        "type": "Polygon",
        "coordinates": [
          [
            [
              80.33172931814822,
              7.060919935398528
            ],
            [
              80.33178864442793,
              7.060868009664955
            ],
            [
              80.3317893651544,
              7.060867379332439
            ],
            [
              80.3317896580362,
              7.0608677135249795
            ],
            [
              80.33178979905422,
              7.060867873829472
            ],
            [
              80.3318772343281,
              7.060967571966212
            ],
            [
              80.33187466509429,
              7.060969820576678
            ],
            [
              80.33187386368151,
              7.0609705222519565
            ],
            [
              80.33187264977806,
              7.060971584245594
            ],
            [
              80.33181718731679,
              7.061020128043088
            ],
            [
              80.33178363964964,
              7.060981875190957
            ],
            [
              80.3317831949027,
              7.060981368014904
            ],
            [
              80.33172931814822,
              7.060919935398528
            ]
          ]
        ]
      },
      "properties": {
        "OBJECTID": 17,
        "Entity": "LWPolyline",
        "Handle": "1EE1C",
        "Layer": "C-TINN-BNDY",
        "LyrFrzn": 0,
        "LyrOn": 1,
        "Color": 7,
        "Linetype": "Continuous",
        "Elevation": -63.99,
        "LineWt": 25,
        "RefName": "",
        "DocUpdate": 1783359710000,
        "DocId": 1.1061215596273316e+19,
        "t0": null,
        "t00": null,
        "Shape_Length": 47.087413724381136,
        "Shape_Area": 129.84589080922908
      }
    },
    {
      "type": "Feature",
      "id": 18,
      "geometry": {
        "type": "Polygon",
        "coordinates": [
          [
            [
              80.33282814911266,
              7.061279186193954
            ],
            [
              80.33275888765681,
              7.061370184586616
            ],
            [
              80.33254172045244,
              7.06120522157945
            ],
            [
              80.33263173559048,
              7.061086955875688
            ],
            [
              80.3328357113362,
              7.0612418976358455
            ],
            [
              80.33284470431047,
              7.061248728875183
            ],
            [
              80.33284890277947,
              7.061251918839594
            ],
            [
              80.33284072758711,
              7.061262660251391
            ],
            [
              80.33282814911266,
              7.061279186193954
            ]
          ]
        ]
      },
      "properties": {
        "OBJECTID": 18,
        "Entity": "LWPolyline",
        "Handle": "32DA6",
        "Layer": "C-TINN-BNDY",
        "LyrFrzn": 0,
        "LyrOn": 1,
        "Color": 7,
        "Linetype": "Continuous",
        "Elevation": -63.99,
        "LineWt": 25,
        "RefName": "",
        "DocUpdate": 1783359710000,
        "DocId": 1.1061215596273316e+19,
        "t0": null,
        "t00": null,
        "Shape_Length": 93.11216528527521,
        "Shape_Area": 494.9065518358658
      }
    },
    {
      "type": "Feature",
      "id": 19,
      "geometry": {
        "type": "Polygon",
        "coordinates": [
          [
            [
              80.33212599826273,
              7.0619050616295675
            ],
            [
              80.33217322451023,
              7.061914889164352
            ],
            [
              80.33217308593538,
              7.061915550180356
            ],
            [
              80.33215817763849,
              7.061987049440877
            ],
            [
              80.33211537584698,
              7.061978142722644
            ],
            [
              80.33211095138427,
              7.06197722190394
            ],
            [
              80.33211304284715,
              7.061967193615775
            ],
            [
              80.33212599826273,
              7.0619050616295675
            ]
          ]
        ]
      },
      "properties": {
        "OBJECTID": 19,
        "Entity": "LWPolyline",
        "Handle": "32DA7",
        "Layer": "C-TINN-BNDY",
        "LyrFrzn": 0,
        "LyrOn": 1,
        "Color": 7,
        "Linetype": "Continuous",
        "Elevation": -63.99,
        "LineWt": 25,
        "RefName": "",
        "DocUpdate": 1783359710000,
        "DocId": 1.1061215596273316e+19,
        "t0": null,
        "t00": null,
        "Shape_Length": 26.953366519285453,
        "Shape_Area": 43.4151804817567
      }
    },
    {
      "type": "Feature",
      "id": 20,
      "geometry": {
        "type": "Polygon",
        "coordinates": [
          [
            [
              80.33327295165975,
              7.061483346824833
            ],
            [
              80.33332584209752,
              7.061530636387726
            ],
            [
              80.33327790311739,
              7.061584145251454
            ],
            [
              80.33318789198965,
              7.061503665012761
            ],
            [
              80.3332358309701,
              7.061450156158307
            ],
            [
              80.33323765671089,
              7.061451788738496
            ],
            [
              80.33327295165975,
              7.061483346824833
            ]
          ]
        ]
      },
      "properties": {
        "OBJECTID": 20,
        "Entity": "LWPolyline",
        "Handle": "32DA8",
        "Layer": "C-TINN-BNDY",
        "LyrFrzn": 0,
        "LyrOn": 1,
        "Color": 7,
        "Linetype": "Continuous",
        "Elevation": -63.99,
        "LineWt": 25,
        "RefName": "",
        "DocUpdate": 1783359710000,
        "DocId": 1.1061215596273316e+19,
        "t0": null,
        "t00": null,
        "Shape_Length": 42.560609340791686,
        "Shape_Area": 105.91610549011428
      }
    },
    {
      "type": "Feature",
      "id": 21,
      "geometry": {
        "type": "Polygon",
        "coordinates": [
          [
            [
              80.3325799981507,
              7.062306483345588
            ],
            [
              80.33259915639671,
              7.062351285196518
            ],
            [
              80.3325413811757,
              7.062375941536729
            ],
            [
              80.3325222229347,
              7.0623311396838995
            ],
            [
              80.3325799981507,
              7.062306483345588
            ]
          ]
        ]
      },
      "properties": {
        "OBJECTID": 21,
        "Entity": "LWPolyline",
        "Handle": "32DA9",
        "Layer": "C-TINN-BNDY",
        "LyrFrzn": 0,
        "LyrOn": 1,
        "Color": 7,
        "Linetype": "Continuous",
        "Elevation": -63.99,
        "LineWt": 25,
        "RefName": "",
        "DocUpdate": 1783359710000,
        "DocId": 1.1061215596273316e+19,
        "t0": null,
        "t00": null,
        "Shape_Length": 24.64963228739437,
        "Shape_Area": 37.37255499367805
      }
    },
    {
      "type": "Feature",
      "id": 22,
      "geometry": {
        "type": "Polygon",
        "coordinates": [
          [
            [
              80.33402441316765,
              7.0618665226585655
            ],
            [
              80.3340243321089,
              7.0618668545069765
            ],
            [
              80.33402146045182,
              7.061878604831793
            ],
            [
              80.33402071362394,
              7.06188165837825
            ],
            [
              80.33402056790135,
              7.061882254258377
            ],
            [
              80.33400628976516,
              7.061940674936694
            ],
            [
              80.33394260621868,
              7.061925140896308
            ],
            [
              80.33396072963025,
              7.061850988621499
            ],
            [
              80.33402441316765,
              7.0618665226585655
            ]
          ]
        ]
      },
      "properties": {
        "OBJECTID": 22,
        "Entity": "LWPolyline",
        "Handle": "32DAA",
        "Layer": "C-TINN-BNDY",
        "LyrFrzn": 0,
        "LyrOn": 1,
        "Color": 7,
        "Linetype": "Continuous",
        "Elevation": -63.99,
        "LineWt": 25,
        "RefName": "",
        "DocUpdate": 1783359710000,
        "DocId": 1.1061215596273316e+19,
        "t0": null,
        "t00": null,
        "Shape_Length": 31.35750420475232,
        "Shape_Area": 61.096560561113186
      }
    },
    {
      "type": "Feature",
      "id": 23,
      "geometry": {
        "type": "Polygon",
        "coordinates": [
          [
            [
              80.33388994222301,
              7.061835950067124
            ],
            [
              80.33386313963156,
              7.061915541573164
            ],
            [
              80.33372326320108,
              7.061868532157068
            ],
            [
              80.33371853093878,
              7.061866941558399
            ],
            [
              80.33371437335316,
              7.061865544446287
            ],
            [
              80.33370732880807,
              7.061863176263465
            ],
            [
              80.33371167073008,
              7.0618502829008
            ],
            [
              80.33371366028547,
              7.061844374610546
            ],
            [
              80.33373413142148,
              7.061783584768415
            ],
            [
              80.33377561224458,
              7.06179752590013
            ],
            [
              80.33378189749278,
              7.061799637918804
            ],
            [
              80.33388994222301,
              7.061835950067124
            ]
          ]
        ]
      },
      "properties": {
        "OBJECTID": 23,
        "Entity": "LWPolyline",
        "Handle": "32DAB",
        "Layer": "C-TINN-BNDY",
        "LyrFrzn": 0,
        "LyrOn": 1,
        "Color": 7,
        "Linetype": "Continuous",
        "Elevation": -63.99,
        "LineWt": 25,
        "RefName": "",
        "DocUpdate": 1783359710000,
        "DocId": 1.1061215596273316e+19,
        "t0": null,
        "t00": null,
        "Shape_Length": 54.87960746956049,
        "Shape_Area": 168.55706686731926
      }
    },
    {
      "type": "Feature",
      "id": 24,
      "geometry": {
        "type": "Polygon",
        "coordinates": [
          [
            [
              80.33436078819973,
              7.0619342702735155
            ],
            [
              80.33425157391983,
              7.061908479913469
            ],
            [
              80.33425582803015,
              7.061890500221929
            ],
            [
              80.33427127672991,
              7.061825209455148
            ],
            [
              80.33438049099223,
              7.0618509998089465
            ],
            [
              80.33438144316008,
              7.061851247200945
            ],
            [
              80.33438203147678,
              7.0618514000021815
            ],
            [
              80.33450011927643,
              7.061882101949178
            ],
            [
              80.33448318428115,
              7.061947108390947
            ],
            [
              80.3343675664915,
              7.0619170485641645
            ],
            [
              80.33436501953325,
              7.061916386428789
            ],
            [
              80.33436490930933,
              7.061916852106756
            ],
            [
              80.33436078819973,
              7.0619342702735155
            ]
          ]
        ]
      },
      "properties": {
        "OBJECTID": 24,
        "Entity": "LWPolyline",
        "Handle": "32DAC",
        "Layer": "C-TINN-BNDY",
        "LyrFrzn": 0,
        "LyrOn": 1,
        "Color": 7,
        "Linetype": "Continuous",
        "Elevation": -63.99,
        "LineWt": 25,
        "RefName": "",
        "DocUpdate": 1783359710000,
        "DocId": 1.1061215596273316e+19,
        "t0": null,
        "t00": null,
        "Shape_Length": 70.84382137674343,
        "Shape_Area": 218.00995269706067
      }
    },
    {
      "type": "Feature",
      "id": 25,
      "geometry": {
        "type": "Polygon",
        "coordinates": [
          [
            [
              80.33487285798499,
              7.061833077727596
            ],
            [
              80.33492910396777,
              7.061864680949982
            ],
            [
              80.3348392283805,
              7.062024320742104
            ],
            [
              80.33483334620676,
              7.062034768773799
            ],
            [
              80.33482732534333,
              7.0620313853700285
            ],
            [
              80.3347771002121,
              7.062003165538781
            ],
            [
              80.33478730051938,
              7.061985047785621
            ],
            [
              80.3348301931827,
              7.061908859401519
            ],
            [
              80.33485051118228,
              7.061872771212981
            ],
            [
              80.33487036804834,
              7.061837500064965
            ],
            [
              80.33487285798499,
              7.061833077727596
            ]
          ]
        ]
      },
      "properties": {
        "OBJECTID": 25,
        "Entity": "LWPolyline",
        "Handle": "32DAD",
        "Layer": "C-TINN-BNDY",
        "LyrFrzn": 0,
        "LyrOn": 1,
        "Color": 7,
        "Linetype": "Continuous",
        "Elevation": -63.99,
        "LineWt": 25,
        "RefName": "",
        "DocUpdate": 1783359710000,
        "DocId": 1.1061215596273316e+19,
        "t0": null,
        "t00": null,
        "Shape_Length": 57.40224567374381,
        "Shape_Area": 153.761039853915
      }
    },
    {
      "type": "Feature",
      "id": 26,
      "geometry": {
        "type": "Polygon",
        "coordinates": [
          [
            [
              80.33461813134822,
              7.061884711631521
            ],
            [
              80.33473868933399,
              7.061884282060734
            ],
            [
              80.33473892072058,
              7.0619491963109775
            ],
            [
              80.33461836271798,
              7.061949625880249
            ],
            [
              80.33461813134822,
              7.061884711631521
            ]
          ]
        ]
      },
      "properties": {
        "OBJECTID": 26,
        "Entity": "LWPolyline",
        "Handle": "32DAE",
        "Layer": "C-TINN-BNDY",
        "LyrFrzn": 0,
        "LyrOn": 1,
        "Color": 7,
        "Linetype": "Continuous",
        "Elevation": -63.99,
        "LineWt": 25,
        "RefName": "",
        "DocUpdate": 1783359710000,
        "DocId": 1.1061215596273316e+19,
        "t0": null,
        "t00": null,
        "Shape_Length": 40.98311071637282,
        "Shape_Area": 95.55604290286671
      }
    },
    {
      "type": "Feature",
      "id": 27,
      "geometry": {
        "type": "Polygon",
        "coordinates": [
          [
            [
              80.3350769164615,
              7.062192710372386
            ],
            [
              80.33513750293532,
              7.062211170542304
            ],
            [
              80.3351237055916,
              7.062256361323986
            ],
            [
              80.3350850719025,
              7.0622445898191355
            ],
            [
              80.33499899662667,
              7.062218363153204
            ],
            [
              80.33501234914017,
              7.062174628947195
            ],
            [
              80.33501269664407,
              7.06217349063357
            ],
            [
              80.33501279398071,
              7.062173172376165
            ],
            [
              80.33502022712014,
              7.062175437072781
            ],
            [
              80.33505643075438,
              7.062186467922659
            ],
            [
              80.3350705702818,
              7.062190776476626
            ],
            [
              80.3350769164615,
              7.062192710372386
            ]
          ]
        ]
      },
      "properties": {
        "OBJECTID": 27,
        "Entity": "LWPolyline",
        "Handle": "32DAF",
        "Layer": "C-TINN-BNDY",
        "LyrFrzn": 0,
        "LyrOn": 1,
        "Color": 7,
        "Linetype": "Continuous",
        "Elevation": -63.99,
        "LineWt": 25,
        "RefName": "",
        "DocUpdate": 1783359710000,
        "DocId": 1.1061215596273316e+19,
        "t0": null,
        "t00": null,
        "Shape_Length": 39.24592059375291,
        "Shape_Area": 75.21340863069437
      }
    },
    {
      "type": "Feature",
      "id": 28,
      "geometry": {
        "type": "Polygon",
        "coordinates": [
          [
            [
              80.3347152700108,
              7.062223358651843
            ],
            [
              80.3347420689531,
              7.0621234277177
            ],
            [
              80.3347437165806,
              7.0621172819463345
            ],
            [
              80.33474650155178,
              7.062118027636396
            ],
            [
              80.33474731342028,
              7.062118244977987
            ],
            [
              80.33488930082845,
              7.062156246139696
            ],
            [
              80.33486085428777,
              7.062262322856804
            ],
            [
              80.3347152700108,
              7.062223358651843
            ]
          ]
        ]
      },
      "properties": {
        "OBJECTID": 28,
        "Entity": "LWPolyline",
        "Handle": "32DB0",
        "Layer": "C-TINN-BNDY",
        "LyrFrzn": 0,
        "LyrOn": 1,
        "Color": 7,
        "Linetype": "Continuous",
        "Elevation": -63.99,
        "LineWt": 25,
        "RefName": "",
        "DocUpdate": 1783359710000,
        "DocId": 1.1061215596273316e+19,
        "t0": null,
        "t00": null,
        "Shape_Length": 57.57334289815015,
        "Shape_Area": 202.09343806707537
      }
    },
    {
      "type": "Feature",
      "id": 29,
      "geometry": {
        "type": "Polygon",
        "coordinates": [
          [
            [
              80.33484953044885,
              7.06287537669011
            ],
            [
              80.33485562755386,
              7.0628640642310225
            ],
            [
              80.33487600965911,
              7.062875027309783
            ],
            [
              80.33487681582793,
              7.062873531454766
            ],
            [
              80.3348915574573,
              7.0628461794526896
            ],
            [
              80.33490511054394,
              7.062853469427308
            ],
            [
              80.33490536837485,
              7.062852989487122
            ],
            [
              80.3349237323117,
              7.062818917434779
            ],
            [
              80.33493947035821,
              7.0628273828006725
            ],
            [
              80.33499987840591,
              7.062859875689476
            ],
            [
              80.33499362242993,
              7.062871483707046
            ],
            [
              80.33497995206635,
              7.062896847264247
            ],
            [
              80.33497977594209,
              7.062897175359162
            ],
            [
              80.33497960526725,
              7.062897491702903
            ],
            [
              80.33497006288437,
              7.0629151961196825
            ],
            [
              80.33496954087286,
              7.062916164131874
            ],
            [
              80.33495613741118,
              7.062941034192771
            ],
            [
              80.3349550026012,
              7.062943140140149
            ],
            [
              80.33494736488198,
              7.062957309637511
            ],
            [
              80.3349211408291,
              7.062943204019158
            ],
            [
              80.33488302570784,
              7.062922701760922
            ],
            [
              80.33487671239307,
              7.0629193061808415
            ],
            [
              80.33483728448958,
              7.06289809831931
            ],
            [
              80.33483870073182,
              7.062895470857203
            ],
            [
              80.33484953044885,
              7.06287537669011
            ]
          ]
        ]
      },
      "properties": {
        "OBJECTID": 29,
        "Entity": "LWPolyline",
        "Handle": "32DB1",
        "Layer": "C-TINN-BNDY",
        "LyrFrzn": 0,
        "LyrOn": 1,
        "Color": 7,
        "Linetype": "Continuous",
        "Elevation": -63.99,
        "LineWt": 25,
        "RefName": "",
        "DocUpdate": 1783359710000,
        "DocId": 1.1061215596273316e+19,
        "t0": null,
        "t00": null,
        "Shape_Length": 52.08371366561154,
        "Shape_Area": 141.1982993501737
      }
    },
    {
      "type": "Feature",
      "id": 30,
      "geometry": {
        "type": "Polygon",
        "coordinates": [
          [
            [
              80.33833123142742,
              7.057511778365202
            ],
            [
              80.33839749042953,
              7.057447696407464
            ],
            [
              80.33849928068602,
              7.057408867862413
            ],
            [
              80.33856590692055,
              7.057359689522411
            ],
            [
              80.33871520243885,
              7.057257032763048
            ],
            [
              80.33887543386582,
              7.057168920991126
            ],
            [
              80.33890565466469,
              7.0571476909275965
            ],
            [
              80.33901856224094,
              7.057058062105176
            ],
            [
              80.33909021948753,
              7.057002756244048
            ],
            [
              80.33916048859462,
              7.056945604961755
            ],
            [
              80.33919511931694,
              7.056916357889694
            ],
            [
              80.3392297695173,
              7.056889334190521
            ],
            [
              80.33926639359073,
              7.056855259714185
            ],
            [
              80.33926700301848,
              7.056854569511631
            ],
            [
              80.33928026911913,
              7.056838151973377
            ],
            [
              80.3392834751926,
              7.05683372066895
            ],
            [
              80.33929210433769,
              7.05682067048473
            ],
            [
              80.3393186469405,
              7.0568258295313715
            ],
            [
              80.33933123709485,
              7.056828276027955
            ],
            [
              80.339366495681,
              7.056835128938954
            ],
            [
              80.33937169141687,
              7.056836138517305
            ],
            [
              80.33942408235531,
              7.0568463208421655
            ],
            [
              80.3394394314328,
              7.05681933765294
            ],
            [
              80.33944178792854,
              7.056811274339353
            ],
            [
              80.33946559817595,
              7.056729417712666
            ],
            [
              80.33949638116033,
              7.056641150555863
            ],
            [
              80.33949706794355,
              7.0566389046612175
            ],
            [
              80.33953403428046,
              7.056652059160581
            ],
            [
              80.33954152021776,
              7.056654722754504
            ],
            [
              80.339552181706,
              7.056658516083262
            ],
            [
              80.33957137256459,
              7.056665345341058
            ],
            [
              80.3395905634238,
              7.0566721745981145
            ],
            [
              80.33960122491163,
              7.056675968830356
            ],
            [
              80.33960826741325,
              7.056678474406786
            ],
            [
              80.33961201400216,
              7.056679807565135
            ],
            [
              80.3396110756361,
              7.056681964459601
            ],
            [
              80.3395908636626,
              7.056773993166942
            ],
            [
              80.33954891595623,
              7.056849395606585
            ],
            [
              80.33954603095745,
              7.056857270934267
            ],
            [
              80.33953131817778,
              7.056894630955225
            ],
            [
              80.33950298916311,
              7.056949498895347
            ],
            [
              80.33948617679773,
              7.0569759219175
            ],
            [
              80.33947962443125,
              7.056984699304486
            ],
            [
              80.33945236327943,
              7.057016953553393
            ],
            [
              80.339451106446,
              7.057018298628351
            ],
            [
              80.33938018741746,
              7.057089386120295
            ],
            [
              80.33935050950673,
              7.057123024499144
            ],
            [
              80.33931878606434,
              7.057156137158979
            ],
            [
              80.33924030839927,
              7.057202370859362
            ],
            [
              80.33917403372554,
              7.0572648356196135
            ],
            [
              80.33906588604485,
              7.057360794824261
            ],
            [
              80.3390384279263,
              7.057385699414283
            ],
            [
              80.33891602548698,
              7.0575241226137715
            ],
            [
              80.33878408053742,
              7.057649855192008
            ],
            [
              80.33872213105428,
              7.057705255249392
            ],
            [
              80.33870696841252,
              7.057725229426908
            ],
            [
              80.33869678303547,
              7.057743213441513
            ],
            [
              80.33868491686967,
              7.057776720519822
            ],
            [
              80.33868110724525,
              7.057820423176583
            ],
            [
              80.33868347033976,
              7.0578402521313395
            ],
            [
              80.33868665262015,
              7.057854503072505
            ],
            [
              80.33871355707163,
              7.057954956378488
            ],
            [
              80.33875437458168,
              7.058133735928197
            ],
            [
              80.33876547113603,
              7.058207384447947
            ],
            [
              80.33879445104445,
              7.05831281744535
            ],
            [
              80.33883657558131,
              7.058471515443388
            ],
            [
              80.3388412742055,
              7.05848914154453
            ],
            [
              80.33884137331631,
              7.058489484503854
            ],
            [
              80.33887451027803,
              7.0585769294648335
            ],
            [
              80.33889908395922,
              7.058660975713446
            ],
            [
              80.33890174945863,
              7.05866678479742
            ],
            [
              80.33890175397295,
              7.058666793849169
            ],
            [
              80.33891698340656,
              7.058708865463661
            ],
            [
              80.3389270476221,
              7.058771155172645
            ],
            [
              80.33891976440074,
              7.0588648682902155
            ],
            [
              80.33891959586104,
              7.058865597106983
            ],
            [
              80.33888287611458,
              7.058953540100864
            ],
            [
              80.33884385795021,
              7.059002227521655
            ],
            [
              80.3388097922702,
              7.059034495592984
            ],
            [
              80.33880978592447,
              7.059034501011213
            ],
            [
              80.33880592491812,
              7.059037855889689
            ],
            [
              80.33877111785041,
              7.059066816830526
            ],
            [
              80.33876592275027,
              7.059060241638299
            ],
            [
              80.33876099879197,
              7.059054010553655
            ],
            [
              80.33875398612979,
              7.059045135266155
            ],
            [
              80.33874136351861,
              7.059029160472329
            ],
            [
              80.33872874090827,
              7.059013185678234
            ],
            [
              80.33872172915272,
              7.059004310391631
            ],
            [
              80.33871680519556,
              7.058998079306615
            ],
            [
              80.33870850912419,
              7.058987580368073
            ],
            [
              80.33874452910332,
              7.058960153433156
            ],
            [
              80.3387485518889,
              7.058957005018437
            ],
            [
              80.33874855914004,
              7.058956999601491
            ],
            [
              80.33877201433899,
              7.058934724279932
            ],
            [
              80.33879330389739,
              7.058897667589838
            ],
            [
              80.33882009229622,
              7.058839460702128
            ],
            [
              80.3388201156652,
              7.05883894424554
            ],
            [
              80.33882154717124,
              7.058775788900285
            ],
            [
              80.33881656870037,
              7.058733972412966
            ],
            [
              80.33880751430826,
              7.058705311140702
            ],
            [
              80.33880751069935,
              7.058705302090234
            ],
            [
              80.33880489049953,
              7.0586994740747535
            ],
            [
              80.3387704926156,
              7.05861944360869
            ],
            [
              80.338728711013,
              7.0585355321721455
            ],
            [
              80.33872853489696,
              7.0585352198578954
            ],
            [
              80.33871930738853,
              7.058519445254616
            ],
            [
              80.3385997941035,
              7.058392377730694
            ],
            [
              80.33854216602107,
              7.058298654038519
            ],
            [
              80.33847675820952,
              7.0582472027229795
            ],
            [
              80.33838920514448,
              7.058087525824377
            ],
            [
              80.33834124630044,
              7.057995676448898
            ],
            [
              80.33827539956394,
              7.057952408723654
            ],
            [
              80.33824971880553,
              7.05786445057767
            ],
            [
              80.33825458248559,
              7.057658152868417
            ],
            [
              80.33833123142742,
              7.057511778365202
            ]
          ]
        ]
      },
      "properties": {
        "OBJECTID": 30,
        "Entity": "3DPolyline",
        "Handle": "33CEE",
        "Layer": "C-TINN-BNDY",
        "LyrFrzn": 0,
        "LyrOn": 1,
        "Color": 110,
        "Linetype": "Continuous",
        "Elevation": 98.25120532476129,
        "LineWt": 25,
        "RefName": "",
        "DocUpdate": 1783359710000,
        "DocId": 1.1061215596273316e+19,
        "t0": null,
        "t00": null,
        "Shape_Length": 700.7318653498133,
        "Shape_Area": 9187.636924502734
      }
    },
    {
      "type": "Feature",
      "id": 31,
      "geometry": {
        "type": "Polygon",
        "coordinates": [
          [
            [
              80.33833123142742,
              7.057511778365202
            ],
            [
              80.33839749042953,
              7.057447696407464
            ],
            [
              80.33849928068602,
              7.057408867862413
            ],
            [
              80.33856590692055,
              7.057359689522411
            ],
            [
              80.33871520243885,
              7.057257032763048
            ],
            [
              80.33887543386582,
              7.057168920991126
            ],
            [
              80.33890565466469,
              7.0571476909275965
            ],
            [
              80.33901856224094,
              7.057058062105176
            ],
            [
              80.33909021948753,
              7.057002756244048
            ],
            [
              80.33916048859462,
              7.056945604961755
            ],
            [
              80.33919511931694,
              7.056916357889694
            ],
            [
              80.3392297695173,
              7.056889334190521
            ],
            [
              80.33926639359073,
              7.056855259714185
            ],
            [
              80.33926700301848,
              7.056854569511631
            ],
            [
              80.33928026911913,
              7.056838151973377
            ],
            [
              80.3392834751926,
              7.05683372066895
            ],
            [
              80.33929210433769,
              7.05682067048473
            ],
            [
              80.3393186469405,
              7.0568258295313715
            ],
            [
              80.33933123709485,
              7.056828276027955
            ],
            [
              80.339366495681,
              7.056835128938954
            ],
            [
              80.33937169141687,
              7.056836138517305
            ],
            [
              80.33942408235531,
              7.0568463208421655
            ],
            [
              80.3394394314328,
              7.05681933765294
            ],
            [
              80.33944178792854,
              7.056811274339353
            ],
            [
              80.33946559817595,
              7.056729417712666
            ],
            [
              80.33949638116033,
              7.056641150555863
            ],
            [
              80.33949706794355,
              7.0566389046612175
            ],
            [
              80.33953403428046,
              7.056652059160581
            ],
            [
              80.339552181706,
              7.056658516083262
            ],
            [
              80.33957137256459,
              7.056665345341058
            ],
            [
              80.3395905634238,
              7.0566721745981145
            ],
            [
              80.33960826741325,
              7.056678474406786
            ],
            [
              80.33961201400216,
              7.056679807565135
            ],
            [
              80.3396110756361,
              7.056681964459601
            ],
            [
              80.3395908636626,
              7.056773993166942
            ],
            [
              80.33954891595623,
              7.056849395606585
            ],
            [
              80.33954603095745,
              7.056857270934267
            ],
            [
              80.33953131817778,
              7.056894630955225
            ],
            [
              80.33950298916311,
              7.056949498895347
            ],
            [
              80.33948617679773,
              7.0569759219175
            ],
            [
              80.33947962443125,
              7.056984699304486
            ],
            [
              80.33945236327943,
              7.057016953553393
            ],
            [
              80.339451106446,
              7.057018298628351
            ],
            [
              80.33938018741746,
              7.057089386120295
            ],
            [
              80.33935050950673,
              7.057123024499144
            ],
            [
              80.33931878606434,
              7.057156137158979
            ],
            [
              80.33924030839927,
              7.057202370859362
            ],
            [
              80.33917403372554,
              7.0572648356196135
            ],
            [
              80.33906588604485,
              7.057360794824261
            ],
            [
              80.3390384279263,
              7.057385699414283
            ],
            [
              80.33891602548698,
              7.0575241226137715
            ],
            [
              80.33878408053742,
              7.057649855192008
            ],
            [
              80.33872213105428,
              7.057705255249392
            ],
            [
              80.33870696841252,
              7.057725229426908
            ],
            [
              80.33869678303547,
              7.057743213441513
            ],
            [
              80.33868491686967,
              7.057776720519822
            ],
            [
              80.33868110724525,
              7.057820423176583
            ],
            [
              80.33868347033976,
              7.0578402521313395
            ],
            [
              80.33868665262015,
              7.057854503072505
            ],
            [
              80.33871355707163,
              7.057954956378488
            ],
            [
              80.33875437458168,
              7.058133735928197
            ],
            [
              80.33876547113603,
              7.058207384447947
            ],
            [
              80.33879445104445,
              7.05831281744535
            ],
            [
              80.33883657558131,
              7.058471515443388
            ],
            [
              80.3388412742055,
              7.05848914154453
            ],
            [
              80.33884137331631,
              7.058489484503854
            ],
            [
              80.33887451027803,
              7.0585769294648335
            ],
            [
              80.33889908395922,
              7.058660975713446
            ],
            [
              80.33890174945863,
              7.05866678479742
            ],
            [
              80.33890175397295,
              7.058666793849169
            ],
            [
              80.33891698340656,
              7.058708865463661
            ],
            [
              80.3389270476221,
              7.058771155172645
            ],
            [
              80.33891976440074,
              7.0588648682902155
            ],
            [
              80.33891959586104,
              7.058865597106983
            ],
            [
              80.33888287611458,
              7.058953540100864
            ],
            [
              80.33884385795021,
              7.059002227521655
            ],
            [
              80.3388097922702,
              7.059034495592984
            ],
            [
              80.33880978592447,
              7.059034501011213
            ],
            [
              80.33880592491812,
              7.059037855889689
            ],
            [
              80.33877111785041,
              7.059066816830526
            ],
            [
              80.33876592275027,
              7.059060241638299
            ],
            [
              80.33875398612979,
              7.059045135266155
            ],
            [
              80.33874136351861,
              7.059029160472329
            ],
            [
              80.33872874090827,
              7.059013185678234
            ],
            [
              80.33871680519556,
              7.058998079306615
            ],
            [
              80.33870850912419,
              7.058987580368073
            ],
            [
              80.33874452910332,
              7.058960153433156
            ],
            [
              80.3387485518889,
              7.058957005018437
            ],
            [
              80.33874855914004,
              7.058956999601491
            ],
            [
              80.33877201433899,
              7.058934724279932
            ],
            [
              80.33879330389739,
              7.058897667589838
            ],
            [
              80.33882009229622,
              7.058839460702128
            ],
            [
              80.3388201156652,
              7.05883894424554
            ],
            [
              80.33882154717124,
              7.058775788900285
            ],
            [
              80.33881656870037,
              7.058733972412966
            ],
            [
              80.33880751430826,
              7.058705311140702
            ],
            [
              80.33880751069935,
              7.058705302090234
            ],
            [
              80.33880489049953,
              7.0586994740747535
            ],
            [
              80.3387704926156,
              7.05861944360869
            ],
            [
              80.338728711013,
              7.0585355321721455
            ],
            [
              80.33872853489696,
              7.0585352198578954
            ],
            [
              80.33871930738853,
              7.058519445254616
            ],
            [
              80.3385997941035,
              7.058392377730694
            ],
            [
              80.33854216602107,
              7.058298654038519
            ],
            [
              80.33847675820952,
              7.0582472027229795
            ],
            [
              80.33838920514448,
              7.058087525824377
            ],
            [
              80.33834124630044,
              7.057995676448898
            ],
            [
              80.33827539956394,
              7.057952408723654
            ],
            [
              80.33824971880553,
              7.05786445057767
            ],
            [
              80.33825458248559,
              7.057658152868417
            ],
            [
              80.33833123142742,
              7.057511778365202
            ]
          ]
        ]
      },
      "properties": {
        "OBJECTID": 31,
        "Entity": "3DPolyline",
        "Handle": "33D85",
        "Layer": "C-TINN-BNDY",
        "LyrFrzn": 0,
        "LyrOn": 1,
        "Color": 110,
        "Linetype": "Continuous",
        "Elevation": 98.25120532476129,
        "LineWt": 25,
        "RefName": "",
        "DocUpdate": 1783359710000,
        "DocId": 1.1061215596273316e+19,
        "t0": null,
        "t00": null,
        "Shape_Length": 700.7318653432302,
        "Shape_Area": 9187.637013637635
      }
    },
    {
      "type": "Feature",
      "id": 32,
      "geometry": {
        "type": "MultiPolygon",
        "coordinates": [
          [
            [
              [
                80.34126217340848,
                7.058855413942209
              ],
              [
                80.34122864157196,
                7.058905337689886
              ],
              [
                80.34123613494486,
                7.058889334365794
              ],
              [
                80.34133548326177,
                7.058639310740902
              ],
              [
                80.34126217340848,
                7.058855413942209
              ]
            ]
          ],
          [
            [
              [
                80.34122864157196,
                7.058905337689886
              ],
              [
                80.34121707139019,
                7.058930046843047
              ],
              [
                80.34120431901927,
                7.058952616908837
              ],
              [
                80.3412223164712,
                7.058914754024225
              ],
              [
                80.34122864157196,
                7.058905337689886
              ]
            ]
          ]
        ]
      },
      "properties": {
        "OBJECTID": 32,
        "Entity": "3DPolyline",
        "Handle": "3D2FF",
        "Layer": "C-TINN-BNDY",
        "LyrFrzn": 0,
        "LyrOn": 1,
        "Color": 110,
        "Linetype": "Continuous",
        "Elevation": 82.91545677973463,
        "LineWt": 25,
        "RefName": "",
        "DocUpdate": 1783359710000,
        "DocId": 1.1061215596273316e+19,
        "t0": null,
        "t00": null,
        "Shape_Length": 75.33356368291085,
        "Shape_Area": 20.920693575991976
      }
    }
  ]
}