{
"type": "FeatureCollection",
"name": "Diversion_CANAL_",
"crs": { "type": "name", "properties": { "name": "urn:ogc:def:crs:EPSG::32644" } },
"features": [
{ "type": "Feature", "properties": { "Entity": "Line", "Handle": "42892", "Layer": "bottom outlet", "LyrFrzn": 0, "LyrOn": 1, "Color": 2, "Linetype": "Continuous", "Elevation": 0.0, "LineWt": 25, "RefName": null, "DocUpdate": "2026-07-06T00:00:00", "DocId": 1.1061215596299999e+19, "t0": null, "t00": null, "Shape_Leng": 11.5000336361 }, "geometry": { "type": "LineString", "coordinates": [ [ 427047.740699999965727, 780256.418999999761581, 0.0 ], [ 427057.730499999597669, 780250.722100000828505, 0.0 ] ] } },
{ "type": "Feature", "properties": { "Entity": "Line", "Handle": "42893", "Layer": "bottom outlet", "LyrFrzn": 0, "LyrOn": 1, "Color": 2, "Linetype": "Continuous", "Elevation": 0.0, "LineWt": 25, "RefName": null, "DocUpdate": "2026-07-06T00:00:00", "DocId": 1.1061215596299999e+19, "t0": null, "t00": null, "Shape_Leng": 12.000159529 }, "geometry": { "type": "LineString", "coordinates": [ [ 427131.269899999722838, 780067.125600000843406, 0.0 ], [ 427119.625099999830127, 780070.024299999698997, 0.0 ] ] } },
{ "type": "Feature", "properties": { "Entity": "Line", "Handle": "42894", "Layer": "bottom outlet", "LyrFrzn": 0, "LyrOn": 1, "Color": 2, "Linetype": "Continuous", "Elevation": 0.0, "LineWt": 25, "RefName": null, "DocUpdate": "2026-07-06T00:00:00", "DocId": 1.1061215596299999e+19, "t0": null, "t00": null, "Shape_Leng": 2.5500208329 }, "geometry": { "type": "LineString", "coordinates": [ [ 427132.117499999701977, 780068.460400000214577, 0.0 ], [ 427129.643000000156462, 780069.076400000602007, 0.0 ] ] } },
{ "type": "Feature", "properties": { "Entity": "Line", "Handle": "42895", "Layer": "bottom outlet", "LyrFrzn": 0, "LyrOn": 1, "Color": 2, "Linetype": "Continuous", "Elevation": 0.0, "LineWt": 25, "RefName": null, "DocUpdate": "2026-07-06T00:00:00", "DocId": 1.1061215596299999e+19, "t0": null, "t00": null, "Shape_Leng": 2.89992787069 }, "geometry": { "type": "LineString", "coordinates": [ [ 427119.142, 780068.083599999547005, 0.0 ], [ 427119.841900000348687, 780070.89780000038445, 0.0 ] ] } },
{ "type": "Feature", "properties": { "Entity": "Line", "Handle": "42896", "Layer": "bottom outlet", "LyrFrzn": 0, "LyrOn": 1, "Color": 2, "Linetype": "Continuous", "Elevation": 0.0, "LineWt": 25, "RefName": null, "DocUpdate": "2026-07-06T00:00:00", "DocId": 1.1061215596299999e+19, "t0": null, "t00": null, "Shape_Leng": 2.9000236579899998 }, "geometry": { "type": "LineString", "coordinates": [ [ 427121.701899999752641, 780078.369799999520183, 0.0 ], [ 427122.402999999932945, 780081.183800000697374, 0.0 ] ] } },
{ "type": "Feature", "properties": { "Entity": "Line", "Handle": "42897", "Layer": "bottom outlet", "LyrFrzn": 0, "LyrOn": 1, "Color": 2, "Linetype": "Continuous", "Elevation": 0.0, "LineWt": 25, "RefName": null, "DocUpdate": "2026-07-06T00:00:00", "DocId": 1.1061215596299999e+19, "t0": null, "t00": null, "Shape_Leng": 2.2999908393 }, "geometry": { "type": "LineString", "coordinates": [ [ 427130.851800000295043, 780072.89750000089407, 0.0 ], [ 427133.083700000308454, 780072.342000000178814, 0.0 ] ] } },
{ "type": "Feature", "properties": { "Entity": "Line", "Handle": "42898", "Layer": "bottom outlet", "LyrFrzn": 0, "LyrOn": 1, "Color": 2, "Linetype": "Continuous", "Elevation": 0.0, "LineWt": 25, "RefName": null, "DocUpdate": "2026-07-06T00:00:00", "DocId": 1.1061215596299999e+19, "t0": null, "t00": null, "Shape_Leng": 2.2999908393 }, "geometry": { "type": "LineString", "coordinates": [ [ 427130.489500000141561, 780071.441899999976158, 0.0 ], [ 427132.721400000154972, 780070.886399999260902, 0.0 ] ] } },
{ "type": "Feature", "properties": { "Entity": "Line", "Handle": "42899", "Layer": "bottom outlet", "LyrFrzn": 0, "LyrOn": 1, "Color": 2, "Linetype": "Continuous", "Elevation": 0.0, "LineWt": 25, "RefName": null, "DocUpdate": "2026-07-06T00:00:00", "DocId": 1.1061215596299999e+19, "t0": null, "t00": null, "Shape_Leng": 5.7252799495 }, "geometry": { "type": "LineString", "coordinates": [ [ 427129.202100000344217, 780073.308199999853969, 0.0 ], [ 427123.572200000286102, 780074.348899999633431, 0.0 ] ] } },
{ "type": "Feature", "properties": { "Entity": "Line", "Handle": "4289A", "Layer": "bottom outlet", "LyrFrzn": 0, "LyrOn": 1, "Color": 2, "Linetype": "Continuous", "Elevation": 0.0, "LineWt": 25, "RefName": null, "DocUpdate": "2026-07-06T00:00:00", "DocId": 1.1061215596299999e+19, "t0": null, "t00": null, "Shape_Leng": 5.7253671331299998 }, "geometry": { "type": "LineString", "coordinates": [ [ 427123.378899999894202, 780073.572599999606609, 0.0 ], [ 427128.839800000190735, 780071.852600000798702, 0.0 ] ] } },
{ "type": "Feature", "properties": { "Entity": "Line", "Handle": "4289B", "Layer": "bottom outlet", "LyrFrzn": 0, "LyrOn": 1, "Color": 2, "Linetype": "Continuous", "Elevation": 0.0, "LineWt": 25, "RefName": null, "DocUpdate": "2026-07-06T00:00:00", "DocId": 1.1061215596299999e+19, "t0": null, "t00": null, "Shape_Leng": 0.80000411261000004 }, "geometry": { "type": "LineString", "coordinates": [ [ 427123.572200000286102, 780074.348899999633431, 0.0 ], [ 427123.378899999894202, 780073.572599999606609, 0.0 ] ] } },
{ "type": "Feature", "properties": { "Entity": "Line", "Handle": "4289C", "Layer": "bottom outlet", "LyrFrzn": 0, "LyrOn": 1, "Color": 2, "Linetype": "Continuous", "Elevation": 0.0, "LineWt": 25, "RefName": null, "DocUpdate": "2026-07-06T00:00:00", "DocId": 1.1061215596299999e+19, "t0": null, "t00": null, "Shape_Leng": 2.3001120320299999 }, "geometry": { "type": "LineString", "coordinates": [ [ 427131.455699999816716, 780075.323499999940395, 0.0 ], [ 427133.687699999660254, 780074.767899999395013, 0.0 ] ] } },
{ "type": "Feature", "properties": { "Entity": "Line", "Handle": "4289D", "Layer": "bottom outlet", "LyrFrzn": 0, "LyrOn": 1, "Color": 2, "Linetype": "Continuous", "Elevation": 0.0, "LineWt": 25, "RefName": null, "DocUpdate": "2026-07-06T00:00:00", "DocId": 1.1061215596299999e+19, "t0": null, "t00": null, "Shape_Leng": 2.3000149935700001 }, "geometry": { "type": "LineString", "coordinates": [ [ 427129.885599999688566, 780069.016000000759959, 0.0 ], [ 427132.117499999701977, 780068.460400000214577, 0.0 ] ] } },
{ "type": "Feature", "properties": { "Entity": "Line", "Handle": "4289E", "Layer": "bottom outlet", "LyrFrzn": 0, "LyrOn": 1, "Color": 6, "Linetype": "Continuous", "Elevation": 0.0, "LineWt": 25, "RefName": null, "DocUpdate": "2026-07-06T00:00:00", "DocId": 1.1061215596299999e+19, "t0": null, "t00": null, "Shape_Leng": 2.5000100869800002 }, "geometry": { "type": "LineString", "coordinates": [ [ 427130.582299999892712, 780075.540899999439716, 0.0 ], [ 427129.978500000201166, 780073.114900000393391, 0.0 ] ] } },
{ "type": "Feature", "properties": { "Entity": "Line", "Handle": "4289F", "Layer": "bottom outlet", "LyrFrzn": 0, "LyrOn": 1, "Color": 2, "Linetype": "Continuous", "Elevation": 0.0, "LineWt": 25, "RefName": null, "DocUpdate": "2026-07-06T00:00:00", "DocId": 1.1061215596299999e+19, "t0": null, "t00": null, "Shape_Leng": 0.45002508764 }, "geometry": { "type": "LineString", "coordinates": [ [ 427131.455699999816716, 780075.323499999940395, 0.0 ], [ 427131.564399999566376, 780075.760199999436736, 0.0 ] ] } },
{ "type": "Feature", "properties": { "Entity": "Line", "Handle": "428A1", "Layer": "bottom outlet", "LyrFrzn": 0, "LyrOn": 1, "Color": 6, "Linetype": "Continuous", "Elevation": 0.0, "LineWt": 25, "RefName": null, "DocUpdate": "2026-07-06T00:00:00", "DocId": 1.1061215596299999e+19, "t0": null, "t00": null, "Shape_Leng": 0.45002508944800002 }, "geometry": { "type": "LineString", "coordinates": [ [ 427130.582299999892712, 780075.540899999439716, 0.0 ], [ 427130.690999999642372, 780075.977600000798702, 0.0 ] ] } },
{ "type": "Feature", "properties": { "Entity": "Line", "Handle": "428A2", "Layer": "bottom outlet", "LyrFrzn": 0, "LyrOn": 1, "Color": 6, "Linetype": "Continuous", "Elevation": 0.0, "LineWt": 25, "RefName": null, "DocUpdate": "2026-07-06T00:00:00", "DocId": 1.1061215596299999e+19, "t0": null, "t00": null, "Shape_Leng": 0.29999243321399999 }, "geometry": { "type": "LineString", "coordinates": [ [ 427130.291199999861419, 780075.613399999216199, 0.0 ], [ 427130.582299999892712, 780075.540899999439716, 0.0 ] ] } },
{ "type": "Feature", "properties": { "Entity": "Line", "Handle": "428A3", "Layer": "bottom outlet", "LyrFrzn": 0, "LyrOn": 1, "Color": 2, "Linetype": "Continuous", "Elevation": 0.0, "LineWt": 25, "RefName": null, "DocUpdate": "2026-07-06T00:00:00", "DocId": 1.1061215596299999e+19, "t0": null, "t00": null, "Shape_Leng": 1.2000184543000001 }, "geometry": { "type": "LineString", "coordinates": [ [ 427130.39989999961108, 780076.050000000745058, 0.0 ], [ 427131.564399999566376, 780075.760199999436736, 0.0 ] ] } },
{ "type": "Feature", "properties": { "Entity": "Line", "Handle": "428A4", "Layer": "bottom outlet", "LyrFrzn": 0, "LyrOn": 1, "Color": 2, "Linetype": "Continuous", "Elevation": 0.0, "LineWt": 25, "RefName": null, "DocUpdate": "2026-07-06T00:00:00", "DocId": 1.1061215596299999e+19, "t0": null, "t00": null, "Shape_Leng": 0.44992805122700003 }, "geometry": { "type": "LineString", "coordinates": [ [ 427130.291199999861419, 780075.613399999216199, 0.0 ], [ 427130.39989999961108, 780076.050000000745058, 0.0 ] ] } },
{ "type": "Feature", "properties": { "Entity": "Line", "Handle": "428A5", "Layer": "bottom outlet", "LyrFrzn": 0, "LyrOn": 1, "Color": 6, "Linetype": "Continuous", "Elevation": 0.0, "LineWt": 25, "RefName": null, "DocUpdate": "2026-07-06T00:00:00", "DocId": 1.1061215596299999e+19, "t0": null, "t00": null, "Shape_Leng": 2.5000342407199998 }, "geometry": { "type": "LineString", "coordinates": [ [ 427129.687300000339746, 780073.187400000169873, 0.0 ], [ 427130.291199999861419, 780075.613399999216199, 0.0 ] ] } },
{ "type": "Feature", "properties": { "Entity": "Line", "Handle": "428A6", "Layer": "bottom outlet", "LyrFrzn": 0, "LyrOn": 1, "Color": 6, "Linetype": "Continuous", "Elevation": 0.0, "LineWt": 25, "RefName": null, "DocUpdate": "2026-07-06T00:00:00", "DocId": 1.1061215596299999e+19, "t0": null, "t00": null, "Shape_Leng": 2.5000342407199998 }, "geometry": { "type": "LineString", "coordinates": [ [ 427130.851800000295043, 780072.89750000089407, 0.0 ], [ 427131.455699999816716, 780075.323499999940395, 0.0 ] ] } },
{ "type": "Feature", "properties": { "Entity": "Line", "Handle": "428A7", "Layer": "bottom outlet", "LyrFrzn": 0, "LyrOn": 1, "Color": 2, "Linetype": "Continuous", "Elevation": 0.0, "LineWt": 25, "RefName": null, "DocUpdate": "2026-07-06T00:00:00", "DocId": 1.1061215596299999e+19, "t0": null, "t00": null, "Shape_Leng": 0.499987529805 }, "geometry": { "type": "LineString", "coordinates": [ [ 427129.80599999986589, 780075.734099999070168, 0.0 ], [ 427130.291199999861419, 780075.613399999216199, 0.0 ] ] } },
{ "type": "Feature", "properties": { "Entity": "Line", "Handle": "428A8", "Layer": "bottom outlet", "LyrFrzn": 0, "LyrOn": 1, "Color": 6, "Linetype": "Continuous", "Elevation": 0.0, "LineWt": 25, "RefName": null, "DocUpdate": "2026-07-06T00:00:00", "DocId": 1.1061215596299999e+19, "t0": null, "t00": null, "Shape_Leng": 0.45002508764 }, "geometry": { "type": "LineString", "coordinates": [ [ 427131.213100000284612, 780075.383899999782443, 0.0 ], [ 427131.321800000034273, 780075.820599999278784, 0.0 ] ] } },
{ "type": "Feature", "properties": { "Entity": "Line", "Handle": "428A9", "Layer": "bottom outlet", "LyrFrzn": 0, "LyrOn": 1, "Color": 6, "Linetype": "Continuous", "Elevation": 0.0, "LineWt": 25, "RefName": null, "DocUpdate": "2026-07-06T00:00:00", "DocId": 1.1061215596299999e+19, "t0": null, "t00": null, "Shape_Leng": 0.25000583944 }, "geometry": { "type": "LineString", "coordinates": [ [ 427131.213100000284612, 780075.383899999782443, 0.0 ], [ 427131.455699999816716, 780075.323499999940395, 0.0 ] ] } },
{ "type": "Feature", "properties": { "Entity": "Line", "Handle": "428AA", "Layer": "bottom outlet", "LyrFrzn": 0, "LyrOn": 1, "Color": 2, "Linetype": "Continuous", "Elevation": 0.0, "LineWt": 25, "RefName": null, "DocUpdate": "2026-07-06T00:00:00", "DocId": 1.1061215596299999e+19, "t0": null, "t00": null, "Shape_Leng": 0.45002508944800002 }, "geometry": { "type": "LineString", "coordinates": [ [ 427129.885599999688566, 780069.016000000759959, 0.0 ], [ 427129.776899999938905, 780068.579299999400973, 0.0 ] ] } },
{ "type": "Feature", "properties": { "Entity": "Line", "Handle": "428AB", "Layer": "bottom outlet", "LyrFrzn": 0, "LyrOn": 1, "Color": 6, "Linetype": "Continuous", "Elevation": 0.0, "LineWt": 25, "RefName": null, "DocUpdate": "2026-07-06T00:00:00", "DocId": 1.1061215596299999e+19, "t0": null, "t00": null, "Shape_Leng": 0.45002508764 }, "geometry": { "type": "LineString", "coordinates": [ [ 427129.012199999764562, 780069.23340000025928, 0.0 ], [ 427128.903500000014901, 780068.796700000762939, 0.0 ] ] } },
{ "type": "Feature", "properties": { "Entity": "Line", "Handle": "428AC", "Layer": "bottom outlet", "LyrFrzn": 0, "LyrOn": 1, "Color": 6, "Linetype": "Continuous", "Elevation": 0.0, "LineWt": 25, "RefName": null, "DocUpdate": "2026-07-06T00:00:00", "DocId": 1.1061215596299999e+19, "t0": null, "t00": null, "Shape_Leng": 0.29996828167400003 }, "geometry": { "type": "LineString", "coordinates": [ [ 427128.721099999733269, 780069.305800000205636, 0.0 ], [ 427129.012199999764562, 780069.23340000025928, 0.0 ] ] } },
{ "type": "Feature", "properties": { "Entity": "Line", "Handle": "428AD", "Layer": "bottom outlet", "LyrFrzn": 0, "LyrOn": 1, "Color": 2, "Linetype": "Continuous", "Elevation": 0.0, "LineWt": 25, "RefName": null, "DocUpdate": "2026-07-06T00:00:00", "DocId": 1.1061215596299999e+19, "t0": null, "t00": null, "Shape_Leng": 0.449928049419 }, "geometry": { "type": "LineString", "coordinates": [ [ 427128.721099999733269, 780069.305800000205636, 0.0 ], [ 427128.612399999983609, 780068.869200000539422, 0.0 ] ] } },
{ "type": "Feature", "properties": { "Entity": "Line", "Handle": "428AE", "Layer": "bottom outlet", "LyrFrzn": 0, "LyrOn": 1, "Color": 6, "Linetype": "Continuous", "Elevation": 0.0, "LineWt": 25, "RefName": null, "DocUpdate": "2026-07-06T00:00:00", "DocId": 1.1061215596299999e+19, "t0": null, "t00": null, "Shape_Leng": 0.45002508944800002 }, "geometry": { "type": "LineString", "coordinates": [ [ 427129.643000000156462, 780069.076400000602007, 0.0 ], [ 427129.534300000406802, 780068.639699999243021, 0.0 ] ] } },
{ "type": "Feature", "properties": { "Entity": "Line", "Handle": "428AF", "Layer": "bottom outlet", "LyrFrzn": 0, "LyrOn": 1, "Color": 6, "Linetype": "Continuous", "Elevation": 0.0, "LineWt": 25, "RefName": null, "DocUpdate": "2026-07-06T00:00:00", "DocId": 1.1061215596299999e+19, "t0": null, "t00": null, "Shape_Leng": 0.25000583944 }, "geometry": { "type": "LineString", "coordinates": [ [ 427129.643000000156462, 780069.076400000602007, 0.0 ], [ 427129.885599999688566, 780069.016000000759959, 0.0 ] ] } },
{ "type": "Feature", "properties": { "Entity": "Line", "Handle": "428B0", "Layer": "bottom outlet", "LyrFrzn": 0, "LyrOn": 1, "Color": 2, "Linetype": "Continuous", "Elevation": 0.0, "LineWt": 25, "RefName": null, "DocUpdate": "2026-07-06T00:00:00", "DocId": 1.1061215596299999e+19, "t0": null, "t00": null, "Shape_Leng": 0.50001167978299998 }, "geometry": { "type": "LineString", "coordinates": [ [ 427128.23589999973774, 780069.426599999889731, 0.0 ], [ 427128.721099999733269, 780069.305800000205636, 0.0 ] ] } },
{ "type": "Feature", "properties": { "Entity": "Line", "Handle": "428B1", "Layer": "bottom outlet", "LyrFrzn": 0, "LyrOn": 1, "Color": 6, "Linetype": "Continuous", "Elevation": 0.0, "LineWt": 25, "RefName": null, "DocUpdate": "2026-07-06T00:00:00", "DocId": 1.1061215596299999e+19, "t0": null, "t00": null, "Shape_Leng": 2.49993720256 }, "geometry": { "type": "LineString", "coordinates": [ [ 427129.012199999764562, 780069.23340000025928, 0.0 ], [ 427129.616100000217557, 780071.659299999475479, 0.0 ] ] } },
{ "type": "Feature", "properties": { "Entity": "Line", "Handle": "428B2", "Layer": "bottom outlet", "LyrFrzn": 0, "LyrOn": 1, "Color": 6, "Linetype": "Continuous", "Elevation": 0.0, "LineWt": 25, "RefName": null, "DocUpdate": "2026-07-06T00:00:00", "DocId": 1.1061215596299999e+19, "t0": null, "t00": null, "Shape_Leng": 2.5000342409499998 }, "geometry": { "type": "LineString", "coordinates": [ [ 427129.325000000186265, 780071.731799999251962, 0.0 ], [ 427128.721099999733269, 780069.305800000205636, 0.0 ] ] } },
{ "type": "Feature", "properties": { "Entity": "Line", "Handle": "428B3", "Layer": "bottom outlet", "LyrFrzn": 0, "LyrOn": 1, "Color": 6, "Linetype": "Continuous", "Elevation": 0.0, "LineWt": 25, "RefName": null, "DocUpdate": "2026-07-06T00:00:00", "DocId": 1.1061215596299999e+19, "t0": null, "t00": null, "Shape_Leng": 2.5000342409499998 }, "geometry": { "type": "LineString", "coordinates": [ [ 427131.213100000284612, 780075.383899999782443, 0.0 ], [ 427130.609199999831617, 780072.957900000736117, 0.0 ] ] } },
{ "type": "Feature", "properties": { "Entity": "Line", "Handle": "428B4", "Layer": "bottom outlet", "LyrFrzn": 0, "LyrOn": 1, "Color": 6, "Linetype": "Continuous", "Elevation": 0.0, "LineWt": 25, "RefName": null, "DocUpdate": "2026-07-06T00:00:00", "DocId": 1.1061215596299999e+19, "t0": null, "t00": null, "Shape_Leng": 2.49993720256 }, "geometry": { "type": "LineString", "coordinates": [ [ 427130.489500000141561, 780071.441899999976158, 0.0 ], [ 427129.885599999688566, 780069.016000000759959, 0.0 ] ] } },
{ "type": "Feature", "properties": { "Entity": "Line", "Handle": "428B5", "Layer": "bottom outlet", "LyrFrzn": 0, "LyrOn": 1, "Color": 6, "Linetype": "Continuous", "Elevation": 0.0, "LineWt": 25, "RefName": null, "DocUpdate": "2026-07-06T00:00:00", "DocId": 1.1061215596299999e+19, "t0": null, "t00": null, "Shape_Leng": 2.4999372023399999 }, "geometry": { "type": "LineString", "coordinates": [ [ 427129.643000000156462, 780069.076400000602007, 0.0 ], [ 427130.246899999678135, 780071.502299999818206, 0.0 ] ] } },
{ "type": "Feature", "properties": { "Entity": "Line", "Handle": "428B6", "Layer": "bottom outlet", "LyrFrzn": 0, "LyrOn": 1, "Color": 2, "Linetype": "Continuous", "Elevation": 0.0, "LineWt": 25, "RefName": null, "DocUpdate": "2026-07-06T00:00:00", "DocId": 1.1061215596299999e+19, "t0": null, "t00": null, "Shape_Leng": 1.2000426078099999 }, "geometry": { "type": "LineString", "coordinates": [ [ 427128.612399999983609, 780068.869200000539422, 0.0 ], [ 427129.776899999938905, 780068.579299999400973, 0.0 ] ] } },
{ "type": "Feature", "properties": { "Entity": "Line", "Handle": "428B7", "Layer": "bottom outlet", "LyrFrzn": 0, "LyrOn": 1, "Color": 2, "Linetype": "Continuous", "Elevation": 0.0, "LineWt": 25, "RefName": null, "DocUpdate": "2026-07-06T00:00:00", "DocId": 1.1061215596299999e+19, "t0": null, "t00": null, "Shape_Leng": 0.44992805145199999 }, "geometry": { "type": "LineString", "coordinates": [ [ 427130.851800000295043, 780072.89750000089407, 0.0 ], [ 427130.74309999961406, 780072.460899999365211, 0.0 ] ] } },
{ "type": "Feature", "properties": { "Entity": "Line", "Handle": "428B8", "Layer": "bottom outlet", "LyrFrzn": 0, "LyrOn": 1, "Color": 6, "Linetype": "Continuous", "Elevation": 0.0, "LineWt": 25, "RefName": null, "DocUpdate": "2026-07-06T00:00:00", "DocId": 1.1061215596299999e+19, "t0": null, "t00": null, "Shape_Leng": 0.449928049419 }, "geometry": { "type": "LineString", "coordinates": [ [ 427129.978500000201166, 780073.114900000393391, 0.0 ], [ 427129.869800000451505, 780072.678300000727177, 0.0 ] ] } },
{ "type": "Feature", "properties": { "Entity": "Line", "Handle": "428B9", "Layer": "bottom outlet", "LyrFrzn": 0, "LyrOn": 1, "Color": 6, "Linetype": "Continuous", "Elevation": 0.0, "LineWt": 25, "RefName": null, "DocUpdate": "2026-07-06T00:00:00", "DocId": 1.1061215596299999e+19, "t0": null, "t00": null, "Shape_Leng": 0.300089469803 }, "geometry": { "type": "LineString", "coordinates": [ [ 427129.687300000339746, 780073.187400000169873, 0.0 ], [ 427129.978500000201166, 780073.114900000393391, 0.0 ] ] } },
{ "type": "Feature", "properties": { "Entity": "Line", "Handle": "428BA", "Layer": "bottom outlet", "LyrFrzn": 0, "LyrOn": 1, "Color": 2, "Linetype": "Continuous", "Elevation": 0.0, "LineWt": 25, "RefName": null, "DocUpdate": "2026-07-06T00:00:00", "DocId": 1.1061215596299999e+19, "t0": null, "t00": null, "Shape_Leng": 1.2000184543000001 }, "geometry": { "type": "LineString", "coordinates": [ [ 427129.578599999658763, 780072.750700000673532, 0.0 ], [ 427130.74309999961406, 780072.460899999365211, 0.0 ] ] } },
{ "type": "Feature", "properties": { "Entity": "Line", "Handle": "428BB", "Layer": "bottom outlet", "LyrFrzn": 0, "LyrOn": 1, "Color": 2, "Linetype": "Continuous", "Elevation": 0.0, "LineWt": 25, "RefName": null, "DocUpdate": "2026-07-06T00:00:00", "DocId": 1.1061215596299999e+19, "t0": null, "t00": null, "Shape_Leng": 0.45002508786500001 }, "geometry": { "type": "LineString", "coordinates": [ [ 427129.687300000339746, 780073.187400000169873, 0.0 ], [ 427129.578599999658763, 780072.750700000673532, 0.0 ] ] } },
{ "type": "Feature", "properties": { "Entity": "Line", "Handle": "428BC", "Layer": "bottom outlet", "LyrFrzn": 0, "LyrOn": 1, "Color": 2, "Linetype": "Continuous", "Elevation": 0.0, "LineWt": 25, "RefName": null, "DocUpdate": "2026-07-06T00:00:00", "DocId": 1.1061215596299999e+19, "t0": null, "t00": null, "Shape_Leng": 0.50001167978299998 }, "geometry": { "type": "LineString", "coordinates": [ [ 427129.202100000344217, 780073.308199999853969, 0.0 ], [ 427129.687300000339746, 780073.187400000169873, 0.0 ] ] } },
{ "type": "Feature", "properties": { "Entity": "Line", "Handle": "428BD", "Layer": "bottom outlet", "LyrFrzn": 0, "LyrOn": 1, "Color": 6, "Linetype": "Continuous", "Elevation": 0.0, "LineWt": 25, "RefName": null, "DocUpdate": "2026-07-06T00:00:00", "DocId": 1.1061215596299999e+19, "t0": null, "t00": null, "Shape_Leng": 0.45002508944800002 }, "geometry": { "type": "LineString", "coordinates": [ [ 427130.609199999831617, 780072.957900000736117, 0.0 ], [ 427130.500500000081956, 780072.521199999377131, 0.0 ] ] } },
{ "type": "Feature", "properties": { "Entity": "Line", "Handle": "428BE", "Layer": "bottom outlet", "LyrFrzn": 0, "LyrOn": 1, "Color": 6, "Linetype": "Continuous", "Elevation": 0.0, "LineWt": 25, "RefName": null, "DocUpdate": "2026-07-06T00:00:00", "DocId": 1.1061215596299999e+19, "t0": null, "t00": null, "Shape_Leng": 0.250005840343 }, "geometry": { "type": "LineString", "coordinates": [ [ 427130.609199999831617, 780072.957900000736117, 0.0 ], [ 427130.851800000295043, 780072.89750000089407, 0.0 ] ] } },
{ "type": "Feature", "properties": { "Entity": "Line", "Handle": "428BF", "Layer": "bottom outlet", "LyrFrzn": 0, "LyrOn": 1, "Color": 2, "Linetype": "Continuous", "Elevation": 0.0, "LineWt": 25, "RefName": null, "DocUpdate": "2026-07-06T00:00:00", "DocId": 1.1061215596299999e+19, "t0": null, "t00": null, "Shape_Leng": 0.45002508764 }, "geometry": { "type": "LineString", "coordinates": [ [ 427130.489500000141561, 780071.441899999976158, 0.0 ], [ 427130.598199999891222, 780071.878599999472499, 0.0 ] ] } },
{ "type": "Feature", "properties": { "Entity": "Line", "Handle": "428C0", "Layer": "bottom outlet", "LyrFrzn": 0, "LyrOn": 1, "Color": 6, "Linetype": "Continuous", "Elevation": 0.0, "LineWt": 25, "RefName": null, "DocUpdate": "2026-07-06T00:00:00", "DocId": 1.1061215596299999e+19, "t0": null, "t00": null, "Shape_Leng": 0.45002508944800002 }, "geometry": { "type": "LineString", "coordinates": [ [ 427129.616100000217557, 780071.659299999475479, 0.0 ], [ 427129.724799999967217, 780072.096000000834465, 0.0 ] ] } },
{ "type": "Feature", "properties": { "Entity": "Line", "Handle": "428C1", "Layer": "bottom outlet", "LyrFrzn": 0, "LyrOn": 1, "Color": 6, "Linetype": "Continuous", "Elevation": 0.0, "LineWt": 25, "RefName": null, "DocUpdate": "2026-07-06T00:00:00", "DocId": 1.1061215596299999e+19, "t0": null, "t00": null, "Shape_Leng": 0.29999243321399999 }, "geometry": { "type": "LineString", "coordinates": [ [ 427129.325000000186265, 780071.731799999251962, 0.0 ], [ 427129.616100000217557, 780071.659299999475479, 0.0 ] ] } },
{ "type": "Feature", "properties": { "Entity": "Line", "Handle": "428C2", "Layer": "bottom outlet", "LyrFrzn": 0, "LyrOn": 1, "Color": 2, "Linetype": "Continuous", "Elevation": 0.0, "LineWt": 25, "RefName": null, "DocUpdate": "2026-07-06T00:00:00", "DocId": 1.1061215596299999e+19, "t0": null, "t00": null, "Shape_Leng": 1.2000426078099999 }, "geometry": { "type": "LineString", "coordinates": [ [ 427129.433699999935925, 780072.168500000610948, 0.0 ], [ 427130.598199999891222, 780071.878599999472499, 0.0 ] ] } },
{ "type": "Feature", "properties": { "Entity": "Line", "Handle": "428C3", "Layer": "bottom outlet", "LyrFrzn": 0, "LyrOn": 1, "Color": 2, "Linetype": "Continuous", "Elevation": 0.0, "LineWt": 25, "RefName": null, "DocUpdate": "2026-07-06T00:00:00", "DocId": 1.1061215596299999e+19, "t0": null, "t00": null, "Shape_Leng": 0.45002508944800002 }, "geometry": { "type": "LineString", "coordinates": [ [ 427129.325000000186265, 780071.731799999251962, 0.0 ], [ 427129.433699999935925, 780072.168500000610948, 0.0 ] ] } },
{ "type": "Feature", "properties": { "Entity": "Line", "Handle": "428C4", "Layer": "bottom outlet", "LyrFrzn": 0, "LyrOn": 1, "Color": 2, "Linetype": "Continuous", "Elevation": 0.0, "LineWt": 25, "RefName": null, "DocUpdate": "2026-07-06T00:00:00", "DocId": 1.1061215596299999e+19, "t0": null, "t00": null, "Shape_Leng": 0.50001168023300002 }, "geometry": { "type": "LineString", "coordinates": [ [ 427128.839800000190735, 780071.852600000798702, 0.0 ], [ 427129.325000000186265, 780071.731799999251962, 0.0 ] ] } },
{ "type": "Feature", "properties": { "Entity": "Line", "Handle": "428C5", "Layer": "bottom outlet", "LyrFrzn": 0, "LyrOn": 1, "Color": 6, "Linetype": "Continuous", "Elevation": 0.0, "LineWt": 25, "RefName": null, "DocUpdate": "2026-07-06T00:00:00", "DocId": 1.1061215596299999e+19, "t0": null, "t00": null, "Shape_Leng": 0.45002508786500001 }, "geometry": { "type": "LineString", "coordinates": [ [ 427130.246899999678135, 780071.502299999818206, 0.0 ], [ 427130.355600000359118, 780071.938999999314547, 0.0 ] ] } },
{ "type": "Feature", "properties": { "Entity": "Line", "Handle": "428C6", "Layer": "bottom outlet", "LyrFrzn": 0, "LyrOn": 1, "Color": 6, "Linetype": "Continuous", "Elevation": 0.0, "LineWt": 25, "RefName": null, "DocUpdate": "2026-07-06T00:00:00", "DocId": 1.1061215596299999e+19, "t0": null, "t00": null, "Shape_Leng": 0.250005840343 }, "geometry": { "type": "LineString", "coordinates": [ [ 427130.246899999678135, 780071.502299999818206, 0.0 ], [ 427130.489500000141561, 780071.441899999976158, 0.0 ] ] } },
{ "type": "Feature", "properties": { "Entity": "Line", "Handle": "428C7", "Layer": "bottom outlet", "LyrFrzn": 0, "LyrOn": 1, "Color": 6, "Linetype": "Continuous", "Elevation": 0.0, "LineWt": 25, "RefName": null, "DocUpdate": "2026-07-06T00:00:00", "DocId": 1.1061215596299999e+19, "t0": null, "t00": null, "Shape_Leng": 2.50003424276 }, "geometry": { "type": "LineString", "coordinates": [ [ 427128.23589999973774, 780069.426599999889731, 0.0 ], [ 427128.839800000190735, 780071.852600000798702, 0.0 ] ] } },
{ "type": "Feature", "properties": { "Entity": "Line", "Handle": "428C8", "Layer": "bottom outlet", "LyrFrzn": 0, "LyrOn": 1, "Color": 6, "Linetype": "Continuous", "Elevation": 0.0, "LineWt": 25, "RefName": null, "DocUpdate": "2026-07-06T00:00:00", "DocId": 1.1061215596299999e+19, "t0": null, "t00": null, "Shape_Leng": 2.4999372023399999 }, "geometry": { "type": "LineString", "coordinates": [ [ 427129.202100000344217, 780073.308199999853969, 0.0 ], [ 427129.80599999986589, 780075.734099999070168, 0.0 ] ] } },
{ "type": "Feature", "properties": { "Entity": "Line", "Handle": "428C9", "Layer": "bottom outlet", "LyrFrzn": 0, "LyrOn": 1, "Color": 6, "Linetype": "Continuous", "Elevation": 0.0, "LineWt": 25, "RefName": null, "DocUpdate": "2026-07-06T00:00:00", "DocId": 1.1061215596299999e+19, "t0": null, "t00": null, "Shape_Leng": 2.4999372023399999 }, "geometry": { "type": "LineString", "coordinates": [ [ 427129.80599999986589, 780075.734099999070168, 0.0 ], [ 427129.202100000344217, 780073.308199999853969, 0.0 ] ] } },
{ "type": "Feature", "properties": { "Entity": "Line", "Handle": "428CA", "Layer": "bottom outlet", "LyrFrzn": 0, "LyrOn": 1, "Color": 2, "Linetype": "Continuous", "Elevation": 0.0, "LineWt": 25, "RefName": null, "DocUpdate": "2026-07-06T00:00:00", "DocId": 1.1061215596299999e+19, "t0": null, "t00": null, "Shape_Leng": 13.4999763359 }, "geometry": { "type": "LineString", "coordinates": [ [ 427135.153599999845028, 780064.097799999639392, 0.0 ], [ 427138.414599999785423, 780077.198000000789762, 0.0 ] ] } },
{ "type": "Feature", "properties": { "Entity": "Arc", "Handle": "428CB", "Layer": "bottom outlet", "LyrFrzn": 0, "LyrOn": 1, "Color": 2, "Linetype": "Continuous", "Elevation": 0.0, "LineWt": 25, "RefName": null, "DocUpdate": "2026-07-06T00:00:00", "DocId": 1.1061215596299999e+19, "t0": null, "t00": null, "Shape_Leng": 3.9269873625599998 }, "geometry": { "type": "LineString", "coordinates": [ [ 427133.939500000327826, 780065.430500000715256, 0.0 ], [ 427134.00751918554306, 780065.860937154851854, 0.0 ], [ 427133.999760379025247, 780066.296646409085952, 0.0 ], [ 427133.916459328262135, 780066.724388957954943, 0.0 ], [ 427133.760147093504202, 780067.131168060819618, 0.0 ], [ 427133.535573142929934, 780067.504623940447345, 0.0 ], [ 427133.249561042350251, 780067.83340932871215, 0.0 ], [ 427132.910801124700811, 780068.107534248149022, 0.0 ], [ 427132.529586438729893, 780068.318669551750645, 0.0 ], [ 427132.117499999701977, 780068.460400000214577, 0.0 ] ] } },
{ "type": "Feature", "properties": { "Entity": "Line", "Handle": "428CC", "Layer": "bottom outlet", "LyrFrzn": 0, "LyrOn": 1, "Color": 2, "Linetype": "Continuous", "Elevation": 0.0, "LineWt": 25, "RefName": null, "DocUpdate": "2026-07-06T00:00:00", "DocId": 1.1061215596299999e+19, "t0": null, "t00": null, "Shape_Leng": 0.99990216548400002 }, "geometry": { "type": "LineString", "coordinates": [ [ 427133.697999999858439, 780064.460200000554323, 0.0 ], [ 427133.939500000327826, 780065.430500000715256, 0.0 ] ] } },
{ "type": "Feature", "properties": { "Entity": "Line", "Handle": "428CD", "Layer": "bottom outlet", "LyrFrzn": 0, "LyrOn": 1, "Color": 2, "Linetype": "Continuous", "Elevation": 0.0, "LineWt": 25, "RefName": null, "DocUpdate": "2026-07-06T00:00:00", "DocId": 1.1061215596299999e+19, "t0": null, "t00": null, "Shape_Leng": 1.0000233595700001 }, "geometry": { "type": "LineString", "coordinates": [ [ 427136.717400000430644, 780076.589999999850988, 0.0 ], [ 427136.958999999798834, 780077.560399999842048, 0.0 ] ] } },
{ "type": "Feature", "properties": { "Entity": "Arc", "Handle": "428CE", "Layer": "bottom outlet", "LyrFrzn": 0, "LyrOn": 1, "Color": 2, "Linetype": "Continuous", "Elevation": 0.0, "LineWt": 25, "RefName": null, "DocUpdate": "2026-07-06T00:00:00", "DocId": 1.1061215596299999e+19, "t0": null, "t00": null, "Shape_Leng": 3.9269494191900001 }, "geometry": { "type": "LineString", "coordinates": [ [ 427133.687599999830127, 780074.767899999395013, 0.0 ], [ 427134.11803563486319, 780074.699898178922012, 0.0 ], [ 427134.553740377654321, 780074.707673822529614, 0.0 ], [ 427134.981475559994578, 780074.790990671142936, 0.0 ], [ 427135.388244664878584, 780074.947317184647545, 0.0 ], [ 427135.761688218917698, 780075.171903460868634, 0.0 ], [ 427136.09045932861045, 780075.457925559603609, 0.0 ], [ 427136.364568450197112, 780075.796692843898199, 0.0 ], [ 427136.575686916708946, 780076.177912041544914, 0.0 ], [ 427136.717400000430644, 780076.589999999850988, 0.0 ] ] } },
{ "type": "Feature", "properties": { "Entity": "Line", "Handle": "428CF", "Layer": "bottom outlet", "LyrFrzn": 0, "LyrOn": 1, "Color": 6, "Linetype": "Continuous", "Elevation": 0.0, "LineWt": 25, "RefName": null, "DocUpdate": "2026-07-06T00:00:00", "DocId": 1.1061215596299999e+19, "t0": null, "t00": null, "Shape_Leng": 9.1008915956600003 }, "geometry": { "type": "LineString", "coordinates": [ [ 427128.23589999973774, 780069.426599999889731, 0.0 ], [ 427120.771900000050664, 780074.633799999952316, 0.0 ] ] } },
{ "type": "Feature", "properties": { "Entity": "Line", "Handle": "428D0", "Layer": "bottom outlet", "LyrFrzn": 0, "LyrOn": 1, "Color": 6, "Linetype": "Continuous", "Elevation": 0.0, "LineWt": 25, "RefName": null, "DocUpdate": "2026-07-06T00:00:00", "DocId": 1.1061215596299999e+19, "t0": null, "t00": null, "Shape_Leng": 9.1008583603299993 }, "geometry": { "type": "LineString", "coordinates": [ [ 427120.771900000050664, 780074.633799999952316, 0.0 ], [ 427129.80599999986589, 780075.734099999070168, 0.0 ] ] } },
{ "type": "Feature", "properties": { "Entity": "Line", "Handle": "428D1", "Layer": "bottom outlet", "LyrFrzn": 0, "LyrOn": 1, "Color": 6, "Linetype": "Continuous", "Elevation": 0.0, "LineWt": 25, "RefName": null, "DocUpdate": "2026-07-06T00:00:00", "DocId": 1.1061215596299999e+19, "t0": null, "t00": null, "Shape_Leng": 8.6134084808499995 }, "geometry": { "type": "LineString", "coordinates": [ [ 427128.23589999973774, 780069.426599999889731, 0.0 ], [ 427120.323699999600649, 780072.830700000748038, 0.0 ] ] } },
{ "type": "Feature", "properties": { "Entity": "Line", "Handle": "428D2", "Layer": "bottom outlet", "LyrFrzn": 0, "LyrOn": 1, "Color": 6, "Linetype": "Continuous", "Elevation": 0.0, "LineWt": 25, "RefName": null, "DocUpdate": "2026-07-06T00:00:00", "DocId": 1.1061215596299999e+19, "t0": null, "t00": null, "Shape_Leng": 8.5284006532699994 }, "geometry": { "type": "LineString", "coordinates": [ [ 427128.23589999973774, 780069.426599999889731, 0.0 ], [ 427120.154799999669194, 780072.152300000190735, 0.0 ] ] } },
{ "type": "Feature", "properties": { "Entity": "Line", "Handle": "428D3", "Layer": "bottom outlet", "LyrFrzn": 0, "LyrOn": 1, "Color": 6, "Linetype": "Continuous", "Elevation": 0.0, "LineWt": 25, "RefName": null, "DocUpdate": "2026-07-06T00:00:00", "DocId": 1.1061215596299999e+19, "t0": null, "t00": null, "Shape_Leng": 8.5049702134499992 }, "geometry": { "type": "LineString", "coordinates": [ [ 427128.23589999973774, 780069.426599999889731, 0.0 ], [ 427120.056400000117719, 780071.756899999454618, 0.0 ] ] } },
{ "type": "Feature", "properties": { "Entity": "Line", "Handle": "428D4", "Layer": "bottom outlet", "LyrFrzn": 0, "LyrOn": 1, "Color": 6, "Linetype": "Continuous", "Elevation": 0.0, "LineWt": 25, "RefName": null, "DocUpdate": "2026-07-06T00:00:00", "DocId": 1.1061215596299999e+19, "t0": null, "t00": null, "Shape_Leng": 8.50044876742 }, "geometry": { "type": "LineString", "coordinates": [ [ 427128.23589999973774, 780069.426599999889731, 0.0 ], [ 427120.002899999730289, 780071.542099999263883, 0.0 ] ] } },
{ "type": "Feature", "properties": { "Entity": "Line", "Handle": "428D5", "Layer": "bottom outlet", "LyrFrzn": 0, "LyrOn": 1, "Color": 6, "Linetype": "Continuous", "Elevation": 0.0, "LineWt": 25, "RefName": null, "DocUpdate": "2026-07-06T00:00:00", "DocId": 1.1061215596299999e+19, "t0": null, "t00": null, "Shape_Leng": 8.61339540094 }, "geometry": { "type": "LineString", "coordinates": [ [ 427129.80599999986589, 780075.734099999070168, 0.0 ], [ 427121.221300000324845, 780076.436599999666214, 0.0 ] ] } },
{ "type": "Feature", "properties": { "Entity": "Line", "Handle": "428D6", "Layer": "bottom outlet", "LyrFrzn": 0, "LyrOn": 1, "Color": 6, "Linetype": "Continuous", "Elevation": 0.0, "LineWt": 25, "RefName": null, "DocUpdate": "2026-07-06T00:00:00", "DocId": 1.1061215596299999e+19, "t0": null, "t00": null, "Shape_Leng": 8.5283556818499999 }, "geometry": { "type": "LineString", "coordinates": [ [ 427129.80599999986589, 780075.734099999070168, 0.0 ], [ 427121.3902000002563, 780077.115100000053644, 0.0 ] ] } },
{ "type": "Feature", "properties": { "Entity": "Line", "Handle": "428D7", "Layer": "bottom outlet", "LyrFrzn": 0, "LyrOn": 1, "Color": 6, "Linetype": "Continuous", "Elevation": 0.0, "LineWt": 25, "RefName": null, "DocUpdate": "2026-07-06T00:00:00", "DocId": 1.1061215596299999e+19, "t0": null, "t00": null, "Shape_Leng": 8.5049623427200007 }, "geometry": { "type": "LineString", "coordinates": [ [ 427129.80599999986589, 780075.734099999070168, 0.0 ], [ 427121.488599999807775, 780077.51039999909699, 0.0 ] ] } },
{ "type": "Feature", "properties": { "Entity": "Line", "Handle": "428D8", "Layer": "bottom outlet", "LyrFrzn": 0, "LyrOn": 1, "Color": 6, "Linetype": "Continuous", "Elevation": 0.0, "LineWt": 25, "RefName": null, "DocUpdate": "2026-07-06T00:00:00", "DocId": 1.1061215596299999e+19, "t0": null, "t00": null, "Shape_Leng": 8.5003836628399991 }, "geometry": { "type": "LineString", "coordinates": [ [ 427129.80599999986589, 780075.734099999070168, 0.0 ], [ 427121.542100000195205, 780077.725199999287724, 0.0 ] ] } },
{ "type": "Feature", "properties": { "Entity": "Line", "Handle": "428D9", "Layer": "bottom outlet", "LyrFrzn": 0, "LyrOn": 1, "Color": 1, "Linetype": "Continuous", "Elevation": 0.0, "LineWt": 25, "RefName": null, "DocUpdate": "2026-07-06T00:00:00", "DocId": 1.1061215596299999e+19, "t0": null, "t00": null, "Shape_Leng": 7.70002493404 }, "geometry": { "type": "LineString", "coordinates": [ [ 427121.701899999752641, 780078.369799999520183, 0.0 ], [ 427119.841900000348687, 780070.89780000038445, 0.0 ] ] } },
{ "type": "Feature", "properties": { "Entity": "Line", "Handle": "428DA", "Layer": "bottom outlet", "LyrFrzn": 0, "LyrOn": 1, "Color": 2, "Linetype": "Continuous", "Elevation": 0.0, "LineWt": 25, "RefName": null, "DocUpdate": "2026-07-06T00:00:00", "DocId": 1.1061215596299999e+19, "t0": null, "t00": null, "Shape_Leng": 0.99990216548400002 }, "geometry": { "type": "LineString", "coordinates": [ [ 427133.939500000327826, 780065.430500000715256, 0.0 ], [ 427133.697999999858439, 780064.460200000554323, 0.0 ] ] } },
{ "type": "Feature", "properties": { "Entity": "Line", "Handle": "428DB", "Layer": "bottom outlet", "LyrFrzn": 0, "LyrOn": 1, "Color": 2, "Linetype": "Continuous", "Elevation": 0.0, "LineWt": 25, "RefName": null, "DocUpdate": "2026-07-06T00:00:00", "DocId": 1.1061215596299999e+19, "t0": null, "t00": null, "Shape_Leng": 0.99999920487899996 }, "geometry": { "type": "LineString", "coordinates": [ [ 427133.697999999858439, 780064.460200000554323, 0.0 ], [ 427132.72759999986738, 780064.701700000092387, 0.0 ] ] } },
{ "type": "Feature", "properties": { "Entity": "Line", "Handle": "428DC", "Layer": "bottom outlet", "LyrFrzn": 0, "LyrOn": 1, "Color": 2, "Linetype": "Continuous", "Elevation": 0.0, "LineWt": 25, "RefName": null, "DocUpdate": "2026-07-06T00:00:00", "DocId": 1.1061215596299999e+19, "t0": null, "t00": null, "Shape_Leng": 2.8284590334800002 }, "geometry": { "type": "LineString", "coordinates": [ [ 427132.72759999986738, 780064.701700000092387, 0.0 ], [ 427131.269899999722838, 780067.125600000843406, 0.0 ] ] } },
{ "type": "Feature", "properties": { "Entity": "Line", "Handle": "428DD", "Layer": "bottom outlet", "LyrFrzn": 0, "LyrOn": 1, "Color": 2, "Linetype": "Continuous", "Elevation": 0.0, "LineWt": 25, "RefName": null, "DocUpdate": "2026-07-06T00:00:00", "DocId": 1.1061215596299999e+19, "t0": null, "t00": null, "Shape_Leng": 12.000159529399999 }, "geometry": { "type": "LineString", "coordinates": [ [ 427133.564699999988079, 780076.3443, 0.0 ], [ 427121.919900000095367, 780079.243000000715256, 0.0 ] ] } },
{ "type": "Feature", "properties": { "Entity": "Line", "Handle": "428DE", "Layer": "bottom outlet", "LyrFrzn": 0, "LyrOn": 1, "Color": 2, "Linetype": "Continuous", "Elevation": 0.0, "LineWt": 25, "RefName": null, "DocUpdate": "2026-07-06T00:00:00", "DocId": 1.1061215596299999e+19, "t0": null, "t00": null, "Shape_Leng": 2.8284074966900001 }, "geometry": { "type": "LineString", "coordinates": [ [ 427135.988599999807775, 780077.801899999380112, 0.0 ], [ 427133.564699999988079, 780076.3443, 0.0 ] ] } },
{ "type": "Feature", "properties": { "Entity": "Line", "Handle": "428DF", "Layer": "bottom outlet", "LyrFrzn": 0, "LyrOn": 1, "Color": 2, "Linetype": "Continuous", "Elevation": 0.0, "LineWt": 25, "RefName": null, "DocUpdate": "2026-07-06T00:00:00", "DocId": 1.1061215596299999e+19, "t0": null, "t00": null, "Shape_Leng": 0.99999920487899996 }, "geometry": { "type": "LineString", "coordinates": [ [ 427136.958999999798834, 780077.560399999842048, 0.0 ], [ 427135.988599999807775, 780077.801899999380112, 0.0 ] ] } },
{ "type": "Feature", "properties": { "Entity": "Line", "Handle": "428E0", "Layer": "bottom outlet", "LyrFrzn": 0, "LyrOn": 1, "Color": 2, "Linetype": "Continuous", "Elevation": 0.0, "LineWt": 25, "RefName": null, "DocUpdate": "2026-07-06T00:00:00", "DocId": 1.1061215596299999e+19, "t0": null, "t00": null, "Shape_Leng": 62.429235237199997 }, "geometry": { "type": "LineString", "coordinates": [ [ 427119.142, 780068.083599999547005, 0.0 ], [ 427179.722500000149012, 780053.003399999812245, 0.0 ] ] } },
{ "type": "Feature", "properties": { "Entity": "Line", "Handle": "428E1", "Layer": "bottom outlet", "LyrFrzn": 0, "LyrOn": 1, "Color": 2, "Linetype": "Continuous", "Elevation": 0.0, "LineWt": 25, "RefName": null, "DocUpdate": "2026-07-06T00:00:00", "DocId": 1.1061215596299999e+19, "t0": null, "t00": null, "Shape_Leng": 35.835311642500002 }, "geometry": { "type": "LineString", "coordinates": [ [ 427122.402999999932945, 780081.183800000697374, 0.0 ], [ 427157.177099999971688, 780072.527499999850988, 0.0 ] ] } },
{ "type": "Feature", "properties": { "Entity": "Arc", "Handle": "428E2", "Layer": "bottom outlet", "LyrFrzn": 0, "LyrOn": 1, "Color": 2, "Linetype": "Continuous", "Elevation": 0.0, "LineWt": 25, "RefName": null, "DocUpdate": "2026-07-06T00:00:00", "DocId": 1.1061215596299999e+19, "t0": null, "t00": null, "Shape_Leng": 1.9884380054299999 }, "geometry": { "type": "LineString", "coordinates": [ [ 427132.721400000154972, 780070.886399999260902, 0.0 ], [ 427133.113309428445064, 780070.82136784598697, 0.0 ], [ 427133.510572123923339, 780070.819239061675034, 0.0 ], [ 427133.903155992156826, 780070.88006740482524, 0.0 ], [ 427134.281147093395703, 780071.002316774101928, 0.0 ], [ 427134.634999999776483, 780071.182900000363588, 0.0 ] ] } },
{ "type": "Feature", "properties": { "Entity": "Arc", "Handle": "428E3", "Layer": "bottom outlet", "LyrFrzn": 0, "LyrOn": 1, "Color": 2, "Linetype": "Continuous", "Elevation": 0.0, "LineWt": 25, "RefName": null, "DocUpdate": "2026-07-06T00:00:00", "DocId": 1.1061215596299999e+19, "t0": null, "t00": null, "Shape_Leng": 1.98850887329 }, "geometry": { "type": "LineString", "coordinates": [ [ 427134.634999999776483, 780071.182900000363588, 0.0 ], [ 427134.407102758123074, 780071.508317083469592, 0.0 ], [ 427134.130533857387491, 780071.793524155276828, 0.0 ], [ 427133.812277505639941, 780072.031318867695518, 0.0 ], [ 427133.460370646207593, 780072.215696179075167, 0.0 ], [ 427133.083700000308454, 780072.342000000178814, 0.0 ] ] } },
{ "type": "Feature", "properties": { "Entity": "Line", "Handle": "428E4", "Layer": "bottom outlet", "LyrFrzn": 0, "LyrOn": 1, "Color": 3, "Linetype": "Continuous", "Elevation": 0.0, "LineWt": 25, "RefName": null, "DocUpdate": "2026-07-06T00:00:00", "DocId": 1.1061215596299999e+19, "t0": null, "t00": null, "Shape_Leng": 2.50003262809 }, "geometry": { "type": "LineString", "coordinates": [ [ 427055.171500000171363, 780269.449200000613928, 0.0 ], [ 427057.3432, 780268.210699999704957, 0.0 ] ] } },
{ "type": "Feature", "properties": { "Entity": "Line", "Handle": "428E5", "Layer": "bottom outlet", "LyrFrzn": 0, "LyrOn": 1, "Color": 3, "Linetype": "Continuous", "Elevation": 0.0, "LineWt": 25, "RefName": null, "DocUpdate": "2026-07-06T00:00:00", "DocId": 1.1061215596299999e+19, "t0": null, "t00": null, "Shape_Leng": 15.000009821000001 }, "geometry": { "type": "LineString", "coordinates": [ [ 427049.912399999797344, 780255.180600000545382, 0.0 ], [ 427057.3432, 780268.210699999704957, 0.0 ] ] } },
{ "type": "Feature", "properties": { "Entity": "Line", "Handle": "428E6", "Layer": "bottom outlet", "LyrFrzn": 0, "LyrOn": 1, "Color": 3, "Linetype": "Continuous", "Elevation": 0.0, "LineWt": 25, "RefName": null, "DocUpdate": "2026-07-06T00:00:00", "DocId": 1.1061215596299999e+19, "t0": null, "t00": null, "Shape_Leng": 14.9999602827 }, "geometry": { "type": "LineString", "coordinates": [ [ 427056.908800000324845, 780268.458399999886751, 0.0 ], [ 427049.478099999949336, 780255.428300000727177, 0.0 ] ] } },
{ "type": "Feature", "properties": { "Entity": "Line", "Handle": "428E7", "Layer": "bottom outlet", "LyrFrzn": 0, "LyrOn": 1, "Color": 2, "Linetype": "Continuous", "Elevation": 0.0, "LineWt": 25, "RefName": null, "DocUpdate": "2026-07-06T00:00:00", "DocId": 1.1061215596299999e+19, "t0": null, "t00": null, "Shape_Leng": 14.9999602823 }, "geometry": { "type": "LineString", "coordinates": [ [ 427055.866399999707937, 780269.052799999713898, 0.0 ], [ 427048.435700000263751, 780256.022700000554323, 0.0 ] ] } },
{ "type": "Feature", "properties": { "Entity": "Line", "Handle": "428E8", "Layer": "bottom outlet", "LyrFrzn": 0, "LyrOn": 1, "Color": 2, "Linetype": "Continuous", "Elevation": 0.0, "LineWt": 25, "RefName": null, "DocUpdate": "2026-07-06T00:00:00", "DocId": 1.1061215596299999e+19, "t0": null, "t00": null, "Shape_Leng": 47.189442013200001 }, "geometry": { "type": "LineString", "coordinates": [ [ 427071.117499999701977, 780297.411299999803305, 0.0 ], [ 427047.740699999965727, 780256.418999999761581, 0.0 ] ] } },
{ "type": "Feature", "properties": { "Entity": "Line", "Handle": "428E9", "Layer": "bottom outlet", "LyrFrzn": 0, "LyrOn": 1, "Color": 6, "Linetype": "Continuous", "Elevation": 0.0, "LineWt": 25, "RefName": null, "DocUpdate": "2026-07-06T00:00:00", "DocId": 1.1061215596299999e+19, "t0": null, "t00": null, "Shape_Leng": 6.49993105224 }, "geometry": { "type": "LineString", "coordinates": [ [ 427057.3432, 780268.210699999704957, 0.0 ], [ 427062.989500000141561, 780264.99070000089705, 0.0 ] ] } },
{ "type": "Feature", "properties": { "Entity": "Line", "Handle": "428EA", "Layer": "bottom outlet", "LyrFrzn": 0, "LyrOn": 1, "Color": 3, "Linetype": "Continuous", "Elevation": 0.0, "LineWt": 25, "RefName": null, "DocUpdate": "2026-07-06T00:00:00", "DocId": 1.1061215596299999e+19, "t0": null, "t00": null, "Shape_Leng": 14.9999602844 }, "geometry": { "type": "LineString", "coordinates": [ [ 427055.558799999766052, 780251.96059999987483, 0.0 ], [ 427062.989500000141561, 780264.99070000089705, 0.0 ] ] } },
{ "type": "Feature", "properties": { "Entity": "Line", "Handle": "428EB", "Layer": "bottom outlet", "LyrFrzn": 0, "LyrOn": 1, "Color": 3, "Linetype": "Continuous", "Elevation": 0.0, "LineWt": 25, "RefName": null, "DocUpdate": "2026-07-06T00:00:00", "DocId": 1.1061215596299999e+19, "t0": null, "t00": null, "Shape_Leng": 14.9999602839 }, "geometry": { "type": "LineString", "coordinates": [ [ 427063.423899999819696, 780264.743000000715256, 0.0 ], [ 427055.993200000375509, 780251.712899999693036, 0.0 ] ] } },
{ "type": "Feature", "properties": { "Entity": "Line", "Handle": "428EC", "Layer": "bottom outlet", "LyrFrzn": 0, "LyrOn": 1, "Color": 2, "Linetype": "Continuous", "Elevation": 0.0, "LineWt": 25, "RefName": null, "DocUpdate": "2026-07-06T00:00:00", "DocId": 1.1061215596299999e+19, "t0": null, "t00": null, "Shape_Leng": 15.0000471519 }, "geometry": { "type": "LineString", "coordinates": [ [ 427064.466300000436604, 780264.148600000888109, 0.0 ], [ 427057.035600000061095, 780251.118400000035763, 0.0 ] ] } },
{ "type": "Feature", "properties": { "Entity": "Line", "Handle": "428ED", "Layer": "bottom outlet", "LyrFrzn": 0, "LyrOn": 1, "Color": 2, "Linetype": "Continuous", "Elevation": 0.0, "LineWt": 25, "RefName": null, "DocUpdate": "2026-07-06T00:00:00", "DocId": 1.1061215596299999e+19, "t0": null, "t00": null, "Shape_Leng": 36.801677875800003 }, "geometry": { "type": "LineString", "coordinates": [ [ 427075.961400000378489, 780282.690799999982119, 0.0 ], [ 427057.730499999597669, 780250.722100000828505, 0.0 ] ] } },
{ "type": "Feature", "properties": { "Entity": "Line", "Handle": "428EE", "Layer": "bottom outlet", "LyrFrzn": 0, "LyrOn": 1, "Color": 3, "Linetype": "Continuous", "Elevation": 0.0, "LineWt": 25, "RefName": null, "DocUpdate": "2026-07-06T00:00:00", "DocId": 1.1061215596299999e+19, "t0": null, "t00": null, "Shape_Leng": 2.4999830903300002 }, "geometry": { "type": "LineString", "coordinates": [ [ 427065.161199999973178, 780263.752299999818206, 0.0 ], [ 427062.989500000141561, 780264.99070000089705, 0.0 ] ] } },
{ "type": "Feature", "properties": { "Entity": "Line", "Handle": "428EF", "Layer": "bottom outlet", "LyrFrzn": 0, "LyrOn": 1, "Color": 2, "Linetype": "Continuous", "Elevation": 0.0, "LineWt": 25, "RefName": null, "DocUpdate": "2026-07-06T00:00:00", "DocId": 1.1061215596299999e+19, "t0": null, "t00": null, "Shape_Leng": 8.5007324719500001 }, "geometry": { "type": "LineString", "coordinates": [ [ 427128.23589999973774, 780069.426599999889731, 0.0 ], [ 427119.986899999901652, 780071.480000000447035, 0.0 ] ] } },
{ "type": "Feature", "properties": { "Entity": "Line", "Handle": "428F0", "Layer": "bottom outlet", "LyrFrzn": 0, "LyrOn": 1, "Color": 2, "Linetype": "Continuous", "Elevation": 0.0, "LineWt": 25, "RefName": null, "DocUpdate": "2026-07-06T00:00:00", "DocId": 1.1061215596299999e+19, "t0": null, "t00": null, "Shape_Leng": 8.5007566280199995 }, "geometry": { "type": "LineString", "coordinates": [ [ 427129.80599999986589, 780075.734099999070168, 0.0 ], [ 427121.557000000029802, 780077.787599999457598, 0.0 ] ] } },
{ "type": "Feature", "properties": { "Entity": "LWPolyline", "Handle": "429E2", "Layer": "bottom outlet", "LyrFrzn": 0, "LyrOn": 1, "Color": 1, "Linetype": "CENTER", "Elevation": 0.0, "LineWt": 25, "RefName": null, "DocUpdate": "2026-07-06T00:00:00", "DocId": 1.1061215596299999e+19, "t0": null, "t00": null, "Shape_Leng": 219.999965463 }, "geometry": { "type": "LineString", "coordinates": [ [ 427120.771900000050664, 780074.633799999952316, 0.0 ], [ 427111.895299999974668, 780076.843399999663234, 0.0 ], [ 427105.016912781225983, 780078.966401564888656, 0.0 ], [ 427098.41546269407263, 780081.83697696425952, 0.0 ], [ 427092.171916081686504, 780085.419918783009052, 0.0 ], [ 427086.362849625060335, 780089.671282479423098, 0.0 ], [ 427081.059511135215871, 780094.538925362750888, 0.0 ], [ 427076.326945703534875, 780099.963146118912846, 0.0 ], [ 427072.223197928047739, 780105.877417043666355, 0.0 ], [ 427068.798600000329316, 780112.20920000039041, 0.0 ], [ 427039.457299999892712, 780174.469900000840425, 0.0 ], [ 427036.844558272394352, 780180.878204372245818, 0.0 ], [ 427034.9279411911848, 780187.527968519600108, 0.0 ], [ 427033.729174716805574, 780194.343813529005274, 0.0 ], [ 427033.261847559071612, 780201.248477863962762, 0.0 ], [ 427033.531257140974049, 780208.163693169946782, 0.0 ], [ 427034.534349549387116, 780215.011071491055191, 0.0 ], [ 427036.259754153084941, 780221.712993842433207, 0.0 ], [ 427038.687912495166529, 780228.193490067031235, 0.0 ], [ 427041.791299999691546, 780234.379100000485778, 0.0 ], [ 427052.735600000247359, 780253.570599999278784, 0.0 ] ] } },
{ "type": "Feature", "properties": { "Entity": "LWPolyline", "Handle": "429E3", "Layer": "bottom outlet", "LyrFrzn": 0, "LyrOn": 1, "Color": 3, "Linetype": "DASHED", "Elevation": 0.0, "LineWt": 25, "RefName": null, "DocUpdate": "2026-07-06T00:00:00", "DocId": 1.1061215596299999e+19, "t0": null, "t00": null, "Shape_Leng": 214.00350162800001 }, "geometry": { "type": "LineString", "coordinates": [ [ 427121.557000000029802, 780077.787599999457598, 0.0 ], [ 427112.680399999953806, 780079.997199999168515, 0.0 ], [ 427106.145928446727339, 780082.01404858159367, 0.0 ], [ 427099.874546870065387, 780084.741092733107507, 0.0 ], [ 427093.943173344887327, 780088.144885439658538, 0.0 ], [ 427088.42455577023793, 780092.183679411769845, 0.0 ], [ 427083.386379621049855, 780096.807939111837186, 0.0 ], [ 427078.890437790250871, 780101.960948304389603, 0.0 ], [ 427074.991872703365516, 780107.579505676869303, 0.0 ], [ 427071.738499999977648, 780113.594699999317527, 0.0 ], [ 427042.397199999541044, 780175.855399999767542, 0.0 ], [ 427039.915097266843077, 780181.94328494835645, 0.0 ], [ 427038.094312490196899, 780188.260556504945271, 0.0 ], [ 427036.955485315818805, 780194.735604751040228, 0.0 ], [ 427036.511525006964803, 780201.295031278277747, 0.0 ], [ 427036.767464109812863, 780207.864481201861054, 0.0 ], [ 427037.720401407044847, 780214.369486015872099, 0.0 ], [ 427039.359534804418217, 780220.736307736951858, 0.0 ], [ 427041.666283779020887, 780226.892774766893126, 0.0 ], [ 427044.614500000141561, 780232.769099999219179, 0.0 ], [ 427055.558899999596179, 780251.960699999704957, 0.0 ] ] } },
{ "type": "Feature", "properties": { "Entity": "LWPolyline", "Handle": "429E4", "Layer": "bottom outlet", "LyrFrzn": 0, "LyrOn": 1, "Color": 3, "Linetype": "DASHED", "Elevation": 0.0, "LineWt": 25, "RefName": null, "DocUpdate": "2026-07-06T00:00:00", "DocId": 1.1061215596299999e+19, "t0": null, "t00": null, "Shape_Leng": 212.896523333 }, "geometry": { "type": "LineString", "coordinates": [ [ 427121.701899999752641, 780078.369799999520183, 0.0 ], [ 427112.825299999676645, 780080.5793999992311, 0.0 ], [ 427106.354321644525044, 780082.576645324472338, 0.0 ], [ 427100.143876221845858, 780085.277185532380827, 0.0 ], [ 427094.270134428923484, 780088.647898678318597, 0.0 ], [ 427088.805137315299362, 780092.647443191148341, 0.0 ], [ 427083.815912704565562, 780097.226764925406314, 0.0 ], [ 427079.363653102423996, 780102.329698806745, 0.0 ], [ 427075.502965174615383, 780107.893657692940906, 0.0 ], [ 427072.281200000084937, 780113.850400000810623, 0.0 ], [ 427042.939899999648333, 780176.11119999922812, 0.0 ], [ 427040.481919190671761, 780182.139934338396415, 0.0 ], [ 427038.678830863093026, 780188.395825951243751, 0.0 ], [ 427037.551074063638225, 780194.807960696402006, 0.0 ], [ 427037.1114325664239, 780201.303653326351196, 0.0 ], [ 427037.364889961550944, 780207.809271416743286, 0.0 ], [ 427038.308573163114488, 780214.251070032361895, 0.0 ], [ 427039.931784977496136, 780220.556027668644674, 0.0 ], [ 427042.216125362087041, 780226.652673992328346, 0.0 ], [ 427045.135700000450015, 780232.471899999305606, 0.0 ], [ 427056.080099999904633, 780251.663499999791384, 0.0 ] ] } },
{ "type": "Feature", "properties": { "Entity": "LWPolyline", "Handle": "429E5", "Layer": "bottom outlet", "LyrFrzn": 0, "LyrOn": 1, "Color": 3, "Linetype": "DASHED", "Elevation": 0.0, "LineWt": 25, "RefName": null, "DocUpdate": "2026-07-06T00:00:00", "DocId": 1.1061215596299999e+19, "t0": null, "t00": null, "Shape_Leng": 225.996740598 }, "geometry": { "type": "LineString", "coordinates": [ [ 427119.986899999901652, 780071.480000000447035, 0.0 ], [ 427111.110299999825656, 780073.689699999988079, 0.0 ], [ 427104.677702533255797, 780075.631807998521253, 0.0 ], [ 427098.467253866663668, 780078.197041127132252, 0.0 ], [ 427092.53915121301543, 780081.360534855979495, 0.0 ], [ 427086.950855035858694, 780085.091625779750757, 0.0 ], [ 427081.756532090832479, 780089.354148833896033, 0.0 ], [ 427077.006530393322464, 780094.106787839555182, 0.0 ], [ 427072.746891200600658, 780099.303475976455957, 0.0 ], [ 427069.018902738578618, 780104.893842303659767, 0.0 ], [ 427065.85869999974966, 780110.823699999600649, 0.0 ], [ 427036.517400000244379, 780173.084400000050664, 0.0 ], [ 427033.774019278062042, 780179.813123794388957, 0.0 ], [ 427031.761569892289117, 780186.795380532508716, 0.0 ], [ 427030.502864118025173, 780193.952022305107675, 0.0 ], [ 427030.012170111527666, 780201.201924447901547, 0.0 ], [ 427030.295050172542688, 780208.462905136286281, 0.0 ], [ 427031.348297692311462, 780215.652656964375637, 0.0 ], [ 427033.159973502391949, 780222.689679946284741, 0.0 ], [ 427035.709541212127078, 780229.494205365423113, 0.0 ], [ 427038.968100000172853, 780235.989099999889731, 0.0 ], [ 427049.912499999627471, 780255.180700000375509, 0.0 ] ] } },
{ "type": "Feature", "properties": { "Entity": "LWPolyline", "Handle": "429E6", "Layer": "bottom outlet", "LyrFrzn": 0, "LyrOn": 1, "Color": 3, "Linetype": "DASHED", "Elevation": 0.0, "LineWt": 25, "RefName": null, "DocUpdate": "2026-07-06T00:00:00", "DocId": 1.1061215596299999e+19, "t0": null, "t00": null, "Shape_Leng": 227.10373858 }, "geometry": { "type": "LineString", "coordinates": [ [ 427119.841900000348687, 780070.89780000038445, 0.0 ], [ 427110.965300000272691, 780073.107400000095367, 0.0 ], [ 427104.476162467442919, 780075.066591606824659, 0.0 ], [ 427098.21112763765268, 780077.654385310597718, 0.0 ], [ 427092.230921821785159, 780080.845697904471308, 0.0 ], [ 427086.593510513601359, 780084.609596337657422, 0.0 ], [ 427081.353536536626052, 780088.909597546095029, 0.0 ], [ 427076.561790396692231, 780093.7040220790077, 0.0 ], [ 427072.264717975514941, 780098.946398093714379, 0.0 ], [ 427068.503970335237682, 780104.585911801317707, 0.0 ], [ 427065.315999999642372, 780110.567900000140071, 0.0 ], [ 427035.974600000306964, 780172.828700000420213, 0.0 ], [ 427033.207112635893282, 780179.616568664088845, 0.0 ], [ 427031.176981385680847, 780186.660198013531044, 0.0 ], [ 427029.907218958833255, 780193.879744445672259, 0.0 ], [ 427029.412218845216557, 780201.193370235618204, 0.0 ], [ 427029.697592156822793, 780208.518171214382164, 0.0 ], [ 427030.760104022396263, 780215.77111653634347, 0.0 ], [ 427032.58771025686292, 780222.869989880593494, 0.0 ], [ 427035.159693888912443, 780229.734321421477944, 0.0 ], [ 427038.446899999864399, 780236.286299999803305, 0.0 ], [ 427049.39130000025034, 780255.477900000289083, 0.0 ] ] } },
{ "type": "Feature", "properties": { "Entity": "Line", "Handle": "6135E", "Layer": "bottom outlet", "LyrFrzn": 0, "LyrOn": 1, "Color": 4, "Linetype": "Continuous", "Elevation": 0.0, "LineWt": 25, "RefName": null, "DocUpdate": "2026-07-06T00:00:00", "DocId": 1.1061215596299999e+19, "t0": null, "t00": null, "Shape_Leng": 1.8492099182099999 }, "geometry": { "type": "LineString", "coordinates": [ [ 427129.406299999915063, 780215.747600000351667, 0.0 ], [ 427130.184700000099838, 780214.070199999958277, 0.0 ] ] } },
{ "type": "Feature", "properties": { "Entity": "Line", "Handle": "6135F", "Layer": "bottom outlet", "LyrFrzn": 0, "LyrOn": 1, "Color": 4, "Linetype": "Continuous", "Elevation": 0.0, "LineWt": 25, "RefName": null, "DocUpdate": "2026-07-06T00:00:00", "DocId": 1.1061215596299999e+19, "t0": null, "t00": null, "Shape_Leng": 1.8492270849800001 }, "geometry": { "type": "LineString", "coordinates": [ [ 427128.998200000263751, 780215.488600000739098, 0.0 ], [ 427130.184700000099838, 780214.070199999958277, 0.0 ] ] } },
{ "type": "Feature", "properties": { "Entity": "Line", "Handle": "61360", "Layer": "bottom outlet", "LyrFrzn": 0, "LyrOn": 1, "Color": 2, "Linetype": "Continuous", "Elevation": 0.0, "LineWt": 25, "RefName": null, "DocUpdate": "2026-07-06T00:00:00", "DocId": 1.1061215596299999e+19, "t0": null, "t00": null, "Shape_Leng": 2.8499365399099998 }, "geometry": { "type": "LineString", "coordinates": [ [ 427127.999099999666214, 780214.854499999433756, 0.0 ], [ 427130.405299999751151, 780216.381699999794364, 0.0 ] ] } },
{ "type": "Feature", "properties": { "Entity": "Line", "Handle": "61361", "Layer": "bottom outlet", "LyrFrzn": 0, "LyrOn": 1, "Color": 4, "Linetype": "CENTER", "Elevation": 0.0, "LineWt": 25, "RefName": null, "DocUpdate": "2026-07-06T00:00:00", "DocId": 1.1061215596299999e+19, "t0": null, "t00": null, "Shape_Leng": 5.3494617621999998 }, "geometry": { "type": "LineString", "coordinates": [ [ 427135.288399999961257, 780210.280200000852346, 0.0 ], [ 427130.771900000050664, 780207.413499999791384, 0.0 ] ] } },
{ "type": "Feature", "properties": { "Entity": "Line", "Handle": "61362", "Layer": "bottom outlet", "LyrFrzn": 0, "LyrOn": 1, "Color": 6, "Linetype": "Continuous", "Elevation": 0.0, "LineWt": 25, "RefName": null, "DocUpdate": "2026-07-06T00:00:00", "DocId": 1.1061215596299999e+19, "t0": null, "t00": null, "Shape_Leng": 2.3833146409100001 }, "geometry": { "type": "LineString", "coordinates": [ [ 427130.883399999700487, 780210.901200000196695, 0.0 ], [ 427129.606200000271201, 780212.913399999961257, 0.0 ] ] } },
{ "type": "Feature", "properties": { "Entity": "Line", "Handle": "61363", "Layer": "bottom outlet", "LyrFrzn": 0, "LyrOn": 1, "Color": 1, "Linetype": "CENTER", "Elevation": 0.0, "LineWt": 25, "RefName": null, "DocUpdate": "2026-07-06T00:00:00", "DocId": 1.1061215596299999e+19, "t0": null, "t00": null, "Shape_Leng": 32.6548300969 }, "geometry": { "type": "LineString", "coordinates": [ [ 427127.264700000174344, 780218.670700000599027, 0.0 ], [ 427144.763899999670684, 780191.10050000064075, 0.0 ] ] } },
{ "type": "Feature", "properties": { "Entity": "Line", "Handle": "61364", "Layer": "bottom outlet", "LyrFrzn": 0, "LyrOn": 1, "Color": 6, "Linetype": "Continuous", "Elevation": 0.0, "LineWt": 25, "RefName": null, "DocUpdate": "2026-07-06T00:00:00", "DocId": 1.1061215596299999e+19, "t0": null, "t00": null, "Shape_Leng": 15.7031376249 }, "geometry": { "type": "LineString", "coordinates": [ [ 427140.668300000019372, 780194.754000000655651, 0.0 ], [ 427132.765999999828637, 780208.323899999260902, 0.0 ] ] } },
{ "type": "Feature", "properties": { "Entity": "Line", "Handle": "61365", "Layer": "bottom outlet", "LyrFrzn": 0, "LyrOn": 1, "Color": 6, "Linetype": "Continuous", "Elevation": 0.0, "LineWt": 25, "RefName": null, "DocUpdate": "2026-07-06T00:00:00", "DocId": 1.1061215596299999e+19, "t0": null, "t00": null, "Shape_Leng": 0.20836914284399999 }, "geometry": { "type": "LineString", "coordinates": [ [ 427132.765999999828637, 780208.323899999260902, 0.0 ], [ 427132.590099999681115, 780208.212200000882149, 0.0 ] ] } },
{ "type": "Feature", "properties": { "Entity": "Line", "Handle": "61366", "Layer": "bottom outlet", "LyrFrzn": 0, "LyrOn": 1, "Color": 6, "Linetype": "Continuous", "Elevation": 0.0, "LineWt": 25, "RefName": null, "DocUpdate": "2026-07-06T00:00:00", "DocId": 1.1061215596299999e+19, "t0": null, "t00": null, "Shape_Leng": 0.60000484140900001 }, "geometry": { "type": "LineString", "coordinates": [ [ 427132.590099999681115, 780208.212200000882149, 0.0 ], [ 427132.268600000068545, 780208.718800000846386, 0.0 ] ] } },
{ "type": "Feature", "properties": { "Entity": "Line", "Handle": "61367", "Layer": "bottom outlet", "LyrFrzn": 0, "LyrOn": 1, "Color": 6, "Linetype": "Continuous", "Elevation": 0.0, "LineWt": 25, "RefName": null, "DocUpdate": "2026-07-06T00:00:00", "DocId": 1.1061215596299999e+19, "t0": null, "t00": null, "Shape_Leng": 0.20831555325500001 }, "geometry": { "type": "LineString", "coordinates": [ [ 427132.268600000068545, 780208.718800000846386, 0.0 ], [ 427132.444500000216067, 780208.830399999395013, 0.0 ] ] } },
{ "type": "Feature", "properties": { "Entity": "Line", "Handle": "61368", "Layer": "bottom outlet", "LyrFrzn": 0, "LyrOn": 1, "Color": 6, "Linetype": "Continuous", "Elevation": 0.0, "LineWt": 25, "RefName": null, "DocUpdate": "2026-07-06T00:00:00", "DocId": 1.1061215596299999e+19, "t0": null, "t00": null, "Shape_Leng": 2.52004754318 }, "geometry": { "type": "LineString", "coordinates": [ [ 427129.606200000271201, 780212.913399999961257, 0.0 ], [ 427127.999099999666214, 780214.854499999433756, 0.0 ] ] } },
{ "type": "Feature", "properties": { "Entity": "Line", "Handle": "61369", "Layer": "bottom outlet", "LyrFrzn": 0, "LyrOn": 1, "Color": 6, "Linetype": "Continuous", "Elevation": 0.0, "LineWt": 25, "RefName": null, "DocUpdate": "2026-07-06T00:00:00", "DocId": 1.1061215596299999e+19, "t0": null, "t00": null, "Shape_Leng": 2.3250023240700002 }, "geometry": { "type": "LineString", "coordinates": [ [ 427127.999099999666214, 780214.854499999433756, 0.0 ], [ 427126.036100000143051, 780213.608599999919534, 0.0 ] ] } },
{ "type": "Feature", "properties": { "Entity": "Line", "Handle": "6136A", "Layer": "bottom outlet", "LyrFrzn": 0, "LyrOn": 1, "Color": 6, "Linetype": "Continuous", "Elevation": 0.0, "LineWt": 25, "RefName": null, "DocUpdate": "2026-07-06T00:00:00", "DocId": 1.1061215596299999e+19, "t0": null, "t00": null, "Shape_Leng": 8.3650167684400003 }, "geometry": { "type": "LineString", "coordinates": [ [ 427126.036100000143051, 780213.608599999919534, 0.0 ], [ 427130.518799999728799, 780206.546099999919534, 0.0 ] ] } },
{ "type": "Feature", "properties": { "Entity": "Line", "Handle": "6136B", "Layer": "bottom outlet", "LyrFrzn": 0, "LyrOn": 1, "Color": 6, "Linetype": "Continuous", "Elevation": 0.0, "LineWt": 25, "RefName": null, "DocUpdate": "2026-07-06T00:00:00", "DocId": 1.1061215596299999e+19, "t0": null, "t00": null, "Shape_Leng": 0.20836914384300001 }, "geometry": { "type": "LineString", "coordinates": [ [ 427131.059299999848008, 780211.012900000438094, 0.0 ], [ 427130.883399999700487, 780210.901200000196695, 0.0 ] ] } },
{ "type": "Feature", "properties": { "Entity": "Line", "Handle": "6136C", "Layer": "bottom outlet", "LyrFrzn": 0, "LyrOn": 1, "Color": 6, "Linetype": "Continuous", "Elevation": 0.0, "LineWt": 25, "RefName": null, "DocUpdate": "2026-07-06T00:00:00", "DocId": 1.1061215596299999e+19, "t0": null, "t00": null, "Shape_Leng": 2.3833146414100002 }, "geometry": { "type": "LineString", "coordinates": [ [ 427132.754900000058115, 780212.089099999517202, 0.0 ], [ 427131.477699999697506, 780214.101299999281764, 0.0 ] ] } },
{ "type": "Feature", "properties": { "Entity": "Line", "Handle": "6136D", "Layer": "bottom outlet", "LyrFrzn": 0, "LyrOn": 1, "Color": 6, "Linetype": "Continuous", "Elevation": 0.0, "LineWt": 25, "RefName": null, "DocUpdate": "2026-07-06T00:00:00", "DocId": 1.1061215596299999e+19, "t0": null, "t00": null, "Shape_Leng": 0.20836914384300001 }, "geometry": { "type": "LineString", "coordinates": [ [ 427134.285699999891222, 780209.288399999961257, 0.0 ], [ 427134.461600000038743, 780209.400100000202656, 0.0 ] ] } },
{ "type": "Feature", "properties": { "Entity": "Line", "Handle": "6136E", "Layer": "bottom outlet", "LyrFrzn": 0, "LyrOn": 1, "Color": 6, "Linetype": "Continuous", "Elevation": 0.0, "LineWt": 25, "RefName": null, "DocUpdate": "2026-07-06T00:00:00", "DocId": 1.1061215596299999e+19, "t0": null, "t00": null, "Shape_Leng": 0.60000484140900001 }, "geometry": { "type": "LineString", "coordinates": [ [ 427134.461600000038743, 780209.400100000202656, 0.0 ], [ 427134.140100000426173, 780209.906700000166893, 0.0 ] ] } },
{ "type": "Feature", "properties": { "Entity": "Line", "Handle": "6136F", "Layer": "bottom outlet", "LyrFrzn": 0, "LyrOn": 1, "Color": 6, "Linetype": "Continuous", "Elevation": 0.0, "LineWt": 25, "RefName": null, "DocUpdate": "2026-07-06T00:00:00", "DocId": 1.1061215596299999e+19, "t0": null, "t00": null, "Shape_Leng": 0.20836914384300001 }, "geometry": { "type": "LineString", "coordinates": [ [ 427134.140100000426173, 780209.906700000166893, 0.0 ], [ 427133.964200000278652, 780209.794999999925494, 0.0 ] ] } },
{ "type": "Feature", "properties": { "Entity": "Line", "Handle": "61370", "Layer": "bottom outlet", "LyrFrzn": 0, "LyrOn": 1, "Color": 6, "Linetype": "Continuous", "Elevation": 0.0, "LineWt": 25, "RefName": null, "DocUpdate": "2026-07-06T00:00:00", "DocId": 1.1061215596299999e+19, "t0": null, "t00": null, "Shape_Leng": 7.1652603749099999 }, "geometry": { "type": "LineString", "coordinates": [ [ 427132.368300000205636, 780217.627699999138713, 0.0 ], [ 427136.207999999634922, 780211.578099999576807, 0.0 ] ] } },
{ "type": "Feature", "properties": { "Entity": "Line", "Handle": "61371", "Layer": "bottom outlet", "LyrFrzn": 0, "LyrOn": 1, "Color": 6, "Linetype": "Continuous", "Elevation": 0.0, "LineWt": 25, "RefName": null, "DocUpdate": "2026-07-06T00:00:00", "DocId": 1.1061215596299999e+19, "t0": null, "t00": null, "Shape_Leng": 0.20836914384300001 }, "geometry": { "type": "LineString", "coordinates": [ [ 427132.578999999910593, 780211.977399999275804, 0.0 ], [ 427132.754900000058115, 780212.089099999517202, 0.0 ] ] } },
{ "type": "Feature", "properties": { "Entity": "Line", "Handle": "61372", "Layer": "bottom outlet", "LyrFrzn": 0, "LyrOn": 1, "Color": 6, "Linetype": "Continuous", "Elevation": 0.0, "LineWt": 25, "RefName": null, "DocUpdate": "2026-07-06T00:00:00", "DocId": 1.1061215596299999e+19, "t0": null, "t00": null, "Shape_Leng": 2.5199733971299998 }, "geometry": { "type": "LineString", "coordinates": [ [ 427131.477699999697506, 780214.101299999281764, 0.0 ], [ 427130.405299999751151, 780216.381699999794364, 0.0 ] ] } },
{ "type": "Feature", "properties": { "Entity": "Line", "Handle": "61373", "Layer": "bottom outlet", "LyrFrzn": 0, "LyrOn": 1, "Color": 6, "Linetype": "Continuous", "Elevation": 0.0, "LineWt": 25, "RefName": null, "DocUpdate": "2026-07-06T00:00:00", "DocId": 1.1061215596299999e+19, "t0": null, "t00": null, "Shape_Leng": 2.3250559133399999 }, "geometry": { "type": "LineString", "coordinates": [ [ 427130.405299999751151, 780216.381699999794364, 0.0 ], [ 427132.368300000205636, 780217.627699999138713, 0.0 ] ] } },
{ "type": "Feature", "properties": { "Entity": "Line", "Handle": "61374", "Layer": "bottom outlet", "LyrFrzn": 0, "LyrOn": 1, "Color": 6, "Linetype": "Continuous", "Elevation": 0.0, "LineWt": 25, "RefName": null, "DocUpdate": "2026-07-06T00:00:00", "DocId": 1.1061215596299999e+19, "t0": null, "t00": null, "Shape_Leng": 2.5849729777300001 }, "geometry": { "type": "LineString", "coordinates": [ [ 427131.059299999848008, 780211.012900000438094, 0.0 ], [ 427132.444500000216067, 780208.830399999395013, 0.0 ] ] } },
{ "type": "Feature", "properties": { "Entity": "Line", "Handle": "61375", "Layer": "bottom outlet", "LyrFrzn": 0, "LyrOn": 1, "Color": 6, "Linetype": "Continuous", "Elevation": 0.0, "LineWt": 25, "RefName": null, "DocUpdate": "2026-07-06T00:00:00", "DocId": 1.1061215596299999e+19, "t0": null, "t00": null, "Shape_Leng": 2.5848885465699998 }, "geometry": { "type": "LineString", "coordinates": [ [ 427132.578999999910593, 780211.977399999275804, 0.0 ], [ 427133.964200000278652, 780209.794999999925494, 0.0 ] ] } },
{ "type": "Feature", "properties": { "Entity": "Line", "Handle": "61376", "Layer": "bottom outlet", "LyrFrzn": 0, "LyrOn": 1, "Color": 6, "Linetype": "Continuous", "Elevation": 0.0, "LineWt": 25, "RefName": null, "DocUpdate": "2026-07-06T00:00:00", "DocId": 1.1061215596299999e+19, "t0": null, "t00": null, "Shape_Leng": 4.1004354995599996 }, "geometry": { "type": "LineString", "coordinates": [ [ 427140.204300000332296, 780194.457900000736117, 0.0 ], [ 427143.666299999691546, 780196.655200000852346, 0.0 ] ] } },
{ "type": "Feature", "properties": { "Entity": "Line", "Handle": "61377", "Layer": "bottom outlet", "LyrFrzn": 0, "LyrOn": 1, "Color": 6, "Linetype": "Continuous", "Elevation": 0.0, "LineWt": 25, "RefName": null, "DocUpdate": "2026-07-06T00:00:00", "DocId": 1.1061215596299999e+19, "t0": null, "t00": null, "Shape_Leng": 4.1003510707900004 }, "geometry": { "type": "LineString", "coordinates": [ [ 427140.954599999822676, 780193.275900000706315, 0.0 ], [ 427144.416500000283122, 780195.473200000822544, 0.0 ] ] } },
{ "type": "Feature", "properties": { "Entity": "Line", "Handle": "61378", "Layer": "bottom outlet", "LyrFrzn": 0, "LyrOn": 1, "Color": 6, "Linetype": "Continuous", "Elevation": 0.0, "LineWt": 25, "RefName": null, "DocUpdate": "2026-07-06T00:00:00", "DocId": 1.1061215596299999e+19, "t0": null, "t00": null, "Shape_Leng": 15.7031302128 }, "geometry": { "type": "LineString", "coordinates": [ [ 427143.201200000010431, 780196.361600000411272, 0.0 ], [ 427134.285699999891222, 780209.288399999961257, 0.0 ] ] } },
{ "type": "Feature", "properties": { "Entity": "Line", "Handle": "61379", "Layer": "bottom outlet", "LyrFrzn": 0, "LyrOn": 1, "Color": 6, "Linetype": "Continuous", "Elevation": 0.0, "LineWt": 25, "RefName": null, "DocUpdate": "2026-07-06T00:00:00", "DocId": 1.1061215596299999e+19, "t0": null, "t00": null, "Shape_Leng": 1.3999728715099999 }, "geometry": { "type": "LineString", "coordinates": [ [ 427144.416500000283122, 780195.473200000822544, 0.0 ], [ 427143.666299999691546, 780196.655200000852346, 0.0 ] ] } },
{ "type": "Feature", "properties": { "Entity": "Line", "Handle": "6137A", "Layer": "bottom outlet", "LyrFrzn": 0, "LyrOn": 1, "Color": 6, "Linetype": "Continuous", "Elevation": 0.0, "LineWt": 25, "RefName": null, "DocUpdate": "2026-07-06T00:00:00", "DocId": 1.1061215596299999e+19, "t0": null, "t00": null, "Shape_Leng": 7.1999655627200001 }, "geometry": { "type": "LineString", "coordinates": [ [ 427141.727900000289083, 780189.16579999960959, 0.0 ], [ 427147.806800000369549, 780193.024100000038743, 0.0 ] ] } },
{ "type": "Feature", "properties": { "Entity": "Circle", "Handle": "6137B", "Layer": "bottom outlet", "LyrFrzn": 0, "LyrOn": 1, "Color": 6, "Linetype": "Continuous", "Elevation": 0.0, "LineWt": 25, "RefName": null, "DocUpdate": "2026-07-06T00:00:00", "DocId": 1.1061215596299999e+19, "t0": null, "t00": null, "Shape_Leng": 1.25663706114 }, "geometry": { "type": "LineString", "coordinates": [ [ 427146.686499999836087, 780192.749900000169873, 0.0 ], [ 427146.651770364318509, 780192.746861550724134, 0.0 ], [ 427146.618095971178263, 780192.737838524277322, 0.0 ], [ 427146.58649999985937, 780192.723105080891401, 0.0 ], [ 427146.557942477928009, 780192.703108888817951, 0.0 ], [ 427146.533291111234576, 780192.67845752206631, 0.0 ], [ 427146.513294919102918, 780192.649900000193156, 0.0 ], [ 427146.498561475716997, 780192.618304028874263, 0.0 ], [ 427146.489538449270185, 780192.584629635792226, 0.0 ], [ 427146.486499999882653, 780192.549900000216439, 0.0 ], [ 427146.489538449270185, 780192.515170364640653, 0.0 ], [ 427146.498561475716997, 780192.481495971558616, 0.0 ], [ 427146.513294919102918, 780192.449900000239722, 0.0 ], [ 427146.533291111234576, 780192.421342478366569, 0.0 ], [ 427146.557942477928009, 780192.396691111614928, 0.0 ], [ 427146.58649999985937, 780192.376694919541478, 0.0 ], [ 427146.618095971178263, 780192.361961476155557, 0.0 ], [ 427146.651770364318509, 780192.352938449708745, 0.0 ], [ 427146.686499999836087, 780192.349900000263005, 0.0 ], [ 427146.721229635353666, 780192.352938449708745, 0.0 ], [ 427146.754904028493911, 780192.361961476155557, 0.0 ], [ 427146.786499999812804, 780192.376694919541478, 0.0 ], [ 427146.815057521744166, 780192.396691111614928, 0.0 ], [ 427146.839708888437599, 780192.421342478366569, 0.0 ], [ 427146.859705080569256, 780192.449900000239722, 0.0 ], [ 427146.874438523955178, 780192.481495971558616, 0.0 ], [ 427146.883461550401989, 780192.515170364640653, 0.0 ], [ 427146.886499999789521, 780192.549900000216439, 0.0 ], [ 427146.883461550401989, 780192.584629635792226, 0.0 ], [ 427146.874438523955178, 780192.618304028874263, 0.0 ], [ 427146.859705080569256, 780192.649900000193156, 0.0 ], [ 427146.839708888437599, 780192.67845752206631, 0.0 ], [ 427146.815057521744166, 780192.703108888817951, 0.0 ], [ 427146.786499999812804, 780192.723105080891401, 0.0 ], [ 427146.754904028493911, 780192.737838524277322, 0.0 ], [ 427146.721229635353666, 780192.746861550724134, 0.0 ], [ 427146.686499999836087, 780192.749900000169873, 0.0 ] ] } },
{ "type": "Feature", "properties": { "Entity": "Line", "Handle": "6137C", "Layer": "bottom outlet", "LyrFrzn": 0, "LyrOn": 1, "Color": 1, "Linetype": "Continuous", "Elevation": 0.0, "LineWt": 25, "RefName": null, "DocUpdate": "2026-07-06T00:00:00", "DocId": 1.1061215596299999e+19, "t0": null, "t00": null, "Shape_Leng": 0.86335768988899997 }, "geometry": { "type": "LineString", "coordinates": [ [ 427147.584300000220537, 780193.119799999520183, 0.0 ], [ 427146.855399999767542, 780192.6570999994874, 0.0 ] ] } },
{ "type": "Feature", "properties": { "Entity": "Line", "Handle": "6137D", "Layer": "bottom outlet", "LyrFrzn": 0, "LyrOn": 1, "Color": 1, "Linetype": "Continuous", "Elevation": 0.0, "LineWt": 25, "RefName": null, "DocUpdate": "2026-07-06T00:00:00", "DocId": 1.1061215596299999e+19, "t0": null, "t00": null, "Shape_Leng": 1.1999788420599999 }, "geometry": { "type": "LineString", "coordinates": [ [ 427146.517599999904633, 780192.442800000309944, 0.0 ], [ 427145.504499999806285, 780191.799699999392033, 0.0 ] ] } },
{ "type": "Feature", "properties": { "Entity": "Line", "Handle": "6137E", "Layer": "bottom outlet", "LyrFrzn": 0, "LyrOn": 1, "Color": 1, "Linetype": "Continuous", "Elevation": 0.0, "LineWt": 25, "RefName": null, "DocUpdate": "2026-07-06T00:00:00", "DocId": 1.1061215596299999e+19, "t0": null, "t00": null, "Shape_Leng": 1.1999252525 }, "geometry": { "type": "LineString", "coordinates": [ [ 427143.815899999812245, 780190.727900000289083, 0.0 ], [ 427142.802799999713898, 780190.084899999201298, 0.0 ] ] } },
{ "type": "Feature", "properties": { "Entity": "Line", "Handle": "6137F", "Layer": "bottom outlet", "LyrFrzn": 0, "LyrOn": 1, "Color": 1, "Linetype": "Continuous", "Elevation": 0.0, "LineWt": 25, "RefName": null, "DocUpdate": "2026-07-06T00:00:00", "DocId": 1.1061215596299999e+19, "t0": null, "t00": null, "Shape_Leng": 0.86330410023899995 }, "geometry": { "type": "LineString", "coordinates": [ [ 427142.464999999850988, 780189.870500000193715, 0.0 ], [ 427141.736100000329316, 780189.4079, 0.0 ] ] } },
{ "type": "Feature", "properties": { "Entity": "Line", "Handle": "61380", "Layer": "bottom outlet", "LyrFrzn": 0, "LyrOn": 1, "Color": 6, "Linetype": "Continuous", "Elevation": 0.0, "LineWt": 25, "RefName": null, "DocUpdate": "2026-07-06T00:00:00", "DocId": 1.1061215596299999e+19, "t0": null, "t00": null, "Shape_Leng": 6.6535025728499999 }, "geometry": { "type": "LineString", "coordinates": [ [ 427147.361800000071526, 780193.215399999171495, 0.0 ], [ 427141.744300000369549, 780189.649900000542402, 0.0 ] ] } },
{ "type": "Feature", "properties": { "Entity": "Circle", "Handle": "61381", "Layer": "bottom outlet", "LyrFrzn": 0, "LyrOn": 1, "Color": 6, "Linetype": "Continuous", "Elevation": 0.0, "LineWt": 25, "RefName": null, "DocUpdate": "2026-07-06T00:00:00", "DocId": 1.1061215596299999e+19, "t0": null, "t00": null, "Shape_Leng": 1.25663706114 }, "geometry": { "type": "LineString", "coordinates": [ [ 427143.9847999997437, 780191.035099999979138, 0.0 ], [ 427143.950070364226121, 780191.032061550533399, 0.0 ], [ 427143.916395971085876, 780191.023038524086587, 0.0 ], [ 427143.884799999766983, 780191.008305080700666, 0.0 ], [ 427143.856242477835622, 780190.988308888627216, 0.0 ], [ 427143.831591111142188, 780190.963657521875575, 0.0 ], [ 427143.811594919010531, 780190.9351, 0.0 ], [ 427143.79686147562461, 780190.903504028683528, 0.0 ], [ 427143.787838449177798, 780190.869829635601491, 0.0 ], [ 427143.784799999790266, 780190.835100000025705, 0.0 ], [ 427143.787838449177798, 780190.800370364449918, 0.0 ], [ 427143.79686147562461, 780190.766695971367881, 0.0 ], [ 427143.811594919010531, 780190.735100000048988, 0.0 ], [ 427143.831591111142188, 780190.706542478175834, 0.0 ], [ 427143.856242477835622, 780190.681891111424193, 0.0 ], [ 427143.884799999766983, 780190.661894919350743, 0.0 ], [ 427143.916395971085876, 780190.647161475964822, 0.0 ], [ 427143.950070364226121, 780190.63813844951801, 0.0 ], [ 427143.9847999997437, 780190.635100000072271, 0.0 ], [ 427144.019529635261279, 780190.63813844951801, 0.0 ], [ 427144.053204028401524, 780190.647161475964822, 0.0 ], [ 427144.084799999720417, 780190.661894919350743, 0.0 ], [ 427144.113357521651778, 780190.681891111424193, 0.0 ], [ 427144.138008888345212, 780190.706542478175834, 0.0 ], [ 427144.158005080476869, 780190.735100000048988, 0.0 ], [ 427144.17273852386279, 780190.766695971367881, 0.0 ], [ 427144.181761550309602, 780190.800370364449918, 0.0 ], [ 427144.184799999697134, 780190.835100000025705, 0.0 ], [ 427144.181761550309602, 780190.869829635601491, 0.0 ], [ 427144.17273852386279, 780190.903504028683528, 0.0 ], [ 427144.158005080476869, 780190.9351, 0.0 ], [ 427144.138008888345212, 780190.963657521875575, 0.0 ], [ 427144.113357521651778, 780190.988308888627216, 0.0 ], [ 427144.084799999720417, 780191.008305080700666, 0.0 ], [ 427144.053204028401524, 780191.023038524086587, 0.0 ], [ 427144.019529635261279, 780191.032061550533399, 0.0 ], [ 427143.9847999997437, 780191.035099999979138, 0.0 ] ] } },
{ "type": "Feature", "properties": { "Entity": "Circle", "Handle": "61382", "Layer": "bottom outlet", "LyrFrzn": 0, "LyrOn": 1, "Color": 6, "Linetype": "Continuous", "Elevation": 0.0, "LineWt": 25, "RefName": null, "DocUpdate": "2026-07-06T00:00:00", "DocId": 1.1061215596299999e+19, "t0": null, "t00": null, "Shape_Leng": 1.25663706114 }, "geometry": { "type": "LineString", "coordinates": [ [ 427142.633899999782443, 780190.177699999883771, 0.0 ], [ 427142.599170364264864, 780190.174661550438032, 0.0 ], [ 427142.565495971124619, 780190.16563852399122, 0.0 ], [ 427142.533899999805726, 780190.150905080605298, 0.0 ], [ 427142.505342477874365, 780190.130908888531849, 0.0 ], [ 427142.480691111180931, 780190.106257521780208, 0.0 ], [ 427142.460694919049274, 780190.077699999907054, 0.0 ], [ 427142.445961475663353, 780190.046104028588161, 0.0 ], [ 427142.436938449216541, 780190.012429635506123, 0.0 ], [ 427142.433899999829009, 780189.977699999930337, 0.0 ], [ 427142.436938449216541, 780189.942970364354551, 0.0 ], [ 427142.445961475663353, 780189.909295971272513, 0.0 ], [ 427142.460694919049274, 780189.87769999995362, 0.0 ], [ 427142.480691111180931, 780189.849142478080466, 0.0 ], [ 427142.505342477874365, 780189.824491111328825, 0.0 ], [ 427142.533899999805726, 780189.804494919255376, 0.0 ], [ 427142.565495971124619, 780189.789761475869454, 0.0 ], [ 427142.599170364264864, 780189.780738449422643, 0.0 ], [ 427142.633899999782443, 780189.777699999976903, 0.0 ], [ 427142.668629635300022, 780189.780738449422643, 0.0 ], [ 427142.702304028440267, 780189.789761475869454, 0.0 ], [ 427142.73389999975916, 780189.804494919255376, 0.0 ], [ 427142.762457521690521, 780189.824491111328825, 0.0 ], [ 427142.787108888383955, 780189.849142478080466, 0.0 ], [ 427142.807105080515612, 780189.87769999995362, 0.0 ], [ 427142.821838523901533, 780189.909295971272513, 0.0 ], [ 427142.830861550348345, 780189.942970364354551, 0.0 ], [ 427142.833899999735877, 780189.977699999930337, 0.0 ], [ 427142.830861550348345, 780190.012429635506123, 0.0 ], [ 427142.821838523901533, 780190.046104028588161, 0.0 ], [ 427142.807105080515612, 780190.077699999907054, 0.0 ], [ 427142.787108888383955, 780190.106257521780208, 0.0 ], [ 427142.762457521690521, 780190.130908888531849, 0.0 ], [ 427142.73389999975916, 780190.150905080605298, 0.0 ], [ 427142.702304028440267, 780190.16563852399122, 0.0 ], [ 427142.668629635300022, 780190.174661550438032, 0.0 ], [ 427142.633899999782443, 780190.177699999883771, 0.0 ] ] } },
{ "type": "Feature", "properties": { "Entity": "Line", "Handle": "61383", "Layer": "bottom outlet", "LyrFrzn": 0, "LyrOn": 1, "Color": 1, "Linetype": "Continuous", "Elevation": 0.0, "LineWt": 25, "RefName": null, "DocUpdate": "2026-07-06T00:00:00", "DocId": 1.1061215596299999e+19, "t0": null, "t00": null, "Shape_Leng": 1.10471412129 }, "geometry": { "type": "LineString", "coordinates": [ [ 427147.786799999885261, 780193.032800000160933, 0.0 ], [ 427146.854100000113249, 780192.440799999982119, 0.0 ] ] } },
{ "type": "Feature", "properties": { "Entity": "Line", "Handle": "61384", "Layer": "bottom outlet", "LyrFrzn": 0, "LyrOn": 1, "Color": 1, "Linetype": "Continuous", "Elevation": 0.0, "LineWt": 25, "RefName": null, "DocUpdate": "2026-07-06T00:00:00", "DocId": 1.1061215596299999e+19, "t0": null, "t00": null, "Shape_Leng": 1.4340415612899999 }, "geometry": { "type": "LineString", "coordinates": [ [ 427146.713999999687076, 780192.351800000295043, 0.0 ], [ 427145.503200000151992, 780191.583399999886751, 0.0 ] ] } },
{ "type": "Feature", "properties": { "Entity": "Line", "Handle": "61385", "Layer": "bottom outlet", "LyrFrzn": 0, "LyrOn": 1, "Color": 1, "Linetype": "Continuous", "Elevation": 0.0, "LineWt": 25, "RefName": null, "DocUpdate": "2026-07-06T00:00:00", "DocId": 1.1061215596299999e+19, "t0": null, "t00": null, "Shape_Leng": 1.4340107181099999 }, "geometry": { "type": "LineString", "coordinates": [ [ 427144.012199999764562, 780190.637000000104308, 0.0 ], [ 427142.801500000059605, 780189.86849999986589, 0.0 ] ] } },
{ "type": "Feature", "properties": { "Entity": "Line", "Handle": "61386", "Layer": "bottom outlet", "LyrFrzn": 0, "LyrOn": 1, "Color": 1, "Linetype": "Continuous", "Elevation": 0.0, "LineWt": 25, "RefName": null, "DocUpdate": "2026-07-06T00:00:00", "DocId": 1.1061215596299999e+19, "t0": null, "t00": null, "Shape_Leng": 1.10462969365 }, "geometry": { "type": "LineString", "coordinates": [ [ 427142.661299999803305, 780189.7796, 0.0 ], [ 427141.728699999861419, 780189.187599999830127, 0.0 ] ] } },
{ "type": "Feature", "properties": { "Entity": "Line", "Handle": "61387", "Layer": "bottom outlet", "LyrFrzn": 0, "LyrOn": 1, "Color": 1, "Linetype": "Continuous", "Elevation": 0.0, "LineWt": 25, "RefName": null, "DocUpdate": "2026-07-06T00:00:00", "DocId": 1.1061215596299999e+19, "t0": null, "t00": null, "Shape_Leng": 0.99915670357099995 }, "geometry": { "type": "LineString", "coordinates": [ [ 427147.728199999779463, 780193.057900000363588, 0.0 ], [ 427146.884600000455976, 780192.52250000089407, 0.0 ] ] } },
{ "type": "Feature", "properties": { "Entity": "Line", "Handle": "61388", "Layer": "bottom outlet", "LyrFrzn": 0, "LyrOn": 1, "Color": 1, "Linetype": "Continuous", "Elevation": 0.0, "LineWt": 25, "RefName": null, "DocUpdate": "2026-07-06T00:00:00", "DocId": 1.1061215596299999e+19, "t0": null, "t00": null, "Shape_Leng": 1.2949139351700001 }, "geometry": { "type": "LineString", "coordinates": [ [ 427146.627000000327826, 780192.358999999240041, 0.0 ], [ 427145.533699999563396, 780191.665100000798702, 0.0 ] ] } },
{ "type": "Feature", "properties": { "Entity": "Line", "Handle": "61389", "Layer": "bottom outlet", "LyrFrzn": 0, "LyrOn": 1, "Color": 1, "Linetype": "Continuous", "Elevation": 0.0, "LineWt": 25, "RefName": null, "DocUpdate": "2026-07-06T00:00:00", "DocId": 1.1061215596299999e+19, "t0": null, "t00": null, "Shape_Leng": 1.2949139353900001 }, "geometry": { "type": "LineString", "coordinates": [ [ 427143.925300000235438, 780190.644200000911951, 0.0 ], [ 427142.832000000402331, 780189.950300000607967, 0.0 ] ] } },
{ "type": "Feature", "properties": { "Entity": "Line", "Handle": "6138A", "Layer": "bottom outlet", "LyrFrzn": 0, "LyrOn": 1, "Color": 1, "Linetype": "Continuous", "Elevation": 0.0, "LineWt": 25, "RefName": null, "DocUpdate": "2026-07-06T00:00:00", "DocId": 1.1061215596299999e+19, "t0": null, "t00": null, "Shape_Leng": 0.99921029401999995 }, "geometry": { "type": "LineString", "coordinates": [ [ 427142.574400000274181, 780189.786800000816584, 0.0 ], [ 427141.730800000019372, 780189.251299999654293, 0.0 ] ] } },
{ "type": "Feature", "properties": { "Entity": "Line", "Handle": "6138B", "Layer": "bottom outlet", "LyrFrzn": 0, "LyrOn": 1, "Color": 1, "Linetype": "Continuous", "Elevation": 0.0, "LineWt": 25, "RefName": null, "DocUpdate": "2026-07-06T00:00:00", "DocId": 1.1061215596299999e+19, "t0": null, "t00": null, "Shape_Leng": 0.85611756228900004 }, "geometry": { "type": "LineString", "coordinates": [ [ 427147.381799999624491, 780193.206800000742078, 0.0 ], [ 427146.658999999985099, 780192.747999999672174, 0.0 ] ] } },
{ "type": "Feature", "properties": { "Entity": "Line", "Handle": "6138C", "Layer": "bottom outlet", "LyrFrzn": 0, "LyrOn": 1, "Color": 1, "Linetype": "Continuous", "Elevation": 0.0, "LineWt": 25, "RefName": null, "DocUpdate": "2026-07-06T00:00:00", "DocId": 1.1061215596299999e+19, "t0": null, "t00": null, "Shape_Leng": 1.4340107181099999 }, "geometry": { "type": "LineString", "coordinates": [ [ 427146.518899999558926, 780192.659099999815226, 0.0 ], [ 427145.308199999853969, 780191.890599999576807, 0.0 ] ] } },
{ "type": "Feature", "properties": { "Entity": "Line", "Handle": "6138D", "Layer": "bottom outlet", "LyrFrzn": 0, "LyrOn": 1, "Color": 1, "Linetype": "Continuous", "Elevation": 0.0, "LineWt": 25, "RefName": null, "DocUpdate": "2026-07-06T00:00:00", "DocId": 1.1061215596299999e+19, "t0": null, "t00": null, "Shape_Leng": 1.4340951473000001 }, "geometry": { "type": "LineString", "coordinates": [ [ 427145.168100000359118, 780191.801699999719858, 0.0 ], [ 427143.957299999892712, 780191.03319999948144, 0.0 ] ] } },
{ "type": "Feature", "properties": { "Entity": "Line", "Handle": "6138E", "Layer": "bottom outlet", "LyrFrzn": 0, "LyrOn": 1, "Color": 1, "Linetype": "Continuous", "Elevation": 0.0, "LineWt": 25, "RefName": null, "DocUpdate": "2026-07-06T00:00:00", "DocId": 1.1061215596299999e+19, "t0": null, "t00": null, "Shape_Leng": 1.4340951473000001 }, "geometry": { "type": "LineString", "coordinates": [ [ 427143.817200000397861, 780190.944299999624491, 0.0 ], [ 427142.606399999931455, 780190.175799999386072, 0.0 ] ] } },
{ "type": "Feature", "properties": { "Entity": "Line", "Handle": "6138F", "Layer": "bottom outlet", "LyrFrzn": 0, "LyrOn": 1, "Color": 1, "Linetype": "Continuous", "Elevation": 0.0, "LineWt": 25, "RefName": null, "DocUpdate": "2026-07-06T00:00:00", "DocId": 1.1061215596299999e+19, "t0": null, "t00": null, "Shape_Leng": 0.85611756207800005 }, "geometry": { "type": "LineString", "coordinates": [ [ 427142.466300000436604, 780190.086899999529123, 0.0 ], [ 427141.74349999986589, 780189.628100000321865, 0.0 ] ] } },
{ "type": "Feature", "properties": { "Entity": "Line", "Handle": "61390", "Layer": "bottom outlet", "LyrFrzn": 0, "LyrOn": 1, "Color": 1, "Linetype": "Continuous", "Elevation": 0.0, "LineWt": 25, "RefName": null, "DocUpdate": "2026-07-06T00:00:00", "DocId": 1.1061215596299999e+19, "t0": null, "t00": null, "Shape_Leng": 0.82244017981600004 }, "geometry": { "type": "LineString", "coordinates": [ [ 427147.440399999730289, 780193.181600000709295, 0.0 ], [ 427146.746000000275671, 780192.740900000557303, 0.0 ] ] } },
{ "type": "Feature", "properties": { "Entity": "Line", "Handle": "61391", "Layer": "bottom outlet", "LyrFrzn": 0, "LyrOn": 1, "Color": 1, "Linetype": "Continuous", "Elevation": 0.0, "LineWt": 25, "RefName": null, "DocUpdate": "2026-07-06T00:00:00", "DocId": 1.1061215596299999e+19, "t0": null, "t00": null, "Shape_Leng": 1.2949139353900001 }, "geometry": { "type": "LineString", "coordinates": [ [ 427146.488400000147521, 780192.57740000076592, 0.0 ], [ 427145.395100000314415, 780191.883500000461936, 0.0 ] ] } },
{ "type": "Feature", "properties": { "Entity": "Line", "Handle": "61392", "Layer": "bottom outlet", "LyrFrzn": 0, "LyrOn": 1, "Color": 1, "Linetype": "Continuous", "Elevation": 0.0, "LineWt": 25, "RefName": null, "DocUpdate": "2026-07-06T00:00:00", "DocId": 1.1061215596299999e+19, "t0": null, "t00": null, "Shape_Leng": 1.2948295063199999 }, "geometry": { "type": "LineString", "coordinates": [ [ 427145.137500000186265, 780191.720000000670552, 0.0 ], [ 427144.044300000183284, 780191.026100000366569, 0.0 ] ] } },
{ "type": "Feature", "properties": { "Entity": "Line", "Handle": "61393", "Layer": "bottom outlet", "LyrFrzn": 0, "LyrOn": 1, "Color": 1, "Linetype": "Continuous", "Elevation": 0.0, "LineWt": 25, "RefName": null, "DocUpdate": "2026-07-06T00:00:00", "DocId": 1.1061215596299999e+19, "t0": null, "t00": null, "Shape_Leng": 1.2949139353900001 }, "geometry": { "type": "LineString", "coordinates": [ [ 427143.786700000055134, 780190.862500000745058, 0.0 ], [ 427142.693400000222027, 780190.168600000441074, 0.0 ] ] } },
{ "type": "Feature", "properties": { "Entity": "Line", "Handle": "61394", "Layer": "bottom outlet", "LyrFrzn": 0, "LyrOn": 1, "Color": 1, "Linetype": "Continuous", "Elevation": 0.0, "LineWt": 25, "RefName": null, "DocUpdate": "2026-07-06T00:00:00", "DocId": 1.1061215596299999e+19, "t0": null, "t00": null, "Shape_Leng": 0.82244018060299995 }, "geometry": { "type": "LineString", "coordinates": [ [ 427142.435800000093877, 780190.005100000649691, 0.0 ], [ 427141.741399999707937, 780189.564400000497699, 0.0 ] ] } },
{ "type": "Feature", "properties": { "Entity": "Line", "Handle": "61395", "Layer": "bottom outlet", "LyrFrzn": 0, "LyrOn": 1, "Color": 6, "Linetype": "Continuous", "Elevation": 0.0, "LineWt": 25, "RefName": null, "DocUpdate": "2026-07-06T00:00:00", "DocId": 1.1061215596299999e+19, "t0": null, "t00": null, "Shape_Leng": 6.4588083295200001 }, "geometry": { "type": "LineString", "coordinates": [ [ 427141.474799999967217, 780189.005100000649691, 0.0 ], [ 427146.927899999544024, 780192.466299999505281, 0.0 ] ] } },
{ "type": "Feature", "properties": { "Entity": "Arc", "Handle": "61396", "Layer": "bottom outlet", "LyrFrzn": 0, "LyrOn": 1, "Color": 6, "Linetype": "Continuous", "Elevation": 0.0, "LineWt": 25, "RefName": null, "DocUpdate": "2026-07-06T00:00:00", "DocId": 1.1061215596299999e+19, "t0": null, "t00": null, "Shape_Leng": 2.2911529268200002 }, "geometry": { "type": "LineString", "coordinates": [ [ 427141.800200000405312, 780191.30489999987185, 0.0 ], [ 427141.767735182598699, 780192.067184695624746, 0.0 ], [ 427141.619686465361156, 780192.815658809617162, 0.0 ], [ 427141.35950000025332, 780193.5329, 0.0 ] ] } },
{ "type": "Feature", "properties": { "Entity": "Line", "Handle": "61397", "Layer": "bottom outlet", "LyrFrzn": 0, "LyrOn": 1, "Color": 6, "Linetype": "Continuous", "Elevation": 0.0, "LineWt": 25, "RefName": null, "DocUpdate": "2026-07-06T00:00:00", "DocId": 1.1061215596299999e+19, "t0": null, "t00": null, "Shape_Leng": 2.1403214948099998 }, "geometry": { "type": "LineString", "coordinates": [ [ 427141.727900000289083, 780189.16579999960959, 0.0 ], [ 427141.800200000405312, 780191.30489999987185, 0.0 ] ] } },
{ "type": "Feature", "properties": { "Entity": "Arc", "Handle": "61398", "Layer": "bottom outlet", "LyrFrzn": 0, "LyrOn": 1, "Color": 6, "Linetype": "Continuous", "Elevation": 0.0, "LineWt": 25, "RefName": null, "DocUpdate": "2026-07-06T00:00:00", "DocId": 1.1061215596299999e+19, "t0": null, "t00": null, "Shape_Leng": 2.29118837085 }, "geometry": { "type": "LineString", "coordinates": [ [ 427144.011900000274181, 780195.216399999335408, 0.0 ], [ 427144.550168958900031, 780194.675644545117393, 0.0 ], [ 427145.164435079670511, 780194.223066302132793, 0.0 ], [ 427145.840400000102818, 780193.869200000539422, 0.0 ] ] } },
{ "type": "Feature", "properties": { "Entity": "Line", "Handle": "61399", "Layer": "bottom outlet", "LyrFrzn": 0, "LyrOn": 1, "Color": 6, "Linetype": "Continuous", "Elevation": 0.0, "LineWt": 25, "RefName": null, "DocUpdate": "2026-07-06T00:00:00", "DocId": 1.1061215596299999e+19, "t0": null, "t00": null, "Shape_Leng": 2.14030908326 }, "geometry": { "type": "LineString", "coordinates": [ [ 427147.806800000369549, 780193.024100000038743, 0.0 ], [ 427145.840400000102818, 780193.869200000539422, 0.0 ] ] } },
{ "type": "Feature", "properties": { "Entity": "Line", "Handle": "6139A", "Layer": "bottom outlet", "LyrFrzn": 0, "LyrOn": 1, "Color": 6, "Linetype": "Continuous", "Elevation": 0.0, "LineWt": 25, "RefName": null, "DocUpdate": "2026-07-06T00:00:00", "DocId": 1.1061215596299999e+19, "t0": null, "t00": null, "Shape_Leng": 1.0000156501299999 }, "geometry": { "type": "LineString", "coordinates": [ [ 427141.727900000289083, 780189.16579999960959, 0.0 ], [ 427140.883600000292063, 780188.629899999126792, 0.0 ] ] } },
{ "type": "Feature", "properties": { "Entity": "Line", "Handle": "6139B", "Layer": "bottom outlet", "LyrFrzn": 0, "LyrOn": 1, "Color": 6, "Linetype": "Continuous", "Elevation": 0.0, "LineWt": 25, "RefName": null, "DocUpdate": "2026-07-06T00:00:00", "DocId": 1.1061215596299999e+19, "t0": null, "t00": null, "Shape_Leng": 4.0259477852899996 }, "geometry": { "type": "LineString", "coordinates": [ [ 427140.883600000292063, 780188.629899999126792, 0.0 ], [ 427138.72620000038296, 780192.028999999165535, 0.0 ] ] } },
{ "type": "Feature", "properties": { "Entity": "Line", "Handle": "6139C", "Layer": "bottom outlet", "LyrFrzn": 0, "LyrOn": 1, "Color": 6, "Linetype": "Continuous", "Elevation": 0.0, "LineWt": 25, "RefName": null, "DocUpdate": "2026-07-06T00:00:00", "DocId": 1.1061215596299999e+19, "t0": null, "t00": null, "Shape_Leng": 0.50007683360800004 }, "geometry": { "type": "LineString", "coordinates": [ [ 427147.806800000369549, 780193.024100000038743, 0.0 ], [ 427148.229000000283122, 780193.292099999263883, 0.0 ] ] } },
{ "type": "Feature", "properties": { "Entity": "Line", "Handle": "6139D", "Layer": "bottom outlet", "LyrFrzn": 0, "LyrOn": 1, "Color": 6, "Linetype": "Continuous", "Elevation": 0.0, "LineWt": 25, "RefName": null, "DocUpdate": "2026-07-06T00:00:00", "DocId": 1.1061215596299999e+19, "t0": null, "t00": null, "Shape_Leng": 1.3999728715099999 }, "geometry": { "type": "LineString", "coordinates": [ [ 427140.954900000244379, 780193.276100000366569, 0.0 ], [ 427140.204699999652803, 780194.458100000396371, 0.0 ] ] } },
{ "type": "Feature", "properties": { "Entity": "LWPolyline", "Handle": "6139E", "Layer": "bottom outlet", "LyrFrzn": 0, "LyrOn": 1, "Color": 6, "Linetype": "Continuous", "Elevation": 0.0, "LineWt": 25, "RefName": null, "DocUpdate": "2026-07-06T00:00:00", "DocId": 1.1061215596299999e+19, "t0": null, "t00": null, "Shape_Leng": 17.672127859900002 }, "geometry": { "type": "LineString", "coordinates": [ [ 427138.72620000038296, 780192.028999999165535, 0.0 ], [ 427139.373800000175834, 780194.927400000393391, 0.0 ], [ 427131.495099999941885, 780207.340399999171495, 0.0 ] ] } },
{ "type": "Feature", "properties": { "Entity": "LWPolyline", "Handle": "6139F", "Layer": "bottom outlet", "LyrFrzn": 0, "LyrOn": 1, "Color": 6, "Linetype": "Continuous", "Elevation": 0.0, "LineWt": 25, "RefName": null, "DocUpdate": "2026-07-06T00:00:00", "DocId": 1.1061215596299999e+19, "t0": null, "t00": null, "Shape_Leng": 14.199990682299999 }, "geometry": { "type": "LineString", "coordinates": [ [ 427142.899799999780953, 780198.702600000426173, 0.0 ], [ 427135.290199999697506, 780210.691500000655651, 0.0 ] ] } }
]
}
