{"type":"FeatureCollection","features":[{"type":"Feature","id":1,"geometry":{"type":"LineString","coordinates":[[80.339437653363348,7.0583995523731513],[80.339528177188754,7.0583481500037566]]},"properties":{"OBJECTID":1,"Entity":"Line","Handle":"42892","Layer":"bottom outlet","LyrFrzn":0,"LyrOn":1,"Color":2,"Linetype":"Continuous","Elevation":0,"LineWt":25,"RefName":"","DocUpdate":1783359710000,"DocId":1.1061215596273316e+19,"t0":null,"t00":null,"Shape_Length":11.50003363605907}},{"type":"Feature","id":2,"geometry":{"type":"LineString","coordinates":[[80.340196377908313,7.0566883993037575],[80.340090905501356,7.0567144699937874]]},"properties":{"OBJECTID":2,"Entity":"Line","Handle":"42893","Layer":"bottom outlet","LyrFrzn":0,"LyrOn":1,"Color":2,"Linetype":"Continuous","Elevation":0,"LineWt":25,"RefName":"","DocUpdate":1783359710000,"DocId":1.1061215596273316e+19,"t0":null,"t00":null,"Shape_Length":12.000159528975717}},{"type":"Feature","id":3,"geometry":{"type":"LineString","coordinates":[[80.3402040352169,7.0567004838689762],[80.340181622511452,7.056706024130718]]},"properties":{"OBJECTID":3,"Entity":"Line","Handle":"42894","Layer":"bottom outlet","LyrFrzn":0,"LyrOn":1,"Color":2,"Linetype":"Continuous","Elevation":0,"LineWt":25,"RefName":"","DocUpdate":1783359710000,"DocId":1.1061215596273316e+19,"t0":null,"t00":null,"Shape_Length":2.5500208329007954}},{"type":"Feature","id":4,"geometry":{"type":"LineString","coordinates":[[80.340086556243278,7.056696909521655],[80.340092857277895,7.0567223738720184]]},"properties":{"OBJECTID":4,"Entity":"Line","Handle":"42895","Layer":"bottom outlet","LyrFrzn":0,"LyrOn":1,"Color":2,"Linetype":"Continuous","Elevation":0,"LineWt":25,"RefName":"","DocUpdate":1783359710000,"DocId":1.1061215596273316e+19,"t0":null,"t00":null,"Shape_Length":2.8999278706912692}},{"type":"Feature","id":5,"geometry":{"type":"LineString","coordinates":[[80.340109602509074,7.0567899844491251],[80.340115914413474,7.0568154470056061]]},"properties":{"OBJECTID":5,"Entity":"Line","Handle":"42896","Layer":"bottom outlet","LyrFrzn":0,"LyrOn":1,"Color":2,"Linetype":"Continuous","Elevation":0,"LineWt":25,"RefName":"","DocUpdate":1783359710000,"DocId":1.1061215596273316e+19,"t0":null,"t00":null,"Shape_Length":2.9000236579859235}},{"type":"Feature","id":6,"geometry":{"type":"LineString","coordinates":[[80.340192518376114,7.0567406027445827],[80.340212733739861,7.0567356066209213]]},"properties":{"OBJECTID":6,"Entity":"Line","Handle":"42897","Layer":"bottom outlet","LyrFrzn":0,"LyrOn":1,"Color":2,"Linetype":"Continuous","Elevation":0,"LineWt":25,"RefName":"","DocUpdate":1783359710000,"DocId":1.1061215596273316e+19,"t0":null,"t00":null,"Shape_Length":2.2999908392979553}},{"type":"Feature","id":7,"geometry":{"type":"LineString","coordinates":[[80.340189256656799,7.0567274317128366],[80.340209472019978,7.0567224355892639]]},"properties":{"OBJECTID":7,"Entity":"Line","Handle":"42898","Layer":"bottom outlet","LyrFrzn":0,"LyrOn":1,"Color":2,"Linetype":"Continuous","Elevation":0,"LineWt":25,"RefName":"","DocUpdate":1783359710000,"DocId":1.1061215596273316e+19,"t0":null,"t00":null,"Shape_Length":2.2999908392979553}},{"type":"Feature","id":8,"geometry":{"type":"LineString","coordinates":[[80.340177576268914,7.0567442965531049],[80.340126588244175,7.0567536379845377]]},"properties":{"OBJECTID":8,"Entity":"Line","Handle":"42899","Layer":"bottom outlet","LyrFrzn":0,"LyrOn":1,"Color":2,"Linetype":"Continuous","Elevation":0,"LineWt":25,"RefName":"","DocUpdate":1783359710000,"DocId":1.1061215596273316e+19,"t0":null,"t00":null,"Shape_Length":5.7252799495042455}},{"type":"Feature","id":9,"geometry":{"type":"LineString","coordinates":[[80.340124847997274,7.0567466136140933],[80.340174314550012,7.0567311255213108]]},"properties":{"OBJECTID":9,"Entity":"Line","Handle":"4289A","Layer":"bottom outlet","LyrFrzn":0,"LyrOn":1,"Color":2,"Linetype":"Continuous","Elevation":0,"LineWt":25,"RefName":"","DocUpdate":1783359710000,"DocId":1.1061215596273316e+19,"t0":null,"t00":null,"Shape_Length":5.7253671331311038}},{"type":"Feature","id":10,"geometry":{"type":"LineString","coordinates":[[80.340126588244175,7.0567536379845377],[80.340124847997274,7.0567466136140933]]},"properties":{"OBJECTID":10,"Entity":"Line","Handle":"4289B","Layer":"bottom outlet","LyrFrzn":0,"LyrOn":1,"Color":2,"Linetype":"Continuous","Elevation":0,"LineWt":25,"RefName":"","DocUpdate":1783359710000,"DocId":1.1061215596273316e+19,"t0":null,"t00":null,"Shape_Length":0.80000411261014959}},{"type":"Feature","id":11,"geometry":{"type":"LineString","coordinates":[[80.340197955178922,7.0567625544649593],[80.340218171450303,7.0567575574378978]]},"properties":{"OBJECTID":11,"Entity":"Line","Handle":"4289C","Layer":"bottom outlet","LyrFrzn":0,"LyrOn":1,"Color":2,"Linetype":"Continuous","Elevation":0,"LineWt":25,"RefName":"","DocUpdate":1783359710000,"DocId":1.1061215596273316e+19,"t0":null,"t00":null,"Shape_Length":2.3001120320340012}},{"type":"Feature","id":12,"geometry":{"type":"LineString","coordinates":[[80.34018381985338,7.0567054808969338],[80.3402040352169,7.0567004838689762]]},"properties":{"OBJECTID":12,"Entity":"Line","Handle":"4289D","Layer":"bottom outlet","LyrFrzn":0,"LyrOn":1,"Color":2,"Linetype":"Continuous","Elevation":0,"LineWt":25,"RefName":"","DocUpdate":1783359710000,"DocId":1.1061215596273316e+19,"t0":null,"t00":null,"Shape_Length":2.3000149935741492}},{"type":"Feature","id":13,"geometry":{"type":"LineString","coordinates":[[80.340190044385324,7.0567645097443519],[80.340184608488286,7.0567425580251975]]},"properties":{"OBJECTID":13,"Entity":"Line","Handle":"4289E","Layer":"bottom outlet","LyrFrzn":0,"LyrOn":1,"Color":6,"Linetype":"Continuous","Elevation":0,"LineWt":25,"RefName":"","DocUpdate":1783359710000,"DocId":1.1061215596273316e+19,"t0":null,"t00":null,"Shape_Length":2.5000100869797071}},{"type":"Feature","id":14,"geometry":{"type":"LineString","coordinates":[[80.340197955178922,7.0567625544649593],[80.340198933785103,7.0567665059555011]]},"properties":{"OBJECTID":14,"Entity":"Line","Handle":"4289F","Layer":"bottom outlet","LyrFrzn":0,"LyrOn":1,"Color":2,"Linetype":"Continuous","Elevation":0,"LineWt":25,"RefName":"","DocUpdate":1783359710000,"DocId":1.1061215596273316e+19,"t0":null,"t00":null,"Shape_Length":0.45002508764032279}},{"type":"Feature","id":15,"geometry":{"type":"LineString","coordinates":[[80.340190044385324,7.0567645097443519],[80.340191022991434,7.0567684612349213]]},"properties":{"OBJECTID":15,"Entity":"Line","Handle":"428A1","Layer":"bottom outlet","LyrFrzn":0,"LyrOn":1,"Color":6,"Linetype":"Continuous","Elevation":0,"LineWt":25,"RefName":"","DocUpdate":1783359710000,"DocId":1.1061215596273316e+19,"t0":null,"t00":null,"Shape_Length":0.45002508944781566}},{"type":"Feature","id":16,"geometry":{"type":"LineString","coordinates":[[80.340187407755465,7.056765161806057],[80.340190044385324,7.0567645097443519]]},"properties":{"OBJECTID":16,"Entity":"Line","Handle":"428A2","Layer":"bottom outlet","LyrFrzn":0,"LyrOn":1,"Color":6,"Linetype":"Continuous","Elevation":0,"LineWt":25,"RefName":"","DocUpdate":1783359710000,"DocId":1.1061215596273316e+19,"t0":null,"t00":null,"Shape_Length":0.29999243321425367}},{"type":"Feature","id":17,"geometry":{"type":"LineString","coordinates":[[80.340188386362854,7.0567691123920966],[80.340198933785103,7.0567665059555011]]},"properties":{"OBJECTID":17,"Entity":"Line","Handle":"428A3","Layer":"bottom outlet","LyrFrzn":0,"LyrOn":1,"Color":2,"Linetype":"Continuous","Elevation":0,"LineWt":25,"RefName":"","DocUpdate":1783359710000,"DocId":1.1061215596273316e+19,"t0":null,"t00":null,"Shape_Length":1.2000184542973449}},{"type":"Feature","id":18,"geometry":{"type":"LineString","coordinates":[[80.340187407755465,7.056765161806057],[80.340188386362854,7.0567691123920966]]},"properties":{"OBJECTID":18,"Entity":"Line","Handle":"428A4","Layer":"bottom outlet","LyrFrzn":0,"LyrOn":1,"Color":2,"Linetype":"Continuous","Elevation":0,"LineWt":25,"RefName":"","DocUpdate":1783359710000,"DocId":1.1061215596273316e+19,"t0":null,"t00":null,"Shape_Length":0.44992805122661111}},{"type":"Feature","id":19,"geometry":{"type":"LineString","coordinates":[[80.340181970953154,7.0567432100856022],[80.340187407755465,7.056765161806057]]},"properties":{"OBJECTID":19,"Entity":"Line","Handle":"428A5","Layer":"bottom outlet","LyrFrzn":0,"LyrOn":1,"Color":6,"Linetype":"Continuous","Elevation":0,"LineWt":25,"RefName":"","DocUpdate":1783359710000,"DocId":1.1061215596273316e+19,"t0":null,"t00":null,"Shape_Length":2.5000342407245242}},{"type":"Feature","id":20,"geometry":{"type":"LineString","coordinates":[[80.340192518376114,7.0567406027445827],[80.340197955178922,7.0567625544649593]]},"properties":{"OBJECTID":20,"Entity":"Line","Handle":"428A6","Layer":"bottom outlet","LyrFrzn":0,"LyrOn":1,"Color":6,"Linetype":"Continuous","Elevation":0,"LineWt":25,"RefName":"","DocUpdate":1783359710000,"DocId":1.1061215596273316e+19,"t0":null,"t00":null,"Shape_Length":2.5000342407245242}},{"type":"Feature","id":21,"geometry":{"type":"LineString","coordinates":[[80.340183013072306,7.0567662473690591],[80.340187407755465,7.056765161806057]]},"properties":{"OBJECTID":21,"Entity":"Line","Handle":"428A7","Layer":"bottom outlet","LyrFrzn":0,"LyrOn":1,"Color":2,"Linetype":"Continuous","Elevation":0,"LineWt":25,"RefName":"","DocUpdate":1783359710000,"DocId":1.1061215596273316e+19,"t0":null,"t00":null,"Shape_Length":0.49998752980490424}},{"type":"Feature","id":22,"geometry":{"type":"LineString","coordinates":[[80.34019575783671,7.0567630976987834],[80.340196736442877,7.0567670491893297]]},"properties":{"OBJECTID":22,"Entity":"Line","Handle":"428A8","Layer":"bottom outlet","LyrFrzn":0,"LyrOn":1,"Color":6,"Linetype":"Continuous","Elevation":0,"LineWt":25,"RefName":"","DocUpdate":1783359710000,"DocId":1.1061215596273316e+19,"t0":null,"t00":null,"Shape_Length":0.45002508764032279}},{"type":"Feature","id":23,"geometry":{"type":"LineString","coordinates":[[80.34019575783671,7.0567630976987834],[80.340197955178922,7.0567625544649593]]},"properties":{"OBJECTID":23,"Entity":"Line","Handle":"428A9","Layer":"bottom outlet","LyrFrzn":0,"LyrOn":1,"Color":6,"Linetype":"Continuous","Elevation":0,"LineWt":25,"RefName":"","DocUpdate":1783359710000,"DocId":1.1061215596273316e+19,"t0":null,"t00":null,"Shape_Length":0.25000583943959387}},{"type":"Feature","id":24,"geometry":{"type":"LineString","coordinates":[[80.34018381985338,7.0567054808969338],[80.340182841247412,7.0567015294063573]]},"properties":{"OBJECTID":24,"Entity":"Line","Handle":"428AA","Layer":"bottom outlet","LyrFrzn":0,"LyrOn":1,"Color":2,"Linetype":"Continuous","Elevation":0,"LineWt":25,"RefName":"","DocUpdate":1783359710000,"DocId":1.1061215596273316e+19,"t0":null,"t00":null,"Shape_Length":0.45002508944781566}},{"type":"Feature","id":25,"geometry":{"type":"LineString","coordinates":[[80.340175909060719,7.0567074361761772],[80.340174930454822,7.0567034846856069]]},"properties":{"OBJECTID":25,"Entity":"Line","Handle":"428AB","Layer":"bottom outlet","LyrFrzn":0,"LyrOn":1,"Color":6,"Linetype":"Continuous","Elevation":0,"LineWt":25,"RefName":"","DocUpdate":1783359710000,"DocId":1.1061215596273316e+19,"t0":null,"t00":null,"Shape_Length":0.45002508764032279}},{"type":"Feature","id":26,"geometry":{"type":"LineString","coordinates":[[80.340173272432494,7.0567080873332992],[80.340175909060719,7.0567074361761772]]},"properties":{"OBJECTID":26,"Entity":"Line","Handle":"428AC","Layer":"bottom outlet","LyrFrzn":0,"LyrOn":1,"Color":6,"Linetype":"Continuous","Elevation":0,"LineWt":25,"RefName":"","DocUpdate":1783359710000,"DocId":1.1061215596273316e+19,"t0":null,"t00":null,"Shape_Length":0.29996828167399764}},{"type":"Feature","id":27,"geometry":{"type":"LineString","coordinates":[[80.340173272432494,7.0567080873332992],[80.340172293825319,7.0567041367472561]]},"properties":{"OBJECTID":27,"Entity":"Line","Handle":"428AD","Layer":"bottom outlet","LyrFrzn":0,"LyrOn":1,"Color":2,"Linetype":"Continuous","Elevation":0,"LineWt":25,"RefName":"","DocUpdate":1783359710000,"DocId":1.1061215596273316e+19,"t0":null,"t00":null,"Shape_Length":0.44992804941914238}},{"type":"Feature","id":28,"geometry":{"type":"LineString","coordinates":[[80.340181622511452,7.056706024130718],[80.340180643905498,7.0567020726401379]]},"properties":{"OBJECTID":28,"Entity":"Line","Handle":"428AE","Layer":"bottom outlet","LyrFrzn":0,"LyrOn":1,"Color":6,"Linetype":"Continuous","Elevation":0,"LineWt":25,"RefName":"","DocUpdate":1783359710000,"DocId":1.1061215596273316e+19,"t0":null,"t00":null,"Shape_Length":0.45002508944781566}},{"type":"Feature","id":29,"geometry":{"type":"LineString","coordinates":[[80.340181622511452,7.056706024130718],[80.34018381985338,7.0567054808969338]]},"properties":{"OBJECTID":29,"Entity":"Line","Handle":"428AF","Layer":"bottom outlet","LyrFrzn":0,"LyrOn":1,"Color":6,"Linetype":"Continuous","Elevation":0,"LineWt":25,"RefName":"","DocUpdate":1783359710000,"DocId":1.1061215596273316e+19,"t0":null,"t00":null,"Shape_Length":0.25000583943959387}},{"type":"Feature","id":30,"geometry":{"type":"LineString","coordinates":[[80.340168877748567,7.0567091738007504],[80.340173272432494,7.0567080873332992]]},"properties":{"OBJECTID":30,"Entity":"Line","Handle":"428B0","Layer":"bottom outlet","LyrFrzn":0,"LyrOn":1,"Color":2,"Linetype":"Continuous","Elevation":0,"LineWt":25,"RefName":"","DocUpdate":1783359710000,"DocId":1.1061215596273316e+19,"t0":null,"t00":null,"Shape_Length":0.50001167978292205}},{"type":"Feature","id":31,"geometry":{"type":"LineString","coordinates":[[80.340175909060719,7.0567074361761772],[80.340181345863769,7.0567293869921368]]},"properties":{"OBJECTID":31,"Entity":"Line","Handle":"428B1","Layer":"bottom outlet","LyrFrzn":0,"LyrOn":1,"Color":6,"Linetype":"Continuous","Elevation":0,"LineWt":25,"RefName":"","DocUpdate":1783359710000,"DocId":1.1061215596273316e+19,"t0":null,"t00":null,"Shape_Length":2.4999372025601527}},{"type":"Feature","id":32,"geometry":{"type":"LineString","coordinates":[[80.340178709234152,7.0567300390538108],[80.340173272432494,7.0567080873332992]]},"properties":{"OBJECTID":32,"Entity":"Line","Handle":"428B2","Layer":"bottom outlet","LyrFrzn":0,"LyrOn":1,"Color":6,"Linetype":"Continuous","Elevation":0,"LineWt":25,"RefName":"","DocUpdate":1783359710000,"DocId":1.1061215596273316e+19,"t0":null,"t00":null,"Shape_Length":2.5000342409494913}},{"type":"Feature","id":33,"geometry":{"type":"LineString","coordinates":[[80.34019575783671,7.0567630976987834],[80.340190321034015,7.05674114597839]]},"properties":{"OBJECTID":33,"Entity":"Line","Handle":"428B3","Layer":"bottom outlet","LyrFrzn":0,"LyrOn":1,"Color":6,"Linetype":"Continuous","Elevation":0,"LineWt":25,"RefName":"","DocUpdate":1783359710000,"DocId":1.1061215596273316e+19,"t0":null,"t00":null,"Shape_Length":2.5000342409494913}},{"type":"Feature","id":34,"geometry":{"type":"LineString","coordinates":[[80.340189256656799,7.0567274317128366],[80.34018381985338,7.0567054808969338]]},"properties":{"OBJECTID":34,"Entity":"Line","Handle":"428B4","Layer":"bottom outlet","LyrFrzn":0,"LyrOn":1,"Color":6,"Linetype":"Continuous","Elevation":0,"LineWt":25,"RefName":"","DocUpdate":1783359710000,"DocId":1.1061215596273316e+19,"t0":null,"t00":null,"Shape_Length":2.4999372025601527}},{"type":"Feature","id":35,"geometry":{"type":"LineString","coordinates":[[80.340181622511452,7.056706024130718],[80.340187059314758,7.0567279749466358]]},"properties":{"OBJECTID":35,"Entity":"Line","Handle":"428B5","Layer":"bottom outlet","LyrFrzn":0,"LyrOn":1,"Color":6,"Linetype":"Continuous","Elevation":0,"LineWt":25,"RefName":"","DocUpdate":1783359710000,"DocId":1.1061215596273316e+19,"t0":null,"t00":null,"Shape_Length":2.4999372023351767}},{"type":"Feature","id":36,"geometry":{"type":"LineString","coordinates":[[80.340172293825319,7.0567041367472561],[80.340182841247412,7.0567015294063573]]},"properties":{"OBJECTID":36,"Entity":"Line","Handle":"428B6","Layer":"bottom outlet","LyrFrzn":0,"LyrOn":1,"Color":2,"Linetype":"Continuous","Elevation":0,"LineWt":25,"RefName":"","DocUpdate":1783359710000,"DocId":1.1061215596273316e+19,"t0":null,"t00":null,"Shape_Length":1.2000426078085553}},{"type":"Feature","id":37,"geometry":{"type":"LineString","coordinates":[[80.340192518376114,7.0567406027445827],[80.340191539768739,7.0567366521585475]]},"properties":{"OBJECTID":37,"Entity":"Line","Handle":"428B7","Layer":"bottom outlet","LyrFrzn":0,"LyrOn":1,"Color":2,"Linetype":"Continuous","Elevation":0,"LineWt":25,"RefName":"","DocUpdate":1783359710000,"DocId":1.1061215596273316e+19,"t0":null,"t00":null,"Shape_Length":0.44992805145161324}},{"type":"Feature","id":38,"geometry":{"type":"LineString","coordinates":[[80.340184608488286,7.0567425580251975],[80.340183629880997,7.0567386074391694]]},"properties":{"OBJECTID":38,"Entity":"Line","Handle":"428B8","Layer":"bottom outlet","LyrFrzn":0,"LyrOn":1,"Color":6,"Linetype":"Continuous","Elevation":0,"LineWt":25,"RefName":"","DocUpdate":1783359710000,"DocId":1.1061215596273316e+19,"t0":null,"t00":null,"Shape_Length":0.44992804941914238}},{"type":"Feature","id":39,"geometry":{"type":"LineString","coordinates":[[80.340181970953154,7.0567432100856022],[80.340184608488286,7.0567425580251975]]},"properties":{"OBJECTID":39,"Entity":"Line","Handle":"428B9","Layer":"bottom outlet","LyrFrzn":0,"LyrOn":1,"Color":6,"Linetype":"Continuous","Elevation":0,"LineWt":25,"RefName":"","DocUpdate":1783359710000,"DocId":1.1061215596273316e+19,"t0":null,"t00":null,"Shape_Length":0.30008946980339135}},{"type":"Feature","id":40,"geometry":{"type":"LineString","coordinates":[[80.340180992347143,7.0567392585950381],[80.340191539768739,7.0567366521585475]]},"properties":{"OBJECTID":40,"Entity":"Line","Handle":"428BA","Layer":"bottom outlet","LyrFrzn":0,"LyrOn":1,"Color":2,"Linetype":"Continuous","Elevation":0,"LineWt":25,"RefName":"","DocUpdate":1783359710000,"DocId":1.1061215596273316e+19,"t0":null,"t00":null,"Shape_Length":1.2000184542973449}},{"type":"Feature","id":41,"geometry":{"type":"LineString","coordinates":[[80.340181970953154,7.0567432100856022],[80.340180992347143,7.0567392585950381]]},"properties":{"OBJECTID":41,"Entity":"Line","Handle":"428BB","Layer":"bottom outlet","LyrFrzn":0,"LyrOn":1,"Color":2,"Linetype":"Continuous","Elevation":0,"LineWt":25,"RefName":"","DocUpdate":1783359710000,"DocId":1.1061215596273316e+19,"t0":null,"t00":null,"Shape_Length":0.4500250878652764}},{"type":"Feature","id":42,"geometry":{"type":"LineString","coordinates":[[80.340177576268914,7.0567442965531049],[80.340181970953154,7.0567432100856022]]},"properties":{"OBJECTID":42,"Entity":"Line","Handle":"428BC","Layer":"bottom outlet","LyrFrzn":0,"LyrOn":1,"Color":2,"Linetype":"Continuous","Elevation":0,"LineWt":25,"RefName":"","DocUpdate":1783359710000,"DocId":1.1061215596273316e+19,"t0":null,"t00":null,"Shape_Length":0.50001167978292205}},{"type":"Feature","id":43,"geometry":{"type":"LineString","coordinates":[[80.340190321034015,7.05674114597839],[80.340189342427934,7.0567371944878214]]},"properties":{"OBJECTID":43,"Entity":"Line","Handle":"428BD","Layer":"bottom outlet","LyrFrzn":0,"LyrOn":1,"Color":6,"Linetype":"Continuous","Elevation":0,"LineWt":25,"RefName":"","DocUpdate":1783359710000,"DocId":1.1061215596273316e+19,"t0":null,"t00":null,"Shape_Length":0.45002508944781566}},{"type":"Feature","id":44,"geometry":{"type":"LineString","coordinates":[[80.340190321034015,7.05674114597839],[80.340192518376114,7.0567406027445827]]},"properties":{"OBJECTID":44,"Entity":"Line","Handle":"428BE","Layer":"bottom outlet","LyrFrzn":0,"LyrOn":1,"Color":6,"Linetype":"Continuous","Elevation":0,"LineWt":25,"RefName":"","DocUpdate":1783359710000,"DocId":1.1061215596273316e+19,"t0":null,"t00":null,"Shape_Length":0.25000584034332818}},{"type":"Feature","id":45,"geometry":{"type":"LineString","coordinates":[[80.340189256656799,7.0567274317128366],[80.340190235262853,7.05673138320339]]},"properties":{"OBJECTID":45,"Entity":"Line","Handle":"428BF","Layer":"bottom outlet","LyrFrzn":0,"LyrOn":1,"Color":2,"Linetype":"Continuous","Elevation":0,"LineWt":25,"RefName":"","DocUpdate":1783359710000,"DocId":1.1061215596273316e+19,"t0":null,"t00":null,"Shape_Length":0.45002508764032279}},{"type":"Feature","id":46,"geometry":{"type":"LineString","coordinates":[[80.340181345863769,7.0567293869921368],[80.340182324469779,7.0567333384827178]]},"properties":{"OBJECTID":46,"Entity":"Line","Handle":"428C0","Layer":"bottom outlet","LyrFrzn":0,"LyrOn":1,"Color":6,"Linetype":"Continuous","Elevation":0,"LineWt":25,"RefName":"","DocUpdate":1783359710000,"DocId":1.1061215596273316e+19,"t0":null,"t00":null,"Shape_Length":0.45002508944781566}},{"type":"Feature","id":47,"geometry":{"type":"LineString","coordinates":[[80.340178709234152,7.0567300390538108],[80.340181345863769,7.0567293869921368]]},"properties":{"OBJECTID":47,"Entity":"Line","Handle":"428C1","Layer":"bottom outlet","LyrFrzn":0,"LyrOn":1,"Color":6,"Linetype":"Continuous","Elevation":0,"LineWt":25,"RefName":"","DocUpdate":1783359710000,"DocId":1.1061215596273316e+19,"t0":null,"t00":null,"Shape_Length":0.29999243321425367}},{"type":"Feature","id":48,"geometry":{"type":"LineString","coordinates":[[80.340179687840106,7.0567339905443944],[80.340190235262853,7.05673138320339]]},"properties":{"OBJECTID":48,"Entity":"Line","Handle":"428C2","Layer":"bottom outlet","LyrFrzn":0,"LyrOn":1,"Color":2,"Linetype":"Continuous","Elevation":0,"LineWt":25,"RefName":"","DocUpdate":1783359710000,"DocId":1.1061215596273316e+19,"t0":null,"t00":null,"Shape_Length":1.2000426078085553}},{"type":"Feature","id":49,"geometry":{"type":"LineString","coordinates":[[80.340178709234152,7.0567300390538108],[80.340179687840106,7.0567339905443944]]},"properties":{"OBJECTID":49,"Entity":"Line","Handle":"428C3","Layer":"bottom outlet","LyrFrzn":0,"LyrOn":1,"Color":2,"Linetype":"Continuous","Elevation":0,"LineWt":25,"RefName":"","DocUpdate":1783359710000,"DocId":1.1061215596273316e+19,"t0":null,"t00":null,"Shape_Length":0.45002508944781566}},{"type":"Feature","id":50,"geometry":{"type":"LineString","coordinates":[[80.340174314550012,7.0567311255213108],[80.340178709234152,7.0567300390538108]]},"properties":{"OBJECTID":50,"Entity":"Line","Handle":"428C4","Layer":"bottom outlet","LyrFrzn":0,"LyrOn":1,"Color":2,"Linetype":"Continuous","Elevation":0,"LineWt":25,"RefName":"","DocUpdate":1783359710000,"DocId":1.1061215596273316e+19,"t0":null,"t00":null,"Shape_Length":0.50001168023292664}},{"type":"Feature","id":51,"geometry":{"type":"LineString","coordinates":[[80.340187059314758,7.0567279749466358],[80.340188037920811,7.056731926437191]]},"properties":{"OBJECTID":51,"Entity":"Line","Handle":"428C5","Layer":"bottom outlet","LyrFrzn":0,"LyrOn":1,"Color":6,"Linetype":"Continuous","Elevation":0,"LineWt":25,"RefName":"","DocUpdate":1783359710000,"DocId":1.1061215596273316e+19,"t0":null,"t00":null,"Shape_Length":0.4500250878652764}},{"type":"Feature","id":52,"geometry":{"type":"LineString","coordinates":[[80.340187059314758,7.0567279749466358],[80.340189256656799,7.0567274317128366]]},"properties":{"OBJECTID":52,"Entity":"Line","Handle":"428C6","Layer":"bottom outlet","LyrFrzn":0,"LyrOn":1,"Color":6,"Linetype":"Continuous","Elevation":0,"LineWt":25,"RefName":"","DocUpdate":1783359710000,"DocId":1.1061215596273316e+19,"t0":null,"t00":null,"Shape_Length":0.25000584034332818}},{"type":"Feature","id":53,"geometry":{"type":"LineString","coordinates":[[80.340168877748567,7.0567091738007504],[80.340174314550012,7.0567311255213108]]},"properties":{"OBJECTID":53,"Entity":"Line","Handle":"428C7","Layer":"bottom outlet","LyrFrzn":0,"LyrOn":1,"Color":6,"Linetype":"Continuous","Elevation":0,"LineWt":25,"RefName":"","DocUpdate":1783359710000,"DocId":1.1061215596273316e+19,"t0":null,"t00":null,"Shape_Length":2.5000342427569775}},{"type":"Feature","id":54,"geometry":{"type":"LineString","coordinates":[[80.340177576268914,7.0567442965531049],[80.340183013072306,7.0567662473690591]]},"properties":{"OBJECTID":54,"Entity":"Line","Handle":"428C8","Layer":"bottom outlet","LyrFrzn":0,"LyrOn":1,"Color":6,"Linetype":"Continuous","Elevation":0,"LineWt":25,"RefName":"","DocUpdate":1783359710000,"DocId":1.1061215596273316e+19,"t0":null,"t00":null,"Shape_Length":2.4999372023351767}},{"type":"Feature","id":55,"geometry":{"type":"LineString","coordinates":[[80.340183013072306,7.0567662473690591],[80.340177576268914,7.0567442965531049]]},"properties":{"OBJECTID":55,"Entity":"Line","Handle":"428C9","Layer":"bottom outlet","LyrFrzn":0,"LyrOn":1,"Color":6,"Linetype":"Continuous","Elevation":0,"LineWt":25,"RefName":"","DocUpdate":1783359710000,"DocId":1.1061215596273316e+19,"t0":null,"t00":null,"Shape_Length":2.4999372023351767}},{"type":"Feature","id":56,"geometry":{"type":"LineString","coordinates":[[80.3402315807961,7.0566610615257961],[80.340260939002619,7.056779599004023]]},"properties":{"OBJECTID":56,"Entity":"Line","Handle":"428CA","Layer":"bottom outlet","LyrFrzn":0,"LyrOn":1,"Color":2,"Linetype":"Continuous","Elevation":0,"LineWt":25,"RefName":"","DocUpdate":1783359710000,"DocId":1.1061215596273316e+19,"t0":null,"t00":null,"Shape_Length":13.499976335895978}},{"type":"Feature","id":57,"geometry":{"type":"LineString","coordinates":[[80.340220570925283,7.0566731007126284],[80.340221150103019,7.056676602838837],[80.340221174065704,7.056680152452989],[80.340220642222775,7.0566836620794557],[80.340219567680819,7.0566870452280535],[80.340217976920542,7.0566902185254801],[80.340215909144135,7.0566931037699439],[80.340213415309293,7.0566956298583428],[80.340210556873316,7.0566977345385116],[80.340207404278658,7.0566993659433415],[80.3402040352169,7.0567004838689762]]},"properties":{"OBJECTID":57,"Entity":"Arc","Handle":"428CB","Layer":"bottom outlet","LyrFrzn":0,"LyrOn":1,"Color":2,"Linetype":"Continuous","Elevation":0,"LineWt":25,"RefName":"","DocUpdate":1783359710000,"DocId":1.1061215596273316e+19,"t0":null,"t00":null,"Shape_Length":3.9269873625590024}},{"type":"Feature","id":58,"geometry":{"type":"LineString","coordinates":[[80.340218396745897,7.0566643209298503],[80.340220570925283,7.0566731007126284]]},"properties":{"OBJECTID":58,"Entity":"Line","Handle":"428CC","Layer":"bottom outlet","LyrFrzn":0,"LyrOn":1,"Color":2,"Linetype":"Continuous","Elevation":0,"LineWt":25,"RefName":"","DocUpdate":1783359710000,"DocId":1.1061215596273316e+19,"t0":null,"t00":null,"Shape_Length":0.99990216548371336}},{"type":"Feature","id":59,"geometry":{"type":"LineString","coordinates":[[80.340245579864771,7.0567740777200632],[80.340247754949132,7.0567828584085817]]},"properties":{"OBJECTID":59,"Entity":"Line","Handle":"428CD","Layer":"bottom outlet","LyrFrzn":0,"LyrOn":1,"Color":2,"Linetype":"Continuous","Elevation":0,"LineWt":25,"RefName":"","DocUpdate":1783359710000,"DocId":1.1061215596273316e+19,"t0":null,"t00":null,"Shape_Length":1.0000233595658441}},{"type":"Feature","id":60,"geometry":{"type":"LineString","coordinates":[[80.340218170544873,7.0567575574366179],[80.340222067241328,7.0567569468834286],[80.340226010765093,7.0567570219745086],[80.340229881393398,7.0567577804301465],[80.3402335616165,7.0567591992241274],[80.340236939705235,7.0567612352827966],[80.340239913103048,7.0567638267927491],[80.340242391539533,7.0567668950774447],[80.340244299771001,7.0567703469857728],[80.340245579864771,7.0567740777200632]]},"properties":{"OBJECTID":60,"Entity":"Arc","Handle":"428CE","Layer":"bottom outlet","LyrFrzn":0,"LyrOn":1,"Color":2,"Linetype":"Continuous","Elevation":0,"LineWt":25,"RefName":"","DocUpdate":1783359710000,"DocId":1.1061215596273316e+19,"t0":null,"t00":null,"Shape_Length":3.9269494191856902}},{"type":"Feature","id":61,"geometry":{"type":"LineString","coordinates":[[80.340168877748567,7.0567091738007504],[80.340101229892994,7.0567561791606144]]},"properties":{"OBJECTID":61,"Entity":"Line","Handle":"428CF","Layer":"bottom outlet","LyrFrzn":0,"LyrOn":1,"Color":6,"Linetype":"Continuous","Elevation":0,"LineWt":25,"RefName":"","DocUpdate":1783359710000,"DocId":1.1061215596273316e+19,"t0":null,"t00":null,"Shape_Length":9.1008915956614072}},{"type":"Feature","id":62,"geometry":{"type":"LineString","coordinates":[[80.340101229892994,7.0567561791606144],[80.340183013072306,7.0567662473690591]]},"properties":{"OBJECTID":62,"Entity":"Line","Handle":"428D0","Layer":"bottom outlet","LyrFrzn":0,"LyrOn":1,"Color":6,"Linetype":"Continuous","Elevation":0,"LineWt":25,"RefName":"","DocUpdate":1783359710000,"DocId":1.1061215596273316e+19,"t0":null,"t00":null,"Shape_Length":9.1008583603262494}},{"type":"Feature","id":63,"geometry":{"type":"LineString","coordinates":[[80.340168877748567,7.0567091738007504],[80.340097194865734,7.0567398637738403]]},"properties":{"OBJECTID":63,"Entity":"Line","Handle":"428D1","Layer":"bottom outlet","LyrFrzn":0,"LyrOn":1,"Color":6,"Linetype":"Continuous","Elevation":0,"LineWt":25,"RefName":"","DocUpdate":1783359710000,"DocId":1.1061215596273316e+19,"t0":null,"t00":null,"Shape_Length":8.6134084808519855}},{"type":"Feature","id":64,"geometry":{"type":"LineString","coordinates":[[80.340168877748567,7.0567091738007504],[80.340095674289458,7.056733725254281]]},"properties":{"OBJECTID":64,"Entity":"Line","Handle":"428D2","Layer":"bottom outlet","LyrFrzn":0,"LyrOn":1,"Color":6,"Linetype":"Continuous","Elevation":0,"LineWt":25,"RefName":"","DocUpdate":1783359710000,"DocId":1.1061215596273316e+19,"t0":null,"t00":null,"Shape_Length":8.5284006532730814}},{"type":"Feature","id":65,"geometry":{"type":"LineString","coordinates":[[80.340168877748567,7.0567091738007504],[80.340094788414149,7.0567301474679143]]},"properties":{"OBJECTID":65,"Entity":"Line","Handle":"428D3","Layer":"bottom outlet","LyrFrzn":0,"LyrOn":1,"Color":6,"Linetype":"Continuous","Elevation":0,"LineWt":25,"RefName":"","DocUpdate":1783359710000,"DocId":1.1061215596273316e+19,"t0":null,"t00":null,"Shape_Length":8.5049702134549552}},{"type":"Feature","id":66,"geometry":{"type":"LineString","coordinates":[[80.340168877748567,7.0567091738007504],[80.340094306762182,7.0567282038444024]]},"properties":{"OBJECTID":66,"Entity":"Line","Handle":"428D4","Layer":"bottom outlet","LyrFrzn":0,"LyrOn":1,"Color":6,"Linetype":"Continuous","Elevation":0,"LineWt":25,"RefName":"","DocUpdate":1783359710000,"DocId":1.1061215596273316e+19,"t0":null,"t00":null,"Shape_Length":8.5004487674166196}},{"type":"Feature","id":67,"geometry":{"type":"LineString","coordinates":[[80.340183013072306,7.0567662473690591],[80.340105275789469,7.0567724918491317]]},"properties":{"OBJECTID":67,"Entity":"Line","Handle":"428D5","Layer":"bottom outlet","LyrFrzn":0,"LyrOn":1,"Color":6,"Linetype":"Continuous","Elevation":0,"LineWt":25,"RefName":"","DocUpdate":1783359710000,"DocId":1.1061215596273316e+19,"t0":null,"t00":null,"Shape_Length":8.6133954009413412}},{"type":"Feature","id":68,"geometry":{"type":"LineString","coordinates":[[80.340183013072306,7.0567662473690591],[80.340106796364665,7.0567786312732039]]},"properties":{"OBJECTID":68,"Entity":"Line","Handle":"428D6","Layer":"bottom outlet","LyrFrzn":0,"LyrOn":1,"Color":6,"Linetype":"Continuous","Elevation":0,"LineWt":25,"RefName":"","DocUpdate":1783359710000,"DocId":1.1061215596273316e+19,"t0":null,"t00":null,"Shape_Length":8.5283556818501136}},{"type":"Feature","id":69,"geometry":{"type":"LineString","coordinates":[[80.340183013072306,7.0567662473690591],[80.340107682241381,7.0567822081550089]]},"properties":{"OBJECTID":69,"Entity":"Line","Handle":"428D7","Layer":"bottom outlet","LyrFrzn":0,"LyrOn":1,"Color":6,"Linetype":"Continuous","Elevation":0,"LineWt":25,"RefName":"","DocUpdate":1783359710000,"DocId":1.1061215596273316e+19,"t0":null,"t00":null,"Shape_Length":8.5049623427186329}},{"type":"Feature","id":70,"geometry":{"type":"LineString","coordinates":[[80.340183013072306,7.0567662473690591],[80.340108163893461,7.0567841517785128]]},"properties":{"OBJECTID":70,"Entity":"Line","Handle":"428D8","Layer":"bottom outlet","LyrFrzn":0,"LyrOn":1,"Color":6,"Linetype":"Continuous","Elevation":0,"LineWt":25,"RefName":"","DocUpdate":1783359710000,"DocId":1.1061215596273316e+19,"t0":null,"t00":null,"Shape_Length":8.5003836628368425}},{"type":"Feature","id":71,"geometry":{"type":"LineString","coordinates":[[80.340109602509074,7.0567899844491251],[80.340092857277895,7.0567223738720184]]},"properties":{"OBJECTID":71,"Entity":"Line","Handle":"428D9","Layer":"bottom outlet","LyrFrzn":0,"LyrOn":1,"Color":1,"Linetype":"Continuous","Elevation":0,"LineWt":25,"RefName":"","DocUpdate":1783359710000,"DocId":1.1061215596273316e+19,"t0":null,"t00":null,"Shape_Length":7.7000249340419078}},{"type":"Feature","id":72,"geometry":{"type":"LineString","coordinates":[[80.340220570925283,7.0566731007126284],[80.340218396745897,7.0566643209298503]]},"properties":{"OBJECTID":72,"Entity":"Line","Handle":"428DA","Layer":"bottom outlet","LyrFrzn":0,"LyrOn":1,"Color":2,"Linetype":"Continuous","Elevation":0,"LineWt":25,"RefName":"","DocUpdate":1783359710000,"DocId":1.1061215596273316e+19,"t0":null,"t00":null,"Shape_Length":0.99990216548371336}},{"type":"Feature","id":73,"geometry":{"type":"LineString","coordinates":[[80.340218396745897,7.0566643209298503],[80.340209607380302,7.0566664929611269]]},"properties":{"OBJECTID":73,"Entity":"Line","Handle":"428DB","Layer":"bottom outlet","LyrFrzn":0,"LyrOn":1,"Color":2,"Linetype":"Continuous","Elevation":0,"LineWt":25,"RefName":"","DocUpdate":1783359710000,"DocId":1.1061215596273316e+19,"t0":null,"t00":null,"Shape_Length":0.99999920487945027}},{"type":"Feature","id":74,"geometry":{"type":"LineString","coordinates":[[80.340209607380302,7.0566664929611269],[80.340196377908313,7.0566883993037575]]},"properties":{"OBJECTID":74,"Entity":"Line","Handle":"428DC","Layer":"bottom outlet","LyrFrzn":0,"LyrOn":1,"Color":2,"Linetype":"Continuous","Elevation":0,"LineWt":25,"RefName":"","DocUpdate":1783359710000,"DocId":1.1061215596273316e+19,"t0":null,"t00":null,"Shape_Length":2.8284590334778019}},{"type":"Feature","id":75,"geometry":{"type":"LineString","coordinates":[[80.3402170375807,7.0567718149360958],[80.340111565155141,7.0567978856290718]]},"properties":{"OBJECTID":75,"Entity":"Line","Handle":"428DD","Layer":"bottom outlet","LyrFrzn":0,"LyrOn":1,"Color":2,"Linetype":"Continuous","Elevation":0,"LineWt":25,"RefName":"","DocUpdate":1783359710000,"DocId":1.1061215596273316e+19,"t0":null,"t00":null,"Shape_Length":12.000159529425648}},{"type":"Feature","id":76,"geometry":{"type":"LineString","coordinates":[[80.340238965581321,7.0567850304402038],[80.3402170375807,7.0567718149360958]]},"properties":{"OBJECTID":76,"Entity":"Line","Handle":"428DE","Layer":"bottom outlet","LyrFrzn":0,"LyrOn":1,"Color":2,"Linetype":"Continuous","Elevation":0,"LineWt":25,"RefName":"","DocUpdate":1783359710000,"DocId":1.1061215596273316e+19,"t0":null,"t00":null,"Shape_Length":2.8284074966891724}},{"type":"Feature","id":77,"geometry":{"type":"LineString","coordinates":[[80.340247754949132,7.0567828584085817],[80.340238965581321,7.0567850304402038]]},"properties":{"OBJECTID":77,"Entity":"Line","Handle":"428DF","Layer":"bottom outlet","LyrFrzn":0,"LyrOn":1,"Color":2,"Linetype":"Continuous","Elevation":0,"LineWt":25,"RefName":"","DocUpdate":1783359710000,"DocId":1.1061215596273316e+19,"t0":null,"t00":null,"Shape_Length":0.99999920487945027}},{"type":"Feature","id":78,"geometry":{"type":"LineString","coordinates":[[80.340086556243278,7.056696909521655],[80.340635262076887,7.0565612790607588]]},"properties":{"OBJECTID":78,"Entity":"Line","Handle":"428E0","Layer":"bottom outlet","LyrFrzn":0,"LyrOn":1,"Color":2,"Linetype":"Continuous","Elevation":0,"LineWt":25,"RefName":"","DocUpdate":1783359710000,"DocId":1.1061215596273316e+19,"t0":null,"t00":null,"Shape_Length":62.429235237194419}},{"type":"Feature","id":79,"geometry":{"type":"LineString","coordinates":[[80.340115914413474,7.0568154470056061],[80.340430879761925,7.0567375928037892]]},"properties":{"OBJECTID":79,"Entity":"Line","Handle":"428E1","Layer":"bottom outlet","LyrFrzn":0,"LyrOn":1,"Color":2,"Linetype":"Continuous","Elevation":0,"LineWt":25,"RefName":"","DocUpdate":1783359710000,"DocId":1.1061215596273316e+19,"t0":null,"t00":null,"Shape_Length":35.835311642531416}},{"type":"Feature","id":80,"geometry":{"type":"LineString","coordinates":[[80.340209472019978,7.0567224355892639],[80.340213021142816,7.0567218523303925],[80.340216617844391,7.0567218381273547],[80.340220171462946,7.0567223933381689],[80.340223592422731,7.0567235039676852],[80.340226794491954,7.0567251420203698]]},"properties":{"OBJECTID":80,"Entity":"Arc","Handle":"428E2","Layer":"bottom outlet","LyrFrzn":0,"LyrOn":1,"Color":2,"Linetype":"Continuous","Elevation":0,"LineWt":25,"RefName":"","DocUpdate":1783359710000,"DocId":1.1061215596273316e+19,"t0":null,"t00":null,"Shape_Length":1.9884380054255895}},{"type":"Feature","id":81,"geometry":{"type":"LineString","coordinates":[[80.340226794491954,7.0567251420203698],[80.340224725985436,7.0567280832799915],[80.340222217786021,7.0567306598403086],[80.340219333198561,7.056732806671107],[80.340216145027583,7.0567344695881875],[80.340212733739861,7.0567356066209213]]},"properties":{"OBJECTID":81,"Entity":"Arc","Handle":"428E3","Layer":"bottom outlet","LyrFrzn":0,"LyrOn":1,"Color":2,"Linetype":"Continuous","Elevation":0,"LineWt":25,"RefName":"","DocUpdate":1783359710000,"DocId":1.1061215596273316e+19,"t0":null,"t00":null,"Shape_Length":1.9885088732935765}},{"type":"Feature","id":82,"geometry":{"type":"LineString","coordinates":[[80.339504767005607,7.058517510143556],[80.339524446143514,7.0585063353213977]]},"properties":{"OBJECTID":82,"Entity":"Line","Handle":"428E4","Layer":"bottom outlet","LyrFrzn":0,"LyrOn":1,"Color":3,"Linetype":"Continuous","Elevation":0,"LineWt":25,"RefName":"","DocUpdate":1783359710000,"DocId":1.1061215596273316e+19,"t0":null,"t00":null,"Shape_Length":2.5000326280911147}},{"type":"Feature","id":83,"geometry":{"type":"LineString","coordinates":[[80.339457332496067,7.0583883784580017],[80.339524446143514,7.0585063353213977]]},"properties":{"OBJECTID":83,"Entity":"Line","Handle":"428E5","Layer":"bottom outlet","LyrFrzn":0,"LyrOn":1,"Color":3,"Linetype":"Continuous","Elevation":0,"LineWt":25,"RefName":"","DocUpdate":1783359710000,"DocId":1.1061215596273316e+19,"t0":null,"t00":null,"Shape_Length":15.000009821035265}},{"type":"Feature","id":84,"geometry":{"type":"LineString","coordinates":[[80.339520509772754,7.0585085702851336],[80.339453397031519,7.058390613422528]]},"properties":{"OBJECTID":84,"Entity":"Line","Handle":"428E6","Layer":"bottom outlet","LyrFrzn":0,"LyrOn":1,"Color":3,"Linetype":"Continuous","Elevation":0,"LineWt":25,"RefName":"","DocUpdate":1783359710000,"DocId":1.1061215596273316e+19,"t0":null,"t00":null,"Shape_Length":14.999960282736716}},{"type":"Feature","id":85,"geometry":{"type":"LineString","coordinates":[[80.339511063932463,7.0585139334763696],[80.339443951193104,7.0583959766125819]]},"properties":{"OBJECTID":85,"Entity":"Line","Handle":"428E7","Layer":"bottom outlet","LyrFrzn":0,"LyrOn":1,"Color":2,"Linetype":"Continuous","Elevation":0,"LineWt":25,"RefName":"","DocUpdate":1783359710000,"DocId":1.1061215596273316e+19,"t0":null,"t00":null,"Shape_Length":14.999960282275355}},{"type":"Feature","id":86,"geometry":{"type":"LineString","coordinates":[[80.339648788501208,7.058770641073588],[80.339437653363348,7.0583995523731513]]},"properties":{"OBJECTID":86,"Entity":"Line","Handle":"428E8","Layer":"bottom outlet","LyrFrzn":0,"LyrOn":1,"Color":2,"Linetype":"Continuous","Elevation":0,"LineWt":25,"RefName":"","DocUpdate":1783359710000,"DocId":1.1061215596273316e+19,"t0":null,"t00":null,"Shape_Length":47.189442013241582}},{"type":"Feature","id":87,"geometry":{"type":"LineString","coordinates":[[80.339524446143514,7.0585063353213977],[80.339575610810115,7.0584772816824932]]},"properties":{"OBJECTID":87,"Entity":"Line","Handle":"428E9","Layer":"bottom outlet","LyrFrzn":0,"LyrOn":1,"Color":6,"Linetype":"Continuous","Elevation":0,"LineWt":25,"RefName":"","DocUpdate":1783359710000,"DocId":1.1061215596273316e+19,"t0":null,"t00":null,"Shape_Length":6.4999310522410818}},{"type":"Feature","id":88,"geometry":{"type":"LineString","coordinates":[[80.339508498057953,7.0583593248267613],[80.339575610810115,7.0584772816824932]]},"properties":{"OBJECTID":88,"Entity":"Line","Handle":"428EA","Layer":"bottom outlet","LyrFrzn":0,"LyrOn":1,"Color":3,"Linetype":"Continuous","Elevation":0,"LineWt":25,"RefName":"","DocUpdate":1783359710000,"DocId":1.1061215596273316e+19,"t0":null,"t00":null,"Shape_Length":14.999960284354751}},{"type":"Feature","id":89,"geometry":{"type":"LineString","coordinates":[[80.339579547180378,7.0584750467182396],[80.339512434427448,7.0583570898629997]]},"properties":{"OBJECTID":89,"Entity":"Line","Handle":"428EB","Layer":"bottom outlet","LyrFrzn":0,"LyrOn":1,"Color":3,"Linetype":"Continuous","Elevation":0,"LineWt":25,"RefName":"","DocUpdate":1783359710000,"DocId":1.1061215596273316e+19,"t0":null,"t00":null,"Shape_Length":14.99996028389339}},{"type":"Feature","id":90,"geometry":{"type":"LineString","coordinates":[[80.339588993019177,7.0584696835254634],[80.33952188026565,7.0583517257668715]]},"properties":{"OBJECTID":90,"Entity":"Line","Handle":"428EC","Layer":"bottom outlet","LyrFrzn":0,"LyrOn":1,"Color":2,"Linetype":"Continuous","Elevation":0,"LineWt":25,"RefName":"","DocUpdate":1783359710000,"DocId":1.1061215596273316e+19,"t0":null,"t00":null,"Shape_Length":15.000047151852327}},{"type":"Feature","id":91,"geometry":{"type":"LineString","coordinates":[[80.33969283548177,7.0586375512438311],[80.339528177188754,7.0583481500037566]]},"properties":{"OBJECTID":91,"Entity":"Line","Handle":"428ED","Layer":"bottom outlet","LyrFrzn":0,"LyrOn":1,"Color":2,"Linetype":"Continuous","Elevation":0,"LineWt":25,"RefName":"","DocUpdate":1783359710000,"DocId":1.1061215596273316e+19,"t0":null,"t00":null,"Shape_Length":36.801677875802817}},{"type":"Feature","id":92,"geometry":{"type":"LineString","coordinates":[[80.339595289943531,7.0584661077615447],[80.339575610810115,7.0584772816824932]]},"properties":{"OBJECTID":92,"Entity":"Line","Handle":"428EE","Layer":"bottom outlet","LyrFrzn":0,"LyrOn":1,"Color":3,"Linetype":"Continuous","Elevation":0,"LineWt":25,"RefName":"","DocUpdate":1783359710000,"DocId":1.1061215596273316e+19,"t0":null,"t00":null,"Shape_Length":2.4999830903309577}},{"type":"Feature","id":93,"geometry":{"type":"LineString","coordinates":[[80.340168877748567,7.0567091738007504],[80.34009416268934,7.0567276419240939]]},"properties":{"OBJECTID":93,"Entity":"Line","Handle":"428EF","Layer":"bottom outlet","LyrFrzn":0,"LyrOn":1,"Color":2,"Linetype":"Continuous","Elevation":0,"LineWt":25,"RefName":"","DocUpdate":1783359710000,"DocId":1.1061215596273316e+19,"t0":null,"t00":null,"Shape_Length":8.5007324719452555}},{"type":"Feature","id":94,"geometry":{"type":"LineString","coordinates":[[80.340183013072306,7.0567662473690591],[80.340108298002775,7.0567847163983535]]},"properties":{"OBJECTID":94,"Entity":"Line","Handle":"428F0","Layer":"bottom outlet","LyrFrzn":0,"LyrOn":1,"Color":2,"Linetype":"Continuous","Elevation":0,"LineWt":25,"RefName":"","DocUpdate":1783359710000,"DocId":1.1061215596273316e+19,"t0":null,"t00":null,"Shape_Length":8.5007566280235878}},{"type":"Feature","id":95,"geometry":{"type":"LineString","coordinates":[[80.340101229892994,7.0567561791606144],[80.340020830356451,7.0567760521202665],[80.339965353431396,7.056792691240994],[80.339911781134902,7.0568147039327584],[80.339860632539228,7.0568418769103616],[80.339812403232955,7.0568739468895973],[80.339767560519107,7.0569106031382711],[80.339726538887376,7.0569514904869406],[80.339689735804228,7.0569962127702226],[80.339657507861801,7.0570443366653146],[80.339630167322852,7.0570953958905465],[80.339363704169841,7.0576581890023427],[80.339339965831755,7.0577161163755351],[80.339322526831964,7.0577762410006653],[80.339311585227364,7.0578378800349624],[80.339307265283082,7.0579003334363248],[80.339309616061271,7.0579628919137871],[80.339318610863842,7.0580248449830174],[80.339334147535723,7.0580854890353821],[80.339356049625025,7.058144135328912],[80.339384068387005,7.0582001178104337],[80.33948291527777,7.058373851643152]]},"properties":{"OBJECTID":95,"Entity":"LWPolyline","Handle":"429E2","Layer":"bottom outlet","LyrFrzn":0,"LyrOn":1,"Color":1,"Linetype":"CENTER","Elevation":0,"LineWt":25,"RefName":"","DocUpdate":1783359710000,"DocId":1.1061215596273316e+19,"t0":null,"t00":null,"Shape_Length":219.99996546286849}},{"type":"Feature","id":96,"geometry":{"type":"LineString","coordinates":[[80.340108298002775,7.0567847163983535],[80.340027898461386,7.0568045893587712],[80.339968724384136,7.0568227350172537],[80.339911919166624,7.0568473115019916],[80.339858179255174,7.0568780174990664],[80.339808163514689,7.0569144765451854],[80.339762485150828,7.0569562416432188],[80.339721704191859,7.0570028007424961],[80.33968632062269,7.0570535830166827],[80.339656768254798,7.0571079658622473],[80.339390305123914,7.0576707589912484],[80.339367753723053,7.0577257899593402],[80.339351186689584,7.057782908314814],[80.339340792177339,7.0578414653574777],[80.339336688238092,7.0579007960477878],[80.339338921480788,7.0579602265597927],[80.339347466542179,7.0580190819338515],[80.339362226375002,7.0580766937422377],[80.339383033349975,7.0581324076805512],[80.339409651159741,7.0581855909987361],[80.339508498962104,7.0583593257325745]]},"properties":{"OBJECTID":96,"Entity":"LWPolyline","Handle":"429E3","Layer":"bottom outlet","LyrFrzn":0,"LyrOn":1,"Color":3,"Linetype":"DASHED","Elevation":0,"LineWt":25,"RefName":"","DocUpdate":1783359710000,"DocId":1.1061215596273316e+19,"t0":null,"t00":null,"Shape_Length":214.00350162784773}},{"type":"Feature","id":97,"geometry":{"type":"LineString","coordinates":[[80.340109602509074,7.0567899844491251],[80.34002920296679,7.0568098574096814],[80.339970603863236,7.0568278266966535],[80.339914350595805,7.0568521643242104],[80.339861132843808,7.0568825719068764],[80.339811603070359,7.0569186766399881],[80.339766368523016,7.0569600358703752],[80.339725983788796,7.0570061425233979],[80.339690943994754,7.0570564313198139],[80.339661678737656,7.057110285706246],[80.339395215609557,7.0576730797429388],[80.339372883371297,7.0577275760240399],[80.339356477355381,7.0577841394058405],[80.339346183886917,7.0578421274910514],[80.339342119870111,7.0579008817018511],[80.339344331460509,7.0579597347594376],[80.339352793540797,7.0580180182623904],[80.339367410006091,7.0580750702777948],[80.339388014855388,7.0581302428588888],[80.339414374076895,7.0581829094038779],[80.339513221880637,7.0583566441368477]]},"properties":{"OBJECTID":97,"Entity":"LWPolyline","Handle":"429E4","Layer":"bottom outlet","LyrFrzn":0,"LyrOn":1,"Color":3,"Linetype":"DASHED","Elevation":0,"LineWt":25,"RefName":"","DocUpdate":1783359710000,"DocId":1.1061215596273316e+19,"t0":null,"t00":null,"Shape_Length":212.89652333277942}},{"type":"Feature","id":98,"geometry":{"type":"LineString","coordinates":[[80.34009416268934,7.0567276419240939],[80.340013763156364,7.0567475157875137],[80.339955512360916,7.056764986752297],[80.339899261414402,7.0567880999692409],[80.339845555343004,7.0568166314899718],[80.339794914515096,7.0568503048671323],[80.339747829599332,7.0568887938329397],[80.339704756810477,7.0569317254604478],[80.339666113488988,7.056978683776916],[80.339632274057408,7.0570292137942428],[80.339603566392455,7.0570828259174379],[80.339337103217318,7.05764561901203],[80.339312177941679,7.0577064427901615],[80.339293866975254,7.0577695736848174],[80.339282378277943,7.0578342947106556],[80.339277842328286,7.0578998708230154],[80.339280310641612,7.0579655572659155],[80.339289755185021,7.0580306080303359],[80.339306068695635,7.0580942843267342],[80.339329065898909,7.058155862975573],[80.339358485612792,7.0582146446205547],[80.339457333400205,7.0583883793638149]]},"properties":{"OBJECTID":98,"Entity":"LWPolyline","Handle":"429E5","Layer":"bottom outlet","LyrFrzn":0,"LyrOn":1,"Color":3,"Linetype":"DASHED","Elevation":0,"LineWt":25,"RefName":"","DocUpdate":1783359710000,"DocId":1.1061215596273316e+19,"t0":null,"t00":null,"Shape_Length":225.99674059773568}},{"type":"Feature","id":99,"geometry":{"type":"LineString","coordinates":[[80.340092857277895,7.0567223738720184],[80.340012457747108,7.0567422468307655],[80.339953694949742,7.0567598714782198],[80.339896949590965,7.0567831879704226],[80.339842771487369,7.0568119703894308],[80.339791685580977,7.0568459398568901],[80.339744186852869,7.0568847672361468],[80.339700735527288,7.0569280763213094],[80.339661752612429,7.0569754474823831],[80.3396276158212,7.0570264217311438],[80.339598655911487,7.057080505168364],[80.339332191825577,7.05764329916303],[80.339307047525637,7.0577046575764575],[80.339288575673692,7.0577683433786671],[80.339276986056831,7.0578336332821632],[80.339272410299756,7.0578997857814709],[80.339274900369915,7.057966049574512],[80.339284427987266,7.0580316720952281],[80.339300884945473,7.0580959080605723],[80.339324084340859,7.0581580279347778],[80.339353762695026,7.0582173262147831],[80.339452610481089,7.0583910609589129]]},"properties":{"OBJECTID":99,"Entity":"LWPolyline","Handle":"429E6","Layer":"bottom outlet","LyrFrzn":0,"LyrOn":1,"Color":3,"Linetype":"DASHED","Elevation":0,"LineWt":25,"RefName":"","DocUpdate":1783359710000,"DocId":1.1061215596273316e+19,"t0":null,"t00":null,"Shape_Length":227.10373858005534}},{"type":"Feature","id":100,"geometry":{"type":"LineString","coordinates":[[80.34017760028803,7.0580327117656063],[80.340184669651052,7.0580175490785617]]},"properties":{"OBJECTID":100,"Entity":"Line","Handle":"6135E","Layer":"bottom outlet","LyrFrzn":0,"LyrOn":1,"Color":4,"Linetype":"Continuous","Elevation":0,"LineWt":25,"RefName":"","DocUpdate":1783359710000,"DocId":1.1061215596273316e+19,"t0":null,"t00":null,"Shape_Length":1.8492099182103161}},{"type":"Feature","id":101,"geometry":{"type":"LineString","coordinates":[[80.340173908544571,7.0580303637992809],[80.340184669651052,7.0580175490785617]]},"properties":{"OBJECTID":101,"Entity":"Line","Handle":"6135F","Layer":"bottom outlet","LyrFrzn":0,"LyrOn":1,"Color":4,"Linetype":"Continuous","Elevation":0,"LineWt":25,"RefName":"","DocUpdate":1783359710000,"DocId":1.1061215596273316e+19,"t0":null,"t00":null,"Shape_Length":1.8492270849806596}},{"type":"Feature","id":102,"geometry":{"type":"LineString","coordinates":[[80.340164870512936,7.0580246153615889],[80.340186637414561,7.0580384602017814]]},"properties":{"OBJECTID":102,"Entity":"Line","Handle":"61360","Layer":"bottom outlet","LyrFrzn":0,"LyrOn":1,"Color":2,"Linetype":"Continuous","Elevation":0,"LineWt":25,"RefName":"","DocUpdate":1783359710000,"DocId":1.1061215596273316e+19,"t0":null,"t00":null,"Shape_Length":2.8499365399092995}},{"type":"Feature","id":103,"geometry":{"type":"LineString","coordinates":[[80.340230928663658,7.0579833325702843],[80.340190071627191,7.0579573444907293]]},"properties":{"OBJECTID":103,"Entity":"Line","Handle":"61361","Layer":"bottom outlet","LyrFrzn":0,"LyrOn":1,"Color":4,"Linetype":"CENTER","Elevation":0,"LineWt":25,"RefName":"","DocUpdate":1783359710000,"DocId":1.1061215596273316e+19,"t0":null,"t00":null,"Shape_Length":5.3494617622033074}},{"type":"Feature","id":104,"geometry":{"type":"LineString","coordinates":[[80.340191036496435,7.0579888933445272],[80.340179446557286,7.0580070780264261]]},"properties":{"OBJECTID":104,"Entity":"Line","Handle":"61362","Layer":"bottom outlet","LyrFrzn":0,"LyrOn":1,"Color":6,"Linetype":"Continuous","Elevation":0,"LineWt":25,"RefName":"","DocUpdate":1783359710000,"DocId":1.1061215596273316e+19,"t0":null,"t00":null,"Shape_Length":2.3833146409139245}},{"type":"Feature","id":105,"geometry":{"type":"LineString","coordinates":[[80.340158172133897,7.0580591247809998],[80.340316968413177,7.0578099669570893]]},"properties":{"OBJECTID":105,"Entity":"Line","Handle":"61363","Layer":"bottom outlet","LyrFrzn":0,"LyrOn":1,"Color":1,"Linetype":"CENTER","Elevation":0,"LineWt":25,"RefName":"","DocUpdate":1783359710000,"DocId":1.1061215596273316e+19,"t0":null,"t00":null,"Shape_Length":32.65483009694082}},{"type":"Feature","id":106,"geometry":{"type":"LineString","coordinates":[[80.340279838814737,7.0578429616890785],[80.340208115150432,7.0579656048902422]]},"properties":{"OBJECTID":106,"Entity":"Line","Handle":"61364","Layer":"bottom outlet","LyrFrzn":0,"LyrOn":1,"Color":6,"Linetype":"Continuous","Elevation":0,"LineWt":25,"RefName":"","DocUpdate":1783359710000,"DocId":1.1061215596273316e+19,"t0":null,"t00":null,"Shape_Length":15.703137624855781}},{"type":"Feature","id":107,"geometry":{"type":"LineString","coordinates":[[80.340208115150432,7.0579656048902422],[80.340206523929453,7.0579645922745549]]},"properties":{"OBJECTID":107,"Entity":"Line","Handle":"61365","Layer":"bottom outlet","LyrFrzn":0,"LyrOn":1,"Color":6,"Linetype":"Continuous","Elevation":0,"LineWt":25,"RefName":"","DocUpdate":1783359710000,"DocId":1.1061215596273316e+19,"t0":null,"t00":null,"Shape_Length":0.20836914284440397}},{"type":"Feature","id":108,"geometry":{"type":"LineString","coordinates":[[80.340206523929453,7.0579645922745549],[80.340203606480131,7.0579691705279872]]},"properties":{"OBJECTID":108,"Entity":"Line","Handle":"61366","Layer":"bottom outlet","LyrFrzn":0,"LyrOn":1,"Color":6,"Linetype":"Continuous","Elevation":0,"LineWt":25,"RefName":"","DocUpdate":1783359710000,"DocId":1.1061215596273316e+19,"t0":null,"t00":null,"Shape_Length":0.60000484140934018}},{"type":"Feature","id":109,"geometry":{"type":"LineString","coordinates":[[80.340203606480131,7.0579691705279872],[80.340205197702389,7.0579701822391527]]},"properties":{"OBJECTID":109,"Entity":"Line","Handle":"61367","Layer":"bottom outlet","LyrFrzn":0,"LyrOn":1,"Color":6,"Linetype":"Continuous","Elevation":0,"LineWt":25,"RefName":"","DocUpdate":1783359710000,"DocId":1.1061215596273316e+19,"t0":null,"t00":null,"Shape_Length":0.20831555325503565}},{"type":"Feature","id":110,"geometry":{"type":"LineString","coordinates":[[80.340179446557286,7.0580070780264261],[80.340164870512936,7.0580246153615889]]},"properties":{"OBJECTID":110,"Entity":"Line","Handle":"61368","Layer":"bottom outlet","LyrFrzn":0,"LyrOn":1,"Color":6,"Linetype":"Continuous","Elevation":0,"LineWt":25,"RefName":"","DocUpdate":1783359710000,"DocId":1.1061215596273316e+19,"t0":null,"t00":null,"Shape_Length":2.5200475431818115}},{"type":"Feature","id":111,"geometry":{"type":"LineString","coordinates":[[80.340164870512936,7.0580246153615889],[80.340147112876153,7.0580133206473912]]},"properties":{"OBJECTID":111,"Entity":"Line","Handle":"61369","Layer":"bottom outlet","LyrFrzn":0,"LyrOn":1,"Color":6,"Linetype":"Continuous","Elevation":0,"LineWt":25,"RefName":"","DocUpdate":1783359710000,"DocId":1.1061215596273316e+19,"t0":null,"t00":null,"Shape_Length":2.3250023240671127}},{"type":"Feature","id":112,"geometry":{"type":"LineString","coordinates":[[80.340147112876153,7.0580133206473912],[80.340187791096341,7.0579494953246291]]},"properties":{"OBJECTID":112,"Entity":"Line","Handle":"6136A","Layer":"bottom outlet","LyrFrzn":0,"LyrOn":1,"Color":6,"Linetype":"Continuous","Elevation":0,"LineWt":25,"RefName":"","DocUpdate":1783359710000,"DocId":1.1061215596273316e+19,"t0":null,"t00":null,"Shape_Length":8.3650167684402206}},{"type":"Feature","id":113,"geometry":{"type":"LineString","coordinates":[[80.340192627717457,7.0579899059602873],[80.340191036496435,7.0579888933445272]]},"properties":{"OBJECTID":113,"Entity":"Line","Handle":"6136B","Layer":"bottom outlet","LyrFrzn":0,"LyrOn":1,"Color":6,"Linetype":"Continuous","Elevation":0,"LineWt":25,"RefName":"","DocUpdate":1783359710000,"DocId":1.1061215596273316e+19,"t0":null,"t00":null,"Shape_Length":0.20836914384290817}},{"type":"Feature","id":114,"geometry":{"type":"LineString","coordinates":[[80.340207966407789,7.0579996622563073],[80.340196376468938,7.0580178469386556]]},"properties":{"OBJECTID":114,"Entity":"Line","Handle":"6136C","Layer":"bottom outlet","LyrFrzn":0,"LyrOn":1,"Color":6,"Linetype":"Continuous","Elevation":0,"LineWt":25,"RefName":"","DocUpdate":1783359710000,"DocId":1.1061215596273316e+19,"t0":null,"t00":null,"Shape_Length":2.3833146414130133}},{"type":"Feature","id":115,"geometry":{"type":"LineString","coordinates":[[80.340221862619345,7.0579743485700766],[80.340223453840395,7.0579753611857345]]},"properties":{"OBJECTID":115,"Entity":"Line","Handle":"6136D","Layer":"bottom outlet","LyrFrzn":0,"LyrOn":1,"Color":6,"Linetype":"Continuous","Elevation":0,"LineWt":25,"RefName":"","DocUpdate":1783359710000,"DocId":1.1061215596273316e+19,"t0":null,"t00":null,"Shape_Length":0.20836914384290817}},{"type":"Feature","id":116,"geometry":{"type":"LineString","coordinates":[[80.340223453840395,7.0579753611857345],[80.340220536391129,7.0579799394392806]]},"properties":{"OBJECTID":116,"Entity":"Line","Handle":"6136E","Layer":"bottom outlet","LyrFrzn":0,"LyrOn":1,"Color":6,"Linetype":"Continuous","Elevation":0,"LineWt":25,"RefName":"","DocUpdate":1783359710000,"DocId":1.1061215596273316e+19,"t0":null,"t00":null,"Shape_Length":0.60000484140934018}},{"type":"Feature","id":117,"geometry":{"type":"LineString","coordinates":[[80.340220536391129,7.0579799394392806],[80.340218945170079,7.0579789268236119]]},"properties":{"OBJECTID":117,"Entity":"Line","Handle":"6136F","Layer":"bottom outlet","LyrFrzn":0,"LyrOn":1,"Color":6,"Linetype":"Continuous","Elevation":0,"LineWt":25,"RefName":"","DocUpdate":1783359710000,"DocId":1.1061215596273316e+19,"t0":null,"t00":null,"Shape_Length":0.20836914384290817}},{"type":"Feature","id":118,"geometry":{"type":"LineString","coordinates":[[80.340204395052055,7.0580497558191739],[80.340239238374011,7.0579950842848476]]},"properties":{"OBJECTID":118,"Entity":"Line","Handle":"61370","Layer":"bottom outlet","LyrFrzn":0,"LyrOn":1,"Color":6,"Linetype":"Continuous","Elevation":0,"LineWt":25,"RefName":"","DocUpdate":1783359710000,"DocId":1.1061215596273316e+19,"t0":null,"t00":null,"Shape_Length":7.1652603749142756}},{"type":"Feature","id":119,"geometry":{"type":"LineString","coordinates":[[80.34020637518671,7.0579986496405942],[80.340207966407789,7.0579996622563073]]},"properties":{"OBJECTID":119,"Entity":"Line","Handle":"61371","Layer":"bottom outlet","LyrFrzn":0,"LyrOn":1,"Color":6,"Linetype":"Continuous","Elevation":0,"LineWt":25,"RefName":"","DocUpdate":1783359710000,"DocId":1.1061215596273316e+19,"t0":null,"t00":null,"Shape_Length":0.20836914384290817}},{"type":"Feature","id":120,"geometry":{"type":"LineString","coordinates":[[80.340196376468938,7.0580178469386556],[80.340186637414561,7.0580384602017814]]},"properties":{"OBJECTID":120,"Entity":"Line","Handle":"61372","Layer":"bottom outlet","LyrFrzn":0,"LyrOn":1,"Color":6,"Linetype":"Continuous","Elevation":0,"LineWt":25,"RefName":"","DocUpdate":1783359710000,"DocId":1.1061215596273316e+19,"t0":null,"t00":null,"Shape_Length":2.5199733971260114}},{"type":"Feature","id":121,"geometry":{"type":"LineString","coordinates":[[80.340186637414561,7.0580384602017814],[80.340204395052055,7.0580497558191739]]},"properties":{"OBJECTID":121,"Entity":"Line","Handle":"61373","Layer":"bottom outlet","LyrFrzn":0,"LyrOn":1,"Color":6,"Linetype":"Continuous","Elevation":0,"LineWt":25,"RefName":"","DocUpdate":1783359710000,"DocId":1.1061215596273316e+19,"t0":null,"t00":null,"Shape_Length":2.3250559133385216}},{"type":"Feature","id":122,"geometry":{"type":"LineString","coordinates":[[80.340192627717457,7.0579899059602873],[80.340205197702389,7.0579701822391527]]},"properties":{"OBJECTID":122,"Entity":"Line","Handle":"61374","Layer":"bottom outlet","LyrFrzn":0,"LyrOn":1,"Color":6,"Linetype":"Continuous","Elevation":0,"LineWt":25,"RefName":"","DocUpdate":1783359710000,"DocId":1.1061215596273316e+19,"t0":null,"t00":null,"Shape_Length":2.5849729777258252}},{"type":"Feature","id":123,"geometry":{"type":"LineString","coordinates":[[80.34020637518671,7.0579986496405942],[80.340218945170079,7.0579789268236119]]},"properties":{"OBJECTID":123,"Entity":"Line","Handle":"61375","Layer":"bottom outlet","LyrFrzn":0,"LyrOn":1,"Color":6,"Linetype":"Continuous","Elevation":0,"LineWt":25,"RefName":"","DocUpdate":1783359710000,"DocId":1.1061215596273316e+19,"t0":null,"t00":null,"Shape_Length":2.5848885465690588}},{"type":"Feature","id":124,"geometry":{"type":"LineString","coordinates":[[80.340275641411907,7.0578402774261741],[80.340306959257376,7.0578601970536043]]},"properties":{"OBJECTID":124,"Entity":"Line","Handle":"61376","Layer":"bottom outlet","LyrFrzn":0,"LyrOn":1,"Color":6,"Linetype":"Continuous","Elevation":0,"LineWt":25,"RefName":"","DocUpdate":1783359710000,"DocId":1.1061215596273316e+19,"t0":null,"t00":null,"Shape_Length":4.1004354995627263}},{"type":"Feature","id":125,"geometry":{"type":"LineString","coordinates":[[80.34028244999628,7.0578295954380827],[80.340313766935978,7.0578495150637464]]},"properties":{"OBJECTID":125,"Entity":"Line","Handle":"61377","Layer":"bottom outlet","LyrFrzn":0,"LyrOn":1,"Color":6,"Linetype":"Continuous","Elevation":0,"LineWt":25,"RefName":"","DocUpdate":1783359710000,"DocId":1.1061215596273316e+19,"t0":null,"t00":null,"Shape_Length":4.1003510707863562}},{"type":"Feature","id":126,"geometry":{"type":"LineString","coordinates":[[80.340302751862467,7.0578575353901822],[80.340221862619345,7.0579743485700766]]},"properties":{"OBJECTID":126,"Entity":"Line","Handle":"61378","Layer":"bottom outlet","LyrFrzn":0,"LyrOn":1,"Color":6,"Linetype":"Continuous","Elevation":0,"LineWt":25,"RefName":"","DocUpdate":1783359710000,"DocId":1.1061215596273316e+19,"t0":null,"t00":null,"Shape_Length":15.703130212810793}},{"type":"Feature","id":127,"geometry":{"type":"LineString","coordinates":[[80.340313766935978,7.0578495150637464],[80.340306959257376,7.0578601970536043]]},"properties":{"OBJECTID":127,"Entity":"Line","Handle":"61379","Layer":"bottom outlet","LyrFrzn":0,"LyrOn":1,"Color":6,"Linetype":"Continuous","Elevation":0,"LineWt":25,"RefName":"","DocUpdate":1783359710000,"DocId":1.1061215596273316e+19,"t0":null,"t00":null,"Shape_Length":1.3999728715078923}},{"type":"Feature","id":128,"geometry":{"type":"LineString","coordinates":[[80.3402895043386,7.0577924280881916],[80.340344495106791,7.0578274055095696]]},"properties":{"OBJECTID":128,"Entity":"Line","Handle":"6137A","Layer":"bottom outlet","LyrFrzn":0,"LyrOn":1,"Color":6,"Linetype":"Continuous","Elevation":0,"LineWt":25,"RefName":"","DocUpdate":1783359710000,"DocId":1.1061215596273316e+19,"t0":null,"t00":null,"Shape_Length":7.199965562715553}},{"type":"Feature","id":129,"geometry":{"type":"LineString","coordinates":[[80.340334355085062,7.0578249109417639],[80.340334040982668,7.0578248830131001],[80.340333736501947,7.0578248009654265],[80.34033345089442,7.0578246672917206],[80.340333192838088,7.0578244860535895],[80.340332970173904,7.0578242627578636],[80.340332789667372,7.0578240041892695],[80.340332656803099,7.0578237182042836],[80.34033257561812,7.0578234134924145],[80.34033254857917,7.057823099312178],[80.340332576507834,7.0578227852097823],[80.340332658555511,7.0578224807290688],[80.340332792229219,7.0578221951215312],[80.340332973467341,7.0578219370652091],[80.340333196763069,7.0578217144010136],[80.34033345533166,7.057821533894483],[80.340333741316655,7.0578214010302176],[80.340334046028516,7.0578213198452309],[80.340334360208757,7.0578212928062873],[80.340334674311151,7.0578213207349512],[80.340334978791873,7.0578214027826247],[80.3403352643994,7.0578215364563306],[80.340335522455732,7.0578217176944618],[80.340335745119916,7.0578219409901877],[80.340335925626448,7.0578221995587818],[80.34033605849072,7.0578224855437677],[80.340336139675699,7.0578227902556367],[80.34033616671465,7.0578231044358732],[80.340336138785986,7.0578234185382689],[80.340336056738309,7.0578237230189824],[80.3403359230646,7.05782400862652],[80.340335741826479,7.0578242666828421],[80.34033551853075,7.0578244893470377],[80.34033525996216,7.0578246698535683],[80.340334973977164,7.0578248027178336],[80.340334669265303,7.0578248839028204],[80.340334355085062,7.0578249109417639]]},"properties":{"OBJECTID":129,"Entity":"Circle","Handle":"6137B","Layer":"bottom outlet","LyrFrzn":0,"LyrOn":1,"Color":6,"Linetype":"Continuous","Elevation":0,"LineWt":25,"RefName":"","DocUpdate":1783359710000,"DocId":1.1061215596273316e+19,"t0":null,"t00":null,"Shape_Length":1.2566370611433337}},{"type":"Feature","id":130,"geometry":{"type":"LineString","coordinates":[[80.340342479298855,7.0578282683012707],[80.340335885545272,7.0578240736956719]]},"properties":{"OBJECTID":130,"Entity":"Line","Handle":"6137C","Layer":"bottom outlet","LyrFrzn":0,"LyrOn":1,"Color":1,"Linetype":"Continuous","Elevation":0,"LineWt":25,"RefName":"","DocUpdate":1783359710000,"DocId":1.1061215596273316e+19,"t0":null,"t00":null,"Shape_Length":0.86335768988914063}},{"type":"Feature","id":131,"geometry":{"type":"LineString","coordinates":[[80.340332829747268,7.0578221309569038],[80.340323665072262,7.0578163009352322]]},"properties":{"OBJECTID":131,"Entity":"Line","Handle":"6137D","Layer":"bottom outlet","LyrFrzn":0,"LyrOn":1,"Color":1,"Linetype":"Continuous","Elevation":0,"LineWt":25,"RefName":"","DocUpdate":1783359710000,"DocId":1.1061215596273316e+19,"t0":null,"t00":null,"Shape_Length":1.1999788420550963}},{"type":"Feature","id":132,"geometry":{"type":"LineString","coordinates":[[80.340308389708582,7.0578065845323446],[80.340299225032922,7.0578007554147781]]},"properties":{"OBJECTID":132,"Entity":"Line","Handle":"6137E","Layer":"bottom outlet","LyrFrzn":0,"LyrOn":1,"Color":1,"Linetype":"Continuous","Elevation":0,"LineWt":25,"RefName":"","DocUpdate":1783359710000,"DocId":1.1061215596273316e+19,"t0":null,"t00":null,"Shape_Length":1.1999252525045729}},{"type":"Feature","id":133,"geometry":{"type":"LineString","coordinates":[[80.34029616923651,7.0577988117712644],[80.340289575482529,7.0577946180696136]]},"properties":{"OBJECTID":133,"Entity":"Line","Handle":"6137F","Layer":"bottom outlet","LyrFrzn":0,"LyrOn":1,"Color":1,"Linetype":"Continuous","Elevation":0,"LineWt":25,"RefName":"","DocUpdate":1783359710000,"DocId":1.1061215596273316e+19,"t0":null,"t00":null,"Shape_Length":0.86330410023941839}},{"type":"Feature","id":134,"geometry":{"type":"LineString","coordinates":[[80.340340463492211,7.0578291301884315],[80.340289646627753,7.057796807146504]]},"properties":{"OBJECTID":134,"Entity":"Line","Handle":"61380","Layer":"bottom outlet","LyrFrzn":0,"LyrOn":1,"Color":6,"Linetype":"Continuous","Elevation":0,"LineWt":25,"RefName":"","DocUpdate":1783359710000,"DocId":1.1061215596273316e+19,"t0":null,"t00":null,"Shape_Length":6.6535025728465582}},{"type":"Feature","id":135,"geometry":{"type":"LineString","coordinates":[[80.340309915044884,7.0578093654218002],[80.34030960094249,7.0578093374931186],[80.340309296461783,7.057809255445429],[80.340309010854256,7.057809121771708],[80.340308752797938,7.0578089405335644],[80.340308530133768,7.057808717237827],[80.34030834962725,7.057808458669224],[80.340308216762992,7.0578081726842319],[80.340308135578027,7.0578078679723601],[80.340308108539105,7.0578075537921237],[80.340308136467783,7.0578072396897307],[80.340308218515474,7.0578069352090242],[80.340308352189197,7.0578066496014946],[80.340308533427333,7.0578063915451841],[80.340308756723076,7.0578061688810019],[80.34030901529168,7.0578059883744864],[80.340309301276676,7.057805855510237],[80.340309605988537,7.057805774325268],[80.340309920168778,7.0578057472863414],[80.340310234271172,7.0578057752150229],[80.340310538751879,7.0578058572627125],[80.340310824359406,7.0578059909364335],[80.340311082415724,7.0578061721745771],[80.340311305079894,7.0578063954703145],[80.340311485586412,7.0578066540389175],[80.34031161845067,7.0578069400239096],[80.340311699635635,7.0578072447357814],[80.340311726674557,7.0578075589160179],[80.340311698745879,7.0578078730184108],[80.340311616698187,7.0578081774991173],[80.340311483024465,7.0578084631066469],[80.340311301786329,7.0578087211629574],[80.340311078490586,7.0578089438271396],[80.340310819921982,7.0578091243336551],[80.340310533936986,7.0578092571979045],[80.340310229225125,7.0578093383828735],[80.340309915044884,7.0578093654218002]]},"properties":{"OBJECTID":135,"Entity":"Circle","Handle":"61381","Layer":"bottom outlet","LyrFrzn":0,"LyrOn":1,"Color":6,"Linetype":"Continuous","Elevation":0,"LineWt":25,"RefName":"","DocUpdate":1783359710000,"DocId":1.1061215596273316e+19,"t0":null,"t00":null,"Shape_Length":1.2566370611433337}},{"type":"Feature","id":136,"geometry":{"type":"LineString","coordinates":[[80.340297694572726,7.057801592660752],[80.340297380470332,7.0578015647320633],[80.340297075989625,7.0578014826843667],[80.340296790382098,7.0578013490106386],[80.340296532325794,7.0578011677724897],[80.340296309661625,7.0578009444767469],[80.340296129155107,7.0578006859081404],[80.340295996290877,7.0578003999231456],[80.340295915105912,7.0578000952112721],[80.34029588806699,7.0577997810310356],[80.340295915995682,7.0577994669286443],[80.340295998043374,7.0577991624479397],[80.340296131717096,7.0577988768404136],[80.340296312955246,7.0577986187841075],[80.340296536250989,7.0577983961199307],[80.340296794819594,7.0577982156134222],[80.340297080804589,7.05779808274918],[80.340297385516465,7.0577980015642172],[80.340297699696706,7.0577979745252986],[80.340298013799099,7.0577980024539873],[80.340298318279807,7.0577980845016839],[80.340298603887334,7.057798218175412],[80.340298861943637,7.0577983994135609],[80.340299084607807,7.0577986227093037],[80.340299265114325,7.0577988812779102],[80.340299397978555,7.057799167262905],[80.340299479163519,7.0577994719747785],[80.340299506202442,7.057799786155015],[80.340299478273749,7.0578001002574062],[80.340299396226058,7.0578004047381109],[80.340299262552335,7.057800690345637],[80.340299081314186,7.0578009484019431],[80.340298858018443,7.0578011710661199],[80.340298599449838,7.0578013515726283],[80.340298313464842,7.0578014844368706],[80.340298008752967,7.0578015656218334],[80.340297694572726,7.057801592660752]]},"properties":{"OBJECTID":136,"Entity":"Circle","Handle":"61382","Layer":"bottom outlet","LyrFrzn":0,"LyrOn":1,"Color":6,"Linetype":"Continuous","Elevation":0,"LineWt":25,"RefName":"","DocUpdate":1783359710000,"DocId":1.1061215596273316e+19,"t0":null,"t00":null,"Shape_Length":1.2566370611433337}},{"type":"Feature","id":137,"geometry":{"type":"LineString","coordinates":[[80.340344313909327,7.0578274839480901],[80.340335876545339,7.0578221171722806]]},"properties":{"OBJECTID":137,"Entity":"Line","Handle":"61383","Layer":"bottom outlet","LyrFrzn":0,"LyrOn":1,"Color":1,"Linetype":"Continuous","Elevation":0,"LineWt":25,"RefName":"","DocUpdate":1783359710000,"DocId":1.1061215596273316e+19,"t0":null,"t00":null,"Shape_Length":1.1047141212940239}},{"type":"Feature","id":138,"geometry":{"type":"LineString","coordinates":[[80.340334609177717,7.0578213103443384],[80.340323656072357,7.0578143444118453]]},"properties":{"OBJECTID":138,"Entity":"Line","Handle":"61384","Layer":"bottom outlet","LyrFrzn":0,"LyrOn":1,"Color":1,"Linetype":"Continuous","Elevation":0,"LineWt":25,"RefName":"","DocUpdate":1783359710000,"DocId":1.1061215596273316e+19,"t0":null,"t00":null,"Shape_Length":1.4340415612881037}},{"type":"Feature","id":139,"geometry":{"type":"LineString","coordinates":[[80.340310168232293,7.0578057648231223],[80.34029921603441,7.0577987979868659]]},"properties":{"OBJECTID":139,"Entity":"Line","Handle":"61385","Layer":"bottom outlet","LyrFrzn":0,"LyrOn":1,"Color":1,"Linetype":"Continuous","Elevation":0,"LineWt":25,"RefName":"","DocUpdate":1783359710000,"DocId":1.1061215596273316e+19,"t0":null,"t00":null,"Shape_Length":1.4340107181091892}},{"type":"Feature","id":140,"geometry":{"type":"LineString","coordinates":[[80.340297947760206,7.0577979920620884],[80.340289511302757,7.0577926252868126]]},"properties":{"OBJECTID":140,"Entity":"Line","Handle":"61386","Layer":"bottom outlet","LyrFrzn":0,"LyrOn":1,"Color":1,"Linetype":"Continuous","Elevation":0,"LineWt":25,"RefName":"","DocUpdate":1783359710000,"DocId":1.1061215596273316e+19,"t0":null,"t00":null,"Shape_Length":1.1046296936545388}},{"type":"Feature","id":141,"geometry":{"type":"LineString","coordinates":[[80.340343783005736,7.0578277102362224],[80.340336151655009,7.057822856566756]]},"properties":{"OBJECTID":141,"Entity":"Line","Handle":"61387","Layer":"bottom outlet","LyrFrzn":0,"LyrOn":1,"Color":1,"Linetype":"Continuous","Elevation":0,"LineWt":25,"RefName":"","DocUpdate":1783359710000,"DocId":1.1061215596273316e+19,"t0":null,"t00":null,"Shape_Length":0.99915670357084041}},{"type":"Feature","id":142,"geometry":{"type":"LineString","coordinates":[[80.34033382136127,7.0578213743574629],[80.340323931182013,7.0578150838063252]]},"properties":{"OBJECTID":142,"Entity":"Line","Handle":"61388","Layer":"bottom outlet","LyrFrzn":0,"LyrOn":1,"Color":1,"Linetype":"Continuous","Elevation":0,"LineWt":25,"RefName":"","DocUpdate":1783359710000,"DocId":1.1061215596273316e+19,"t0":null,"t00":null,"Shape_Length":1.2949139351742227}},{"type":"Feature","id":143,"geometry":{"type":"LineString","coordinates":[[80.340309381321291,7.0578058288375045],[80.34029949114273,7.0577995382858907]]},"properties":{"OBJECTID":143,"Entity":"Line","Handle":"61389","Layer":"bottom outlet","LyrFrzn":0,"LyrOn":1,"Color":1,"Linetype":"Continuous","Elevation":0,"LineWt":25,"RefName":"","DocUpdate":1783359710000,"DocId":1.1061215596273316e+19,"t0":null,"t00":null,"Shape_Length":1.2949139353860319}},{"type":"Feature","id":144,"geometry":{"type":"LineString","coordinates":[[80.340297160849246,7.0577980560764502],[80.340289529500808,7.0577932015017568]]},"properties":{"OBJECTID":144,"Entity":"Line","Handle":"6138A","Layer":"bottom outlet","LyrFrzn":0,"LyrOn":1,"Color":1,"Linetype":"Continuous","Elevation":0,"LineWt":25,"RefName":"","DocUpdate":1783359710000,"DocId":1.1061215596273316e+19,"t0":null,"t00":null,"Shape_Length":0.99921029401959649}},{"type":"Feature","id":145,"geometry":{"type":"LineString","coordinates":[[80.340340644688396,7.0578290526544629],[80.340334106116103,7.0578248934037084]]},"properties":{"OBJECTID":145,"Entity":"Line","Handle":"6138B","Layer":"bottom outlet","LyrFrzn":0,"LyrOn":1,"Color":1,"Linetype":"Continuous","Elevation":0,"LineWt":25,"RefName":"","DocUpdate":1783359710000,"DocId":1.1061215596273316e+19,"t0":null,"t00":null,"Shape_Length":0.85611756228946057}},{"type":"Feature","id":146,"geometry":{"type":"LineString","coordinates":[[80.340332838747202,7.0578240874802933],[80.340321886548523,7.0578171206445033]]},"properties":{"OBJECTID":146,"Entity":"Line","Handle":"6138C","Layer":"bottom outlet","LyrFrzn":0,"LyrOn":1,"Color":1,"Linetype":"Continuous","Elevation":0,"LineWt":25,"RefName":"","DocUpdate":1783359710000,"DocId":1.1061215596273316e+19,"t0":null,"t00":null,"Shape_Length":1.4340107181091892}},{"type":"Feature","id":147,"geometry":{"type":"LineString","coordinates":[[80.340320619179678,7.0578163147210571],[80.340309666075953,7.0578093478837332]]},"properties":{"OBJECTID":147,"Entity":"Line","Handle":"6138D","Layer":"bottom outlet","LyrFrzn":0,"LyrOn":1,"Color":1,"Linetype":"Continuous","Elevation":0,"LineWt":25,"RefName":"","DocUpdate":1783359710000,"DocId":1.1061215596273316e+19,"t0":null,"t00":null,"Shape_Length":1.4340951472952899}},{"type":"Feature","id":148,"geometry":{"type":"LineString","coordinates":[[80.340308398707151,7.0578085419602585],[80.340297445603795,7.0578015751226779]]},"properties":{"OBJECTID":148,"Entity":"Line","Handle":"6138E","Layer":"bottom outlet","LyrFrzn":0,"LyrOn":1,"Color":1,"Linetype":"Continuous","Elevation":0,"LineWt":25,"RefName":"","DocUpdate":1783359710000,"DocId":1.1061215596273316e+19,"t0":null,"t00":null,"Shape_Length":1.4340951472952899}},{"type":"Feature","id":149,"geometry":{"type":"LineString","coordinates":[[80.340296178235022,7.0578007691991731],[80.340289639663567,7.0577966099478822]]},"properties":{"OBJECTID":149,"Entity":"Line","Handle":"6138F","Layer":"bottom outlet","LyrFrzn":0,"LyrOn":1,"Color":1,"Linetype":"Continuous","Elevation":0,"LineWt":25,"RefName":"","DocUpdate":1783359710000,"DocId":1.1061215596273316e+19,"t0":null,"t00":null,"Shape_Length":0.85611756207754841}},{"type":"Feature","id":150,"geometry":{"type":"LineString","coordinates":[[80.340341175593267,7.0578288254618027],[80.340334893931285,7.0578248302951172]]},"properties":{"OBJECTID":150,"Entity":"Line","Handle":"61390","Layer":"bottom outlet","LyrFrzn":0,"LyrOn":1,"Color":1,"Linetype":"Continuous","Elevation":0,"LineWt":25,"RefName":"","DocUpdate":1783359710000,"DocId":1.1061215596273316e+19,"t0":null,"t00":null,"Shape_Length":0.82244017981646445}},{"type":"Feature","id":151,"geometry":{"type":"LineString","coordinates":[[80.340332563637531,7.0578233480858321],[80.34032267345826,7.0578170575346499]]},"properties":{"OBJECTID":151,"Entity":"Line","Handle":"61391","Layer":"bottom outlet","LyrFrzn":0,"LyrOn":1,"Color":1,"Linetype":"Continuous","Elevation":0,"LineWt":25,"RefName":"","DocUpdate":1783359710000,"DocId":1.1061215596273316e+19,"t0":null,"t00":null,"Shape_Length":1.2949139353860319}},{"type":"Feature","id":152,"geometry":{"type":"LineString","coordinates":[[80.340320343164606,7.0578155753253125],[80.340310453891092,7.0578092847751801]]},"properties":{"OBJECTID":152,"Entity":"Line","Handle":"61392","Layer":"bottom outlet","LyrFrzn":0,"LyrOn":1,"Color":1,"Linetype":"Continuous","Elevation":0,"LineWt":25,"RefName":"","DocUpdate":1783359710000,"DocId":1.1061215596273316e+19,"t0":null,"t00":null,"Shape_Length":1.2948295063167139}},{"type":"Feature","id":153,"geometry":{"type":"LineString","coordinates":[[80.340308123598788,7.057807801661256],[80.340298233420199,7.057801511109612]]},"properties":{"OBJECTID":153,"Entity":"Line","Handle":"61393","Layer":"bottom outlet","LyrFrzn":0,"LyrOn":1,"Color":1,"Linetype":"Continuous","Elevation":0,"LineWt":25,"RefName":"","DocUpdate":1783359710000,"DocId":1.1061215596273316e+19,"t0":null,"t00":null,"Shape_Length":1.2949139353860319}},{"type":"Feature","id":154,"geometry":{"type":"LineString","coordinates":[[80.340295903126702,7.0578000289001661],[80.34028962146553,7.0577960337329388]]},"properties":{"OBJECTID":154,"Entity":"Line","Handle":"61394","Layer":"bottom outlet","LyrFrzn":0,"LyrOn":1,"Color":1,"Linetype":"Continuous","Elevation":0,"LineWt":25,"RefName":"","DocUpdate":1783359710000,"DocId":1.1061215596273316e+19,"t0":null,"t00":null,"Shape_Length":0.82244018060279567}},{"type":"Feature","id":155,"geometry":{"type":"LineString","coordinates":[[80.340287214753644,7.0577909712632518],[80.340336544426137,7.0578223487728007]]},"properties":{"OBJECTID":155,"Entity":"Line","Handle":"61395","Layer":"bottom outlet","LyrFrzn":0,"LyrOn":1,"Color":6,"Linetype":"Continuous","Elevation":0,"LineWt":25,"RefName":"","DocUpdate":1783359710000,"DocId":1.1061215596273316e+19,"t0":null,"t00":null,"Shape_Length":6.4588083295188836}},{"type":"Feature","id":156,"geometry":{"type":"LineString","coordinates":[[80.34029013156244,7.0578117778972853],[80.340289827781831,7.0578186729481276],[80.340288477696916,7.0578254413511505],[80.340286112790736,7.0578319252718416]]},"properties":{"OBJECTID":156,"Entity":"Arc","Handle":"61396","Layer":"bottom outlet","LyrFrzn":0,"LyrOn":1,"Color":6,"Linetype":"Continuous","Elevation":0,"LineWt":25,"RefName":"","DocUpdate":1783359710000,"DocId":1.1061215596273316e+19,"t0":null,"t00":null,"Shape_Length":2.2911529268177078}},{"type":"Feature","id":157,"geometry":{"type":"LineString","coordinates":[[80.3402895043386,7.0577924280881916],[80.34029013156244,7.0578117778972853]]},"properties":{"OBJECTID":157,"Entity":"Line","Handle":"61397","Layer":"bottom outlet","LyrFrzn":0,"LyrOn":1,"Color":6,"Linetype":"Continuous","Elevation":0,"LineWt":25,"RefName":"","DocUpdate":1783359710000,"DocId":1.1061215596273316e+19,"t0":null,"t00":null,"Shape_Length":2.1403214948083873}},{"type":"Feature","id":158,"geometry":{"type":"LineString","coordinates":[[80.340310106854957,7.0578471870430679],[80.34031498824433,7.0578423020182584],[80.340320555766993,7.0578382161742681],[80.340326679902944,7.0578350245620696]]},"properties":{"OBJECTID":158,"Entity":"Arc","Handle":"61398","Layer":"bottom outlet","LyrFrzn":0,"LyrOn":1,"Color":6,"Linetype":"Continuous","Elevation":0,"LineWt":25,"RefName":"","DocUpdate":1783359710000,"DocId":1.1061215596273316e+19,"t0":null,"t00":null,"Shape_Length":2.2911883708452452}},{"type":"Feature","id":159,"geometry":{"type":"LineString","coordinates":[[80.340344495106791,7.0578274055095696],[80.340326679902944,7.0578350245620696]]},"properties":{"OBJECTID":159,"Entity":"Line","Handle":"61399","Layer":"bottom outlet","LyrFrzn":0,"LyrOn":1,"Color":6,"Linetype":"Continuous","Elevation":0,"LineWt":25,"RefName":"","DocUpdate":1783359710000,"DocId":1.1061215596273316e+19,"t0":null,"t00":null,"Shape_Length":2.1403090832623324}},{"type":"Feature","id":160,"geometry":{"type":"LineString","coordinates":[[80.3402895043386,7.0577924280881916],[80.340281866657449,7.0577875698862993]]},"properties":{"OBJECTID":160,"Entity":"Line","Handle":"6139A","Layer":"bottom outlet","LyrFrzn":0,"LyrOn":1,"Color":6,"Linetype":"Continuous","Elevation":0,"LineWt":25,"RefName":"","DocUpdate":1783359710000,"DocId":1.1061215596273316e+19,"t0":null,"t00":null,"Shape_Length":1.0000156501337516}},{"type":"Feature","id":161,"geometry":{"type":"LineString","coordinates":[[80.340281866657449,7.0577875698862993],[80.340262289364489,7.057818288286752]]},"properties":{"OBJECTID":161,"Entity":"Line","Handle":"6139B","Layer":"bottom outlet","LyrFrzn":0,"LyrOn":1,"Color":6,"Linetype":"Continuous","Elevation":0,"LineWt":25,"RefName":"","DocUpdate":1783359710000,"DocId":1.1061215596273316e+19,"t0":null,"t00":null,"Shape_Length":4.0259477852887242}},{"type":"Feature","id":162,"geometry":{"type":"LineString","coordinates":[[80.340344495106791,7.0578274055095696],[80.340348314400117,7.0578298350629716]]},"properties":{"OBJECTID":162,"Entity":"Line","Handle":"6139C","Layer":"bottom outlet","LyrFrzn":0,"LyrOn":1,"Color":6,"Linetype":"Continuous","Elevation":0,"LineWt":25,"RefName":"","DocUpdate":1783359710000,"DocId":1.1061215596273316e+19,"t0":null,"t00":null,"Shape_Length":0.5000768336082928}},{"type":"Feature","id":163,"geometry":{"type":"LineString","coordinates":[[80.340282452710014,7.0578295972509864],[80.34027564503107,7.0578402792403576]]},"properties":{"OBJECTID":163,"Entity":"Line","Handle":"6139D","Layer":"bottom outlet","LyrFrzn":0,"LyrOn":1,"Color":6,"Linetype":"Continuous","Elevation":0,"LineWt":25,"RefName":"","DocUpdate":1783359710000,"DocId":1.1061215596273316e+19,"t0":null,"t00":null,"Shape_Length":1.3999728715078923}},{"type":"Feature","id":164,"geometry":{"type":"LineString","coordinates":[[80.340262289364489,7.057818288286752],[80.340268115799773,7.0578445135840102],[80.340196620636291,7.0579566925331481]]},"properties":{"OBJECTID":164,"Entity":"LWPolyline","Handle":"6139E","Layer":"bottom outlet","LyrFrzn":0,"LyrOn":1,"Color":6,"Linetype":"Continuous","Elevation":0,"LineWt":25,"RefName":"","DocUpdate":1783359710000,"DocId":1.1061215596273316e+19,"t0":null,"t00":null,"Shape_Length":17.672127859877861}},{"type":"Feature","id":165,"geometry":{"type":"LineString","coordinates":[[80.340299992907504,7.0578787066707598],[80.340230939691992,7.0579870529410211]]},"properties":{"OBJECTID":165,"Entity":"LWPolyline","Handle":"6139F","Layer":"bottom outlet","LyrFrzn":0,"LyrOn":1,"Color":6,"Linetype":"Continuous","Elevation":0,"LineWt":25,"RefName":"","DocUpdate":1783359710000,"DocId":1.1061215596273316e+19,"t0":null,"t00":null,"Shape_Length":14.19999068227766}}]}