{
  "type": "FeatureCollection",
  "features": [
    {
      "type": "Feature",
      "id": 1,
      "geometry": {
        "type": "LineString",
        "coordinates": [
          [
            80.33872508006961,
            7.059042001700618
          ],
          [
            80.33870049793474,
            7.0592068790364175
          ],
          [
            80.33869595621958,
            7.059226839419889
          ],
          [
            80.33868846388343,
            7.059245889590071
          ],
          [
            80.33867819140197,
            7.059263596091973
          ],
          [
            80.33866537250844,
            7.05927955604354
          ],
          [
            80.33865029887552,
            7.059293406302576
          ],
          [
            80.33863331347868,
            7.05930483172943
          ],
          [
            80.3386148027924,
            7.059313572357488
          ],
          [
            80.33854149422737,
            7.059341662817228
          ],
          [
            80.33851999680869,
            7.059347924677975
          ],
          [
            80.33849776311182,
            7.059350572815852
          ],
          [
            80.33847539631373,
            7.059349535389648
          ],
          [
            80.33845350320222,
            7.059344840543654
          ],
          [
            80.33840705444375,
            7.05933079329156
          ]
        ]
      },
      "properties": {
        "OBJECTID": 1,
        "Entity": "LWPolyline",
        "Handle": "35041",
        "Layer": "C-ROAD-CNTR-N",
        "LyrFrzn": 0,
        "LyrOn": 1,
        "Color": 92,
        "Linetype": "DASHED",
        "Elevation": -63.99,
        "LineWt": 30,
        "RefName": "",
        "DocUpdate": 1783359710000,
        "DocId": 1.1061215596273316e+19,
        "t0": null,
        "t00": null,
        "Shape_Length": 58.21418550624702
      }
    },
    {
      "type": "Feature",
      "id": 2,
      "geometry": {
        "type": "LineString",
        "coordinates": [
          [
            80.33833145088036,
            7.059418585217742
          ],
          [
            80.33832776484974,
            7.059408823569347
          ],
          [
            80.33832573145648,
            7.059398589219683
          ],
          [
            80.33832540588216,
            7.059388159905106
          ],
          [
            80.33832679696208,
            7.0593778186528695
          ],
          [
            80.3383298669456,
            7.059367846100418
          ],
          [
            80.3383345325205,
            7.059358512879543
          ],
          [
            80.33834066707401,
            7.059350072272073
          ],
          [
            80.33834810412864,
            7.059342753336389
          ],
          [
            80.3383566418601,
            7.059336754691321
          ],
          [
            80.3383660485743,
            7.059332239126092
          ],
          [
            80.33837606899495,
            7.0593293291826
          ],
          [
            80.33838643119124,
            7.0593281038299205
          ],
          [
            80.33839685395735,
            7.059328596321263
          ],
          [
            80.33840705444375,
            7.05933079329156
          ]
        ]
      },
      "properties": {
        "OBJECTID": 2,
        "Entity": "LWPolyline",
        "Handle": "35043",
        "Layer": "C-ROAD-CNTR-N",
        "LyrFrzn": 0,
        "LyrOn": 1,
        "Color": 92,
        "Linetype": "DASHED",
        "Elevation": -63.99,
        "LineWt": 30,
        "RefName": "",
        "DocUpdate": 1783359710000,
        "DocId": 1.1061215596273316e+19,
        "t0": null,
        "t00": null,
        "Shape_Length": 16.160467847118667
      }
    },
    {
      "type": "Feature",
      "id": 3,
      "geometry": {
        "type": "LineString",
        "coordinates": [
          [
            80.33833145088036,
            7.059418585217742
          ],
          [
            80.3384094792555,
            7.059582512614707
          ],
          [
            80.33842436179476,
            7.059621121147543
          ],
          [
            80.33843319572324,
            7.059661544785312
          ],
          [
            80.33843577527145,
            7.059702841936712
          ],
          [
            80.33843204035375,
            7.05974405066361
          ],
          [
            80.33842207796792,
            7.059784211087552
          ],
          [
            80.33833653905755,
            7.0600427326103565
          ]
        ]
      },
      "properties": {
        "OBJECTID": 3,
        "Entity": "LWPolyline",
        "Handle": "3504B",
        "Layer": "C-ROAD-CNTR-N",
        "LyrFrzn": 0,
        "LyrOn": 1,
        "Color": 92,
        "Linetype": "DASHED",
        "Elevation": -63.99,
        "LineWt": 30,
        "RefName": "",
        "DocUpdate": 1783359710000,
        "DocId": 1.1061215596273316e+19,
        "t0": null,
        "t00": null,
        "Shape_Length": 73.06245452217891
      }
    },
    {
      "type": "Feature",
      "id": 4,
      "geometry": {
        "type": "LineString",
        "coordinates": [
          [
            80.33848693739046,
            7.060219293146656
          ],
          [
            80.33846385488197,
            7.060221000160054
          ],
          [
            80.33844081796502,
            7.060218760394199
          ],
          [
            80.33841849657558,
            7.060212638983665
          ],
          [
            80.33839753984137,
            7.060202813945025
          ],
          [
            80.33837855720458,
            7.060189570999956
          ],
          [
            80.33836210069877,
            7.060173295266183
          ],
          [
            80.33834864889513,
            7.0601544600578725
          ],
          [
            80.3383385929852,
            7.060133613121201
          ],
          [
            80.3383322254046,
            7.060111360705363
          ],
          [
            80.33832973132878,
            7.060088349932254
          ],
          [
            80.33833118328789,
            7.060065249977535
          ],
          [
            80.33833653905755,
            7.0600427326103565
          ]
        ]
      },
      "properties": {
        "OBJECTID": 4,
        "Entity": "LWPolyline",
        "Handle": "3504D",
        "Layer": "C-ROAD-CNTR-N",
        "LyrFrzn": 0,
        "LyrOn": 1,
        "Color": 92,
        "Linetype": "DASHED",
        "Elevation": -63.99,
        "LineWt": 30,
        "RefName": "",
        "DocUpdate": 1783359710000,
        "DocId": 1.1061215596273316e+19,
        "t0": null,
        "t00": null,
        "Shape_Length": 30.728952552729652
      }
    },
    {
      "type": "Feature",
      "id": 5,
      "geometry": {
        "type": "LineString",
        "coordinates": [
          [
            80.33848693739046,
            7.060219293146656
          ],
          [
            80.33866377300063,
            7.06019104553255
          ]
        ]
      },
      "properties": {
        "OBJECTID": 5,
        "Entity": "LWPolyline",
        "Handle": "35051",
        "Layer": "C-ROAD-CNTR-N",
        "LyrFrzn": 0,
        "LyrOn": 1,
        "Color": 92,
        "Linetype": "DASHED",
        "Elevation": -63.99,
        "LineWt": 30,
        "RefName": "",
        "DocUpdate": 1783359710000,
        "DocId": 1.1061215596273316e+19,
        "t0": null,
        "t00": null,
        "Shape_Length": 19.778547883720154
      }
    },
    {
      "type": "Feature",
      "id": 6,
      "geometry": {
        "type": "LineString",
        "coordinates": [
          [
            80.3388063949343,
            7.060121307177932
          ],
          [
            80.33877503244076,
            7.060146519690265
          ],
          [
            80.33874029047952,
            7.0601668241948925
          ],
          [
            80.3387029309118,
            7.060181775431558
          ],
          [
            80.33866377300063,
            7.06019104553255
          ]
        ]
      },
      "properties": {
        "OBJECTID": 6,
        "Entity": "LWPolyline",
        "Handle": "35053",
        "Layer": "C-ROAD-CNTR-N",
        "LyrFrzn": 0,
        "LyrOn": 1,
        "Color": 92,
        "Linetype": "DASHED",
        "Elevation": -63.99,
        "LineWt": 30,
        "RefName": "",
        "DocUpdate": 1783359710000,
        "DocId": 1.1061215596273316e+19,
        "t0": null,
        "t00": null,
        "Shape_Length": 17.79721001678157
      }
    },
    {
      "type": "Feature",
      "id": 7,
      "geometry": {
        "type": "LineString",
        "coordinates": [
          [
            80.3388063949343,
            7.060121307177932
          ],
          [
            80.33890740985883,
            7.060026957120738
          ]
        ]
      },
      "properties": {
        "OBJECTID": 7,
        "Entity": "LWPolyline",
        "Handle": "35057",
        "Layer": "C-ROAD-CNTR-N",
        "LyrFrzn": 0,
        "LyrOn": 1,
        "Color": 92,
        "Linetype": "DASHED",
        "Elevation": -63.99,
        "LineWt": 30,
        "RefName": "",
        "DocUpdate": 1783359710000,
        "DocId": 1.1061215596273316e+19,
        "t0": null,
        "t00": null,
        "Shape_Length": 15.273144093095658
      }
    },
    {
      "type": "Feature",
      "id": 8,
      "geometry": {
        "type": "LineString",
        "coordinates": [
          [
            80.3390368586016,
            7.059808525162641
          ],
          [
            80.33902129643437,
            7.059857560866476
          ],
          [
            80.33900026503862,
            7.059904511496851
          ],
          [
            80.33897403665547,
            7.059948769300873
          ],
          [
            80.33894295079848,
            7.059989761382971
          ],
          [
            80.33890740985883,
            7.060026957120738
          ]
        ]
      },
      "properties": {
        "OBJECTID": 8,
        "Entity": "LWPolyline",
        "Handle": "35059",
        "Layer": "C-ROAD-CNTR-N",
        "LyrFrzn": 0,
        "LyrOn": 1,
        "Color": 92,
        "Linetype": "DASHED",
        "Elevation": -63.99,
        "LineWt": 30,
        "RefName": "",
        "DocUpdate": 1783359710000,
        "DocId": 1.1061215596273316e+19,
        "t0": null,
        "t00": null,
        "Shape_Length": 28.445425473776854
      }
    },
    {
      "type": "Feature",
      "id": 9,
      "geometry": {
        "type": "LineString",
        "coordinates": [
          [
            80.3390368586016,
            7.059808525162641
          ],
          [
            80.33905639679486,
            7.05973211145759
          ],
          [
            80.33907905532533,
            7.059653466851634
          ],
          [
            80.33910641772015,
            7.059576332667264
          ],
          [
            80.3391365563916,
            7.059498875662859
          ]
        ]
      },
      "properties": {
        "OBJECTID": 9,
        "Entity": "LWPolyline",
        "Handle": "35061",
        "Layer": "C-ROAD-CNTR-N",
        "LyrFrzn": 0,
        "LyrOn": 1,
        "Color": 92,
        "Linetype": "DASHED",
        "Elevation": -63.99,
        "LineWt": 30,
        "RefName": "",
        "DocUpdate": 1783359710000,
        "DocId": 1.1061215596273316e+19,
        "t0": null,
        "t00": null,
        "Shape_Length": 36.00383429502254
      }
    },
    {
      "type": "Feature",
      "id": 10,
      "geometry": {
        "type": "LineString",
        "coordinates": [
          [
            80.33917345595798,
            7.059390772619943
          ],
          [
            80.33915614508446,
            7.059445212893391
          ],
          [
            80.3391365563916,
            7.059498875662859
          ]
        ]
      },
      "properties": {
        "OBJECTID": 10,
        "Entity": "LWPolyline",
        "Handle": "35063",
        "Layer": "C-ROAD-CNTR-N",
        "LyrFrzn": 0,
        "LyrOn": 1,
        "Color": 92,
        "Linetype": "DASHED",
        "Elevation": -63.99,
        "LineWt": 30,
        "RefName": "",
        "DocUpdate": 1783359710000,
        "DocId": 1.1061215596273316e+19,
        "t0": null,
        "t00": null,
        "Shape_Length": 12.630704680321404
      }
    },
    {
      "type": "Feature",
      "id": 11,
      "geometry": {
        "type": "LineString",
        "coordinates": [
          [
            80.33917345595798,
            7.059390772619943
          ],
          [
            80.33934835339225,
            7.058797769828685
          ],
          [
            80.33937593889605,
            7.058714311014713
          ],
          [
            80.33940887383706,
            7.058632814859525
          ],
          [
            80.33949700240477,
            7.058433588109498
          ],
          [
            80.33950715113677,
            7.058414814275417
          ],
          [
            80.33952011444327,
            7.058397861213983
          ],
          [
            80.33953557249097,
            7.058383147194526
          ],
          [
            80.33955314389583,
            7.058371035244279
          ],
          [
            80.33957239513262,
            7.0583618241917065
          ],
          [
            80.33959285123096,
            7.0583557412937425
          ],
          [
            80.33961400749392,
            7.0583529366288635
          ],
          [
            80.33963534194993,
            7.058353479394324
          ],
          [
            80.339656328231,
            7.058357356198905
          ],
          [
            80.33967644855943,
            7.0583644713933085
          ],
          [
            80.3400973111927,
            7.058551580993264
          ],
          [
            80.34011647405487,
            7.058562010380262
          ],
          [
            80.34013371689164,
            7.058575377204106
          ],
          [
            80.34014859358597,
            7.058591335630277
          ],
          [
            80.34016071923905,
            7.058609472772759
          ],
          [
            80.34016978012866,
            7.058629319376477
          ],
          [
            80.34017554182604,
            7.058650361958145
          ],
          [
            80.34017785526106,
            7.058672056091414
          ],
          [
            80.34017666057915,
            7.058693840492599
          ],
          [
            80.34017198868983,
            7.058715151542551
          ],
          [
            80.34007563654257,
            7.059030492898514
          ]
        ]
      },
      "properties": {
        "OBJECTID": 11,
        "Entity": "LWPolyline",
        "Handle": "35073",
        "Layer": "C-ROAD-CNTR-N",
        "LyrFrzn": 0,
        "LyrOn": 1,
        "Color": 92,
        "Linetype": "DASHED",
        "Elevation": -63.99,
        "LineWt": 30,
        "RefName": "",
        "DocUpdate": 1783359710000,
        "DocId": 1.1061215596273316e+19,
        "t0": null,
        "t00": null,
        "Shape_Length": 244.515428053887
      }
    },
    {
      "type": "Feature",
      "id": 12,
      "geometry": {
        "type": "LineString",
        "coordinates": [
          [
            80.34007122120894,
            7.059090228516538
          ],
          [
            80.34006971929045,
            7.059070170856544
          ],
          [
            80.34007120195004,
            7.05905011176374
          ],
          [
            80.34007563654257,
            7.059030492898514
          ]
        ]
      },
      "properties": {
        "OBJECTID": 12,
        "Entity": "LWPolyline",
        "Handle": "35075",
        "Layer": "C-ROAD-CNTR-N",
        "LyrFrzn": 0,
        "LyrOn": 1,
        "Color": 92,
        "Linetype": "DASHED",
        "Elevation": -63.99,
        "LineWt": 30,
        "RefName": "",
        "DocUpdate": 1783359710000,
        "DocId": 1.1061215596273316e+19,
        "t0": null,
        "t00": null,
        "Shape_Length": 6.6769838259950305
      }
    },
    {
      "type": "Feature",
      "id": 13,
      "geometry": {
        "type": "LineString",
        "coordinates": [
          [
            80.34007122120894,
            7.059090228516538
          ],
          [
            80.34008525428098,
            7.059183704977578
          ],
          [
            80.3400867200455,
            7.059206292728548
          ],
          [
            80.34008441266235,
            7.059228810076139
          ],
          [
            80.34007839626837,
            7.059250631120176
          ],
          [
            80.34006883809735,
            7.059271149315187
          ],
          [
            80.34005600383163,
            7.059289794330152
          ],
          [
            80.34004025021702,
            7.059306047901626
          ],
          [
            80.34002201514653,
            7.059319458239577
          ],
          [
            80.34000180548867,
            7.059329652585499
          ],
          [
            80.33998018299825,
            7.0593363475737405
          ],
          [
            80.33995774870166,
            7.059339357108034
          ],
          [
            80.3399351261906,
            7.0593385975343
          ],
          [
            80.33991294428836,
            7.059334089965921
          ],
          [
            80.33987074851724,
            7.059321806384074
          ]
        ]
      },
      "properties": {
        "OBJECTID": 13,
        "Entity": "LWPolyline",
        "Handle": "3507C",
        "Layer": "C-ROAD-CNTR-N",
        "LyrFrzn": 0,
        "LyrOn": 1,
        "Color": 92,
        "Linetype": "DASHED",
        "Elevation": -63.99,
        "LineWt": 30,
        "RefName": "",
        "DocUpdate": 1783359710000,
        "DocId": 1.1061215596273316e+19,
        "t0": null,
        "t00": null,
        "Shape_Length": 45.35208995870401
      }
    }
  ]
}