{
  "type": "FeatureCollection",
  "features": [
    {
      "type": "Feature",
      "id": 1,
      "geometry": {
        "type": "LineString",
        "coordinates": [
          [
            80.3403062177521,
            7.057236138745825
          ],
          [
            80.34041359823603,
            7.057289849859121
          ]
        ]
      },
      "properties": {
        "OBJECTID": 1,
        "Entity": "Line",
        "Handle": "5C0F3",
        "Layer": "ps-frame",
        "LyrFrzn": 0,
        "LyrOn": 1,
        "Color": 0,
        "Linetype": "Continuous",
        "Elevation": 172.71,
        "LineWt": 0,
        "RefName": "",
        "DocUpdate": 1783359710000,
        "DocId": 1.1061215596273316e+19,
        "t0": null,
        "t00": null,
        "Shape_Length": 13.263107985382115
      }
    },
    {
      "type": "Feature",
      "id": 2,
      "geometry": {
        "type": "LineString",
        "coordinates": [
          [
            80.34027139185132,
            7.057335462721654
          ],
          [
            80.34027879407384,
            7.057320528444934
          ]
        ]
      },
      "properties": {
        "OBJECTID": 2,
        "Entity": "LWPolyline",
        "Handle": "5C0F7",
        "Layer": "ps-frame",
        "LyrFrzn": 0,
        "LyrOn": 1,
        "Color": 4,
        "Linetype": "Continuous",
        "Elevation": 60.71,
        "LineWt": 0,
        "RefName": "",
        "DocUpdate": 1783359710000,
        "DocId": 1.1061215596273316e+19,
        "t0": null,
        "t00": null,
        "Shape_Length": 1.8423669232233169
      }
    },
    {
      "type": "Feature",
      "id": 3,
      "geometry": {
        "type": "LineString",
        "coordinates": [
          [
            80.34036517781928,
            7.057168837776058
          ],
          [
            80.34035684552576,
            7.05718327324574
          ]
        ]
      },
      "properties": {
        "OBJECTID": 3,
        "Entity": "LWPolyline",
        "Handle": "5C0F8",
        "Layer": "ps-frame",
        "LyrFrzn": 0,
        "LyrOn": 1,
        "Color": 4,
        "Linetype": "Continuous",
        "Elevation": 60.71,
        "LineWt": 0,
        "RefName": "",
        "DocUpdate": 1783359710000,
        "DocId": 1.1061215596273316e+19,
        "t0": null,
        "t00": null,
        "Shape_Length": 1.8422192690923678
      }
    },
    {
      "type": "Feature",
      "id": 4,
      "geometry": {
        "type": "LineString",
        "coordinates": [
          [
            80.33991907329906,
            7.05701720398331
          ],
          [
            80.3399691613721,
            7.057030220521803
          ],
          [
            80.34001098136197,
            7.057033435575985
          ],
          [
            80.34005716334231,
            7.057038832201564
          ],
          [
            80.34009990260014,
            7.057042507147105
          ],
          [
            80.34013883178963,
            7.057044277178047
          ],
          [
            80.34018025005615,
            7.057047291747027
          ],
          [
            80.34026019030036,
            7.057068538307404
          ],
          [
            80.34037292625096,
            7.057108260209862
          ],
          [
            80.34042450741491,
            7.05713406080566
          ],
          [
            80.34051161998248,
            7.057195335929682
          ],
          [
            80.34054983589711,
            7.057232153870785
          ],
          [
            80.34057378870325,
            7.057261837486432
          ],
          [
            80.34061575588997,
            7.057300531302334
          ],
          [
            80.34064598614094,
            7.057333354380718
          ],
          [
            80.34066746164157,
            7.057361798897264
          ],
          [
            80.34068746324108,
            7.057389505943609
          ],
          [
            80.34072747415851,
            7.0574215567909295
          ],
          [
            80.34071302236165,
            7.057439618048901
          ],
          [
            80.34069856965951,
            7.057457678400498
          ],
          [
            80.34065669610865,
            7.0574487710849345
          ],
          [
            80.34062398550485,
            7.0574501124361255
          ],
          [
            80.34059362011877,
            7.057452626662772
          ],
          [
            80.34054220387397,
            7.0574446112964875
          ],
          [
            80.34048258208531,
            7.05743249221133
          ],
          [
            80.34043786038964,
            7.057427825838591
          ],
          [
            80.34039594716549,
            7.057424563651598
          ],
          [
            80.34032335431185,
            7.057405956073197
          ],
          [
            80.34022260773429,
            7.057355564010796
          ],
          [
            80.34012990086632,
            7.057291490433097
          ],
          [
            80.34007231614976,
            7.057244984636884
          ],
          [
            80.34003663278094,
            7.057209433876957
          ],
          [
            80.34000842026512,
            7.057177619460079
          ],
          [
            80.33998246520241,
            7.0571469343805955
          ],
          [
            80.33995347819425,
            7.057114732629198
          ],
          [
            80.33993364946672,
            7.057087111731479
          ],
          [
            80.33990942720773,
            7.057062958037149
          ],
          [
            80.33991378609564,
            7.0570398496973565
          ],
          [
            80.33991746076735,
            7.057020371195967
          ]
        ]
      },
      "properties": {
        "OBJECTID": 4,
        "Entity": "LWPolyline",
        "Handle": "5C1AF",
        "Layer": "ps-frame",
        "LyrFrzn": 0,
        "LyrOn": 1,
        "Color": 6,
        "Linetype": "Continuous",
        "Elevation": 62.309999999999995,
        "LineWt": 0,
        "RefName": "",
        "DocUpdate": 1783359710000,
        "DocId": 1.1061215596273316e+19,
        "t0": null,
        "t00": null,
        "Shape_Length": 216.3562243467181
      }
    },
    {
      "type": "Feature",
      "id": 5,
      "geometry": {
        "type": "LineString",
        "coordinates": [
          [
            80.33991378609564,
            7.0570398496973565
          ],
          [
            80.34071302236165,
            7.057439618048901
          ]
        ]
      },
      "properties": {
        "OBJECTID": 5,
        "Entity": "Line",
        "Handle": "5C1B0",
        "Layer": "ps-frame",
        "LyrFrzn": 0,
        "LyrOn": 1,
        "Color": 1,
        "Linetype": "Continuous",
        "Elevation": 172.71,
        "LineWt": 0,
        "RefName": "",
        "DocUpdate": 1783359710000,
        "DocId": 1.1061215596273316e+19,
        "t0": null,
        "t00": null,
        "Shape_Length": 98.71747436214227
      }
    },
    {
      "type": "Feature",
      "id": 6,
      "geometry": {
        "type": "LineString",
        "coordinates": [
          [
            80.33991907329906,
            7.05701720398331
          ],
          [
            80.34072747415851,
            7.0574215567909295
          ]
        ]
      },
      "properties": {
        "OBJECTID": 6,
        "Entity": "Line",
        "Handle": "5C1B1",
        "Layer": "ps-frame",
        "LyrFrzn": 0,
        "LyrOn": 1,
        "Color": 4,
        "Linetype": "Continuous",
        "Elevation": 172.70999999999947,
        "LineWt": 0,
        "RefName": "",
        "DocUpdate": 1783359710000,
        "DocId": 1.1061215596273316e+19,
        "t0": null,
        "t00": null,
        "Shape_Length": 99.84946180343086
      }
    },
    {
      "type": "Feature",
      "id": 7,
      "geometry": {
        "type": "LineString",
        "coordinates": [
          [
            80.33990942720773,
            7.057062958037149
          ],
          [
            80.34069856965951,
            7.057457678400498
          ]
        ]
      },
      "properties": {
        "OBJECTID": 7,
        "Entity": "Line",
        "Handle": "5C1B2",
        "Layer": "ps-frame",
        "LyrFrzn": 0,
        "LyrOn": 1,
        "Color": 4,
        "Linetype": "Continuous",
        "Elevation": 172.70999999999947,
        "LineWt": 0,
        "RefName": "",
        "DocUpdate": 1783359710000,
        "DocId": 1.1061215596273316e+19,
        "t0": null,
        "t00": null,
        "Shape_Length": 97.47077648265605
      }
    }
  ]
}